state,activity,rfc,name,address,legal_rep,phone,email,address2,phone2,zip,city
JALISCO,A,AAA9007035A9,"Albergue para Ancianos de Autlán, A.C.","Leandro Valle Núm 13, Col. Centro, C.P. 48900, Autlán de Navarro, Jalisco",Victoria Cruz Camacho,3173821428,,,,48900,Autlán de Navarro
JALISCO,A,CDA9910138E3,"Casa de Descanso para Ancianos Desamparados, A.C","Av. José María Martínez Núm 1375, Col. Centro, C.P. 49650, Tamazula de Gordiano, Jalisco",Ma. de la Luz Sánchez Madrigal,134163918,,,,49650,Tamazula de Gordiano
JALISCO,B,CDL7507105XA,"Colegio Doctor Luis Gómez Preciado, A.C.","Portal Heroes Núm 2, Col. Tenamaxtlan, C.P. 48570, Tenamaxtlán, Jalisco",Jorge Brambila López,3487750021,Icp_miguel@hotmail.com,,,48570,Tenamaxtlán
JALISCO,A,CIT960920NCA,"Centro de Integración Tapalpa, A.C.","Salto del Nogal Núm 100, C.P. 49340, Tapalpa, Jalisco",Patricia Villa Lever,1336156696,citac96@hotmail.com,,,49340,Tapalpa
JALISCO,A,CNC901105QW6,"Casa de Niños Corazón de Ángel, A.C.","Gómez Farías Núm 230, Col. Solidaridad, C.P. 49097, Ciudad Guzman, Jalisco",Gabriela María del Carmen Pérez Bándala,3414135892,,,,49097,Ciudad Guzman
JALISCO,B,CST900228NF7,"Colegio Sierra de Tapalpa, A.C.","Fco. I. Madero Núm 246, Col. Centro, C.P. 49340, Tapalpa, Jalisco",Rosa Micaela Váquez Amabilis,3434320146,,,,49340,Tapalpa
JALISCO,A,CHM070619VA6,"Casa Hogar Mi Pequeña Familia, A.C.","Alameda Núm 100, C.P. 49300, Sayula, Jalisco",Judith Betzabeth De la Vara Bustamante,3414124059,mipequenafamilia@hotmail.com.,,,49300,Sayula
JALISCO,M,CHM070619VA6,"Casa Hogar Mi Pequeña Familia, A.C.","Alameda Núm 100, C.P. 49300, Sayula, Jalisco",Judith Betzabeth De la Vara Bustamante,3414124059,mipequenafamilia@hotmail.com.,,,49300,Sayula
JALISCO,A,FHA101220VB7,Fundación Humvascular Alem,"Miguel Hidalgo Núm 224, Col. Centro, C.P. 49000, Zapotlán del Rey, Jalisco",Guillermo Ramón Aguilar Peralta,3414125357,fundacion@humvascularalem.org,,,49000,Zapotlán del Rey
JALISCO,A,GVI991217920,"Gotitas de Vida, A.C.","Guzmán Núm 66 Nte., Col. Centro, C.P. 49650, Tamazula de Gordiano, Jalisco",Luisa Mireya Carbonell Areaza,3584160704,,,,49650,Tamazula de Gordiano
JALISCO,A,HND961016BY6,"Hogar del Niño Desprotegido San Isidro, A.C.","Mariano Escobedo Núm 54, Col. Centro, C.P. 48900, Autlán de Navarro, Jalisco",Isidro Ramírez Castellón,(01338) 231 14,,,,48900,Autlán de Navarro
JALISCO,A,JOS080118NY9,"JOSIC, A.C.","1 de Mayo Núm 427, Col. Centro, C.P. 49000, Ciudad Guzman, Jalisco",María de Lourdes Galindo Salcedo,341 41 3 32 03,lourdesga15@hotmail.com,,,49000,Ciudad Guzman
JALISCO,A,NEI140620TK1,"Nada es Imposible para Dios, A.C.","Ferrocarril Norte Núm 17, Col. Centro, C.P. 49800, Tuxpan, Jalisco",Alberto Basurto Cervantes,3338102389,megacom_gdl@hotmail.com,,,49800,Tuxpan
JALISCO,M,NEI140620TK1,"Nada es Imposible para Dios, A.C.","Ferrocarril Norte Núm 17, Col. Centro, C.P. 49800, Tuxpan, Jalisco",Alberto Basurto Cervantes,3338102389,megacom_gdl@hotmail.com,,,49800,Tuxpan
JALISCO,F,PNC9805151I3,"Patronato del Nevado de Colima y Cuencas Adyacentes, A.C.","Primero de Mayo Núm 126 - 10, Col. Centro, C.P. 49000, Ciudad Guzman, Jalisco",Juan Carlos Romo Peña Juan Manuel Guzmán Silva,3414134020,,,,49000,Ciudad Guzman
JALISCO,M,PNC9805151I3,"Patronato del Nevado de Colima y Cuencas Adyacentes, A.C.","Primero de Mayo Núm 126 - 10, Col. Centro, C.P. 49000, Ciudad Guzman, Jalisco",Juan Carlos Romo Peña Juan Manuel Guzmán Silva,3414134020,,,,49000,Ciudad Guzman
JALISCO,B,PTE541008GM3,"Patronato de Tecolotlán, A.C.","Constitución Núm 145, C.P. 48540, Tecolotlán, Jalisco",Miguel Villalpando Estrella,3497760410,lcp_miguel@hotmail.com,,,48540,Tecolotlán
JALISCO,A,AAA110314MX0,"Alivio al Alma, A.C.","Monte Parnaso Núm 2315 - 1, Col. Oblatos, C.P. 44700, Guadalajara, Jalisco",Leticia Bernaga Soto,33369987,alivio.al.alma@gmail.com,,,44700,Guadalajara
JALISCO,A,AAJ1104132X1,"Albergue para Amigos de Juanita y Fernando, A.C.","Belisario Domínguez Núm 404, Col. La Perla, C.P. 44360, Guadalajara, Jalisco",Juana González Muñoz,,,,,44360,Guadalajara
JALISCO,I,ACN930102E84,"AMSIF Coordinación Nacional, A.C.","Justo Sierra Núm 2198, Col. Ladrón de Guevara, C.P. 44600, Guadalajara, Jalisco",Blanca Margarita Felix Gaxiola,01 668 818-95-76,,,,44600,Guadalajara
JALISCO,B,ACU550420CD8,"Acción Cultural, A.C.","Pedro Loza Núm 459, Col. El Santuario, C.P. 44200, Guadalajara, Jalisco",María del Refugio Rosales Hueso,36 13 64 73,,"Aurelio L. Gallardo Núm 743, Col. Ladrón de Guevara, C.P. 44600, Guadalajara, Jalisco",36 41 32 12,44200,Guadalajara
JALISCO,A,ACH8911232F4,"Amor Casa Hogar, A.C.","Manuel Acuña Núm 388, Col. Centro, C.P. 44100, Guadalajara, Jalisco",Maria de la Luz Guardado Alvarez,36141088,edgardopaul_hotmail.com,,,44100,Guadalajara
JALISCO,A,ADC840312RJ1,"Asociación Deportiva, Cultural y Recreativa Silente de Jalisco, A.C.","Av. de los Maestros Núm 1031, Col. Barranquita Alcalde, C.P. 44280, Guadalajara, Jalisco",Aida Araceli Arámburo Osuna,3336141776,,,,44280,Guadalajara
JALISCO,A,ADM101206L93,"Asociación de Desarrollo y Mejoramiento Social Integral, A.C.","Perdiz Núm 1221, Col. Morelos, C.P. 44910, Guadalajara, Jalisco",José de Jesús Pérez Ochoa,,,,,44910,Guadalajara
JALISCO,A,ADM960402JE0,"Asociación de Distrofia Muscular de Occidente, A.C.","Ramón Morales Núm 284, Col. Sector Libertad, C.P. 44380, Guadalajara, Jalisco",Luz Clementina Hernández Madera,36 17 31 14,,,,44380,Guadalajara
JALISCO,M,ADM960402JE0,"Asociación de Distrofia Muscular de Occidente, A.C.","Ramón Morales Núm 284, Col. Sector Libertad, C.P. 44380, Guadalajara, Jalisco",Luz Clementina Hernández Madera,36 17 31 14,,,,44380,Guadalajara
JALISCO,A,AEG1507286XA,"Albergue Ezequiel Gutierrez Martín, A.C.","Av. Doctor Carlos Canseco González Núm 710, Col. Fracc. Los Sauces, C.P. 47660, Tepatitlán de Morelos, Jalisco",Ezequiel Gutiérrez Martín,,,,,47660,Tepatitlán de Morelos
JALISCO,A,AEI080121M47,"Asistencia e Investigación en Glaucoma, A.C.","Mariano Azuela Núm 37, Col. Ladrón de Guevara, C.P. 44600, Guadalajara, Jalisco",José Antonio Paczka Zapata,3336940040,jakelinne76@hotmail.com,,,44600,Guadalajara
JALISCO,I,AFM110810IG2,"Alianza FC México, A.C.","Francisco Rojas González Núm 27 A, Col. Ladrón de Guevara, C.P. 44600, Guadalajara, Jalisco",Laura Sarvide Álvarez Icaza,,,,,44600,Guadalajara
JALISCO,A,AMB950606KEA,"Asociación Mexicana de Bancos de Alimentos, A.C.","Rinconada del Agua Núm 2811, Col. Rinconada del Bosque, C.P. 44530, Guadalajara, Jalisco",Jesús Salvador Manjarrez Miramontes,3331620330,administracion@bamx.org.mx,,,44530,Guadalajara
JALISCO,M,AMB950606KEA,"Asociación Mexicana de Bancos de Alimentos, A.C.","Rinconada del Agua Núm 2811, Col. Rinconada del Bosque, C.P. 44530, Guadalajara, Jalisco",Jesús Salvador Manjarrez Miramontes,3331620330,administracion@bamx.org.mx,,,44530,Guadalajara
JALISCO,A,AMF110408QLA,"Asociación Mexicana de Fenilcetonuria, A.C.","Av. Américas Núm 1536 - Piso 4, Col. Country Club, C.P. 44637, Guadalajara, Jalisco",José de Jesús Muñoz Navarro,3338170024,pkumexico@hotmail.com,,,44637,Guadalajara
JALISCO,M,AMF110408QLA,"Asociación Mexicana de Fenilcetonuria, A.C.","Av. Américas Núm 1536 - Piso 4, Col. Country Club, C.P. 44637, Guadalajara, Jalisco",José de Jesús Muñoz Navarro,3338170024,pkumexico@hotmail.com,,,44637,Guadalajara
JALISCO,M,AML140707II0,"Asociación Mexicana Linfologìa y Linfedema, A.C.","Morelos Núm 1979 - 2, Col. Obrera Centro, C.P. 44140, Guadalajara, Jalisco",Blanca Alicia Meza León,36164787,,,,44140,Guadalajara
JALISCO,A,AML140707II0,"Asociación Mexicana Linfologìa y Linfedema, A.C.","Morelos Núm 1979 - 2, Col. Obrera Centro, C.P. 44140, Guadalajara, Jalisco",Blanca Alicia Meza León,36164787,,,,44140,Guadalajara
JALISCO,A,APF830317BG5,"Asociación de Padres de Familia con Niños Down, A.C.","Plan de San Luis Núm 1640, Col. Mezquitán Country, C.P. 44260, Guadalajara, Jalisco",Carlos Humberto Barragan Fonseca,23-89-34,,,,44260,Guadalajara
JALISCO,A,ASE8707065B7,"Ayuda y Servicio, A.C.","Valparaíso Núm 2367 - 14, Col. Providencia 1a., 2a. y 3a. Sección, C.P. 44630, Guadalajara, Jalisco",Pablo Ignacio Heliodoro Sahagun de la Mora,,,,,44630,Guadalajara
JALISCO,B,ASF560417BA3,"The American School Foundation of Guadalajara, A.C.","Colomos Núm 2100, Col. Italia Providencia, C.P. 44640, Guadalajara, Jalisco",Felipe Delfín,01 3 8173377,,,,44640,Guadalajara
JALISCO,A,ASO1310017J3,"Aprendiendo con Sonrisas, A.C.","Montenegro Núm 174, Col. San Sebastián El Grande, C.P. 45650, Tlajomulco de Zuñiga, Jalisco",Ana Elizabeth Cantera Ramírez,3338178705,gaely_mendez@gmail.com,,,45650,Tlajomulco de Zuñiga
JALISCO,A,ASS120911NAA,"Señorita Sorda México, A.C.","Álvaro Obregón Núm 41, Col. Guadalajara Centro, C.P. 44100, Guadalajara, Jalisco",Silvia Raquel Camarena Núñez,36170649,senoritasordamexico@hotmail.com,,,44100,Guadalajara
JALISCO,M,ATI021216BK6,"El Arte de los Títeres, A.C.","Monte Everest Núm 1192, PB., Col. Independencia Oriente, C.P. 44340, Guadalajara, Jalisco",Antonio Camacho Oropeza,(33) 36096420,la_coperacha@yahoo.com.mx,,,44340,Guadalajara
JALISCO,D,ATI021216BK6,"El Arte de los Títeres, A.C.","Monte Everest Núm 1192, PB., Col. Independencia Oriente, C.P. 44340, Guadalajara, Jalisco",Antonio Camacho Oropeza,(33) 36096420,la_coperacha@yahoo.com.mx,,,44340,Guadalajara
JALISCO,A,AVI000502AD5,"Apoyo y Vida, A.C.","Miguel Gordoa Núm 1689, Col. San Miguel Mezquitan, C.P. 44260, Guadalajara, Jalisco",Brenda Schultz Hoeflich,36-16-84-19,,,,44260,Guadalajara
JALISCO,L,BME140304JI3,"Butterflies en México, A.C.","Paseo Piedra Grande Núm 250, Col. Localidad San Juan Cosala, C.P. 45820, Jocotepec, Jalisco",Mac Bruce Whyte,3877610360,ravensmac@gmail.com,,,45820,Jocotepec
JALISCO,B,BPA121130LH6,"Bachillerato Pedro Arrupe, SJ, A.C.","Prisciliano Sánchez Núm 952, Col. Americana, C.P. 44160, Guadalajara, Jalisco",Lucía Márquez López,3338806000,lmarquez@dalton.com.mx,,,44160,Guadalajara
JALISCO,A,BSN1207091M8,"Por el Bien Superior del Niño, A.C.","Privada de las Bugambilias Núm 2, Col. Lomas del Bosque, C.P. 45118, Guadalajara, Jalisco",Karla Esmeralda Rodríguez Pérez,,,,,45118,Guadalajara
JALISCO,A,BUN921001T39,"Barrios Unidos, A.C.","Josefa Ortíz de Domínguez Núm 1306, Col. Blanco y Cuellar, C.P. 44730, Guadalajara, Jalisco",Héctor Adán Castañeda Aguilera,336440786,,,,44730,Guadalajara
JALISCO,M,CAL150815B35,"Creando Alegrías, A.C.","Rafael Lozada Núm 3009, Col. Echeverría, C.P. 44970, Guadalajara, Jalisco",Juan José Rodríguez Ambriz,20052857,creandoalegriasac@gmail.com,,,44970,Guadalajara
JALISCO,A,CAL150815B35,"Creando Alegrías, A.C.","Rafael Lozada Núm 3009, Col. Echeverría, C.P. 44970, Guadalajara, Jalisco",Juan José Rodríguez Ambriz,20052857,creandoalegriasac@gmail.com,,,44970,Guadalajara
JALISCO,A,CAM751224G71,"Camyn, A.C.","Av. Hidalgo Núm 1691 - A, Col. Ladron de Guevara, C.P. 44600, Guadalajara, Jalisco",Gloria del Sagrado Corazón Barreiro Guemes Verónica Haydee Fernández Labastida,36159239,gloriabarreiro@yahoo.com.mx,,,44600,Guadalajara
JALISCO,I,CAN1504277U7,"Canfelis, A.C.","Av. Periférico Sur Núm 7800, Col. Santa Mar Tequetexpan, C.P. 45601, Tlaquepaque, Jalisco",Oscar Rodrigo Salcedo Pérez,,,,,45601,Tlaquepaque
JALISCO,A,CAT940523L88,"Club de Amigos de la Tercera Edad, A.C.","República Núm 728, Col. Zona Oblatos, Sector Libertad, C.P. 44380, Guadalajara, Jalisco",Luis Cuahutémoc López González,338234247,,,,44380,Guadalajara
JALISCO,B,CCE62111051A,"Colegio Cervantes, A.C.","Luis Pérez Verdia Núm 361, Col. Ladrón de Guevara, C.P. 44600, Guadalajara, Jalisco",Manuel Franco Jáuregui,3630-3610 y 2062,,,,44600,Guadalajara
JALISCO,A,CCM070713L51,"Centro para la Capacitación Matrimonial y Familiar, A.C.","Av. de la Paz Núm 1699 - 2, Col. Americana, C.P. 44160, Guadalajara, Jalisco",David Ochoa Sandoval,3338272650,palacamafa@yahoo.com,,,44160,Guadalajara
JALISCO,B,CCP780610690,"Centro Cultural La Paz de Yahualica, A.C.","Santiago Lavin Núm 1280 Pte., Col. Bellavista, C.P. 35050, Yahualica de González Gallo, Jalisco",Hector Enrique Pérez Velázquez,,,,,35050,Yahualica de González Gallo
JALISCO,M,CDS870907FW2,"Casa de Descanso la Sagrada Familia, A.C.","Av. México Núm 2074, Col. Ladrón de Guevara, C.P. 44600, Guadalajara, Jalisco",Verónica Chávez Arriola,3338253879,correo@despachodecontadores.com,,,44600,Guadalajara
JALISCO,A,CDS870907FW2,"Casa de Descanso la Sagrada Familia, A.C.","Av. México Núm 2074, Col. Ladrón de Guevara, C.P. 44600, Guadalajara, Jalisco",Verónica Chávez Arriola,3338253879,correo@despachodecontadores.com,,,44600,Guadalajara
JALISCO,B,CEI930715ME7,"Centro de Estudios e Investigaciones de Bioética, A.C.","Av. Vallarta Núm 1944, Col. Obrera Centro, C.P. 44140, Guadalajara, Jalisco",Miguel Ayala Fuentes,01 658 811 74 14,,,,44140,Guadalajara
JALISCO,B,CEO030211CA3,"En la Comunidad Encuentro de Occidente, A.C.","Chapultepec Norte Núm 67 - 23, Col. Ladrón de Guevara, C.P. 44600, Guadalajara, Jalisco",Alajandra Paulina Luz Cortina Campero,,,,,44600,Guadalajara
JALISCO,B,CEO6209294X8,"Colegio Enrique de Osso, A.C.","Brasilia Núm 2601, Col. Providencia 1a, 2a y 3a sección, C.P. 44630, Guadalajara, Jalisco",Lucina del Cármen Barragán Taylor,(0133) 3641 1988,lucyby@hotmail.com,,,44630,Guadalajara
JALISCO,A,CEP100322MA7,"Colegiado de Emergencias Protección Civil y Bomberos, A.C.","Coronel Calderón Núm 626, Col. Alcalde Barranquitas, C.P. 44280, Guadalajara, Jalisco",Víctor Yug Maxemin Castillo,16 50 00 78,maxyug@hotmail.com,,,44280,Guadalajara
JALISCO,B,CET8506179N9,"Centro Escolar Torreblanca, A.C.","Pisa Núm 939, Col. Italia Providencia, C.P. 44640, Guadalajara, Jalisco",Josefina De Los Angeles Lango Obregón,641 73 60,,,,44640,Guadalajara
JALISCO,M,CGU791002JB2,"Cáritas de Guadalajara, A.C.","Belisario Domínguez Núm 511, Col. San Juan de Dios, C.P. 44360, Guadalajara, Jalisco",David Rodríguez Reynaga Maximiano Gutiérrez Beracochea Antonio Uriarte García,3336176122,,,,44360,Guadalajara
JALISCO,A,CGU791002JB2,"Cáritas de Guadalajara, A.C.","Belisario Domínguez Núm 511, Col. San Juan de Dios, C.P. 44360, Guadalajara, Jalisco",David Rodríguez Reynaga Maximiano Gutiérrez Beracochea Antonio Uriarte García,3336176122,,,,44360,Guadalajara
JALISCO,A,CIC011003EHA,"Centro Integral Comunitario, A.C.","Santa Rosa del Valle Núm 5, Col. Santa Rosa del Valle, C.P. 45690, El Salto, Jalisco",Martha  Beatriz Medina Chipres,36472821,crodriguez05@msn.com,,,45690,El Salto
JALISCO,M,CIC011003EHA,"Centro Integral Comunitario, A.C.","Santa Rosa del Valle Núm 5, Col. Santa Rosa del Valle, C.P. 45690, El Salto, Jalisco",Martha  Beatriz Medina Chipres,36472821,crodriguez05@msn.com,,,45690,El Salto
JALISCO,A,CIE0404195H2,"Centro de Investigación y Educación en Diabetes y Enfermedades Cardiometabólicas, A.C.","Tarascos Núm 3314, Col. Fraccionamiento Monraz, C.P. 44670, Guadalajara, Jalisco",Alfredo Ortíz Cadenas,,,,,44670,Guadalajara
JALISCO,B,CIF0107169P2,"Centro Infantil Froebel, S.C.","Arista Núm 1273, Col. Sagrada Familia, C.P. 44200, Guadalajara, Jalisco",Rita Josefina Bravo de Alva,15961922,nominasbolasting@gmail.com,,,44200,Guadalajara
JALISCO,B,CIN620926IE5,"Colegio Independencia, A.C.","Jarauta Núm 334, Col. Sector Libertad, C.P. 44360, Guadalajara, Jalisco",Regina Cervantes Muñiz. Muñiz,01 3 6170458,,,,44360,Guadalajara
JALISCO,M,CIR861029BX9,"Centro Integral de Rehabilitación Infantil, A.C.","Av. Vallarta Núm 2575, Col. Centro Sector Juárez, C.P. 44100, Guadalajara, Jalisco",Ma. Lucina Bravo De González,3336155372,,,,44100,Guadalajara
JALISCO,A,CIR861029BX9,"Centro Integral de Rehabilitación Infantil, A.C.","Av. Vallarta Núm 2575, Col. Centro Sector Juárez, C.P. 44100, Guadalajara, Jalisco",Ma. Lucina Bravo De González,3336155372,,,,44100,Guadalajara
JALISCO,B,CJA621106IP8,"Cultural de Jalisco, A.C.","San Benildo Núm 2585, Col. Lomas Independencia, C.P. 44370, Guadalajara, Jalisco",Antonio Sánchez Partida,,,,,44370,Guadalajara
JALISCO,B,CJC880428PF1,"Colegio Jalisco de Colotlán, A.C.","Juárez Núm 74, Col. Colotlán, C.P. 46200, Guadalajara, Jalisco",Aurora Soriano Medrano,14999920026,,,,46200,Guadalajara
JALISCO,B,CLN940905NRA,"Colegio Luis Navarro, A.C.","López Mateos Núm 115, Col. El Rosario, C.P. 46400, Tequila, Jalisco",Alfonso Ramírez Quintana,,,,,46400,Tequila
JALISCO,A,CMA101210QLA,"Comunidad de los Martines, A.C.","José Natividad Macías Núm 1298, Col. Dieciocho de Marzo, C.P. 44960, Guadalajara, Jalisco",David John Kalke,3331446704,comart@live.com.mx,,,44960,Guadalajara
JALISCO,D,CNA960802EJ0,"Consejo Nacional Adopte una Obra de Arte, A.C.","Privada Mar Negro Núm 1430 - 8, Col. Lomas del Country, C.P. 44610, Guadalajara, Jalisco",María Irma Iturbide Robles,3336160139,mariairmamx@yahoo.com.mx,,,44610,Guadalajara
JALISCO,M,CNA960802EJ0,"Consejo Nacional Adopte una Obra de Arte, A.C.","Privada Mar Negro Núm 1430 - 8, Col. Lomas del Country, C.P. 44610, Guadalajara, Jalisco",María Irma Iturbide Robles,3336160139,mariairmamx@yahoo.com.mx,,,44610,Guadalajara
JALISCO,A,COR8409071T1,"Centro Ortopédico de Rehabilitación Infantil, A.C.","Belisario Domínguez Núm 4245 - B, Col. La Federacha, C.P. 44300, Guadalajara, Jalisco",Ing. José Fernández Grandizo,3336743722,,,,44300,Guadalajara
JALISCO,A,CPD051010SN6,"Colectivo Pro Derechos de la Niñez, A.C.","Cruz Verde Núm 19, Col. Jesús, C.P. 44200, Guadalajara, Jalisco",Leticia Escoto Montoya,3338274274,administracion@codeni.org.mx,,,44200,Guadalajara
JALISCO,B,CPG0802191M8,"Colegio Pedregal de Guadalajara, A.C.","Av. del Bajío Núm 5903, Col. El Bajío, C.P. 45019, Acatic, Jalisco",Rogelio Martínez Briones,31106399,brizakarina@hotmail.com,,,45019,Acatic
JALISCO,D,CPR121105DF2,"Crecimiento y Proacción, A.C.","Jaime Nuno Núm 475, Col. Santa Teresita, C.P. 44600, Guadalajara, Jalisco",Julio Pulido Cruz,3335854184,cfr1917@yahoo.com.mx,,,44600,Guadalajara
JALISCO,A,CRD140121KD0,"Construyendo Redes de Bienestar Para la Mujer y su Familia, A.C.","Tuberosa Núm 1156, Col. Quinta Velarde, C.P. 44430, Guadalajara, Jalisco",Lorena Osuna Garata,3336323017,jaimesolorzano@hotmail.com,,,44430,Guadalajara
JALISCO,A,CRE070315KE5,"Centro de Rehabilitación de Enfermedades Adictivas, A.C.","Calzada Independencia Nte. Núm 1091, Col. Independencia, C.P. 44379, Guadalajara, Jalisco",Ramón Francisco Valeriano Sánchez,3336517522,alberguediosporsiempre@hotmail.com,,,44379,Guadalajara
JALISCO,M,CRE070315KE5,"Centro de Rehabilitación de Enfermedades Adictivas, A.C.","Calzada Independencia Nte. Núm 1091, Col. Independencia, C.P. 44379, Guadalajara, Jalisco",Ramón Francisco Valeriano Sánchez,3336517522,alberguediosporsiempre@hotmail.com,,,44379,Guadalajara
JALISCO,B,CRG691017RY6,"Colegio Rafael Guizar, A.C.","Sierra Nevada Núm 1610, Col. Independencia, C.P. 44240, Guadalajara, Jalisco",Luz María Fernández Zamora,3336379349,,,,44240,Guadalajara
JALISCO,B,CRS940905CX4,"Colegio Reforma Secundaria y Preparatoria, A.C.","Pedro Loza Núm 925, Col. Barranquitas, C.P. 44280, Guadalajara, Jalisco",Georgina Martínez Vaca,36135340,Josecruz1950@hotmail.com,,,44280,Guadalajara
JALISCO,A,CSC010627FR7,"Centro San Camilo, A.C.","Av. Pablo Casals Núm 2983, Col. Providencia, C.P. 44630, Zapopan, Jalisco",Silvio Marinelli,3338170452,camilos_mex@infosel.net.mx,,,44630,Zapopan
JALISCO,A,CSP130716N17,"C&J Sonidos y Palabras, A.C.","Paseo Carretas Núm 170 - 1417, Col. Las Villas de Torremolinos, C.P. 45130, Tonalá, Jalisco",Verónica Judith Velázquez Álvarez,3331245207,judithmia@live.com.mx,,,45130,Tonalá
JALISCO,M,CSP130716N17,"C&J Sonidos y Palabras, A.C.","Paseo Carretas Núm 170 - 1417, Col. Las Villas de Torremolinos, C.P. 45130, Tonalá, Jalisco",Verónica Judith Velázquez Álvarez,3331245207,judithmia@live.com.mx,,,45130,Tonalá
JALISCO,A,CTI140523624,"Comisión para el Tratamiento Integral de Personas con Problemas Psicoemocionales, A.C.","Toledo Núm 2534, Col. Santa Elena Alcade, C.P. 44220, Guadalajara, Jalisco",Cecilia Margarita Aguirre Macias,33313956,,,,44220,Guadalajara
JALISCO,M,CTI140523624,"Comisión para el Tratamiento Integral de Personas con Problemas Psicoemocionales, A.C.","Toledo Núm 2534, Col. Santa Elena Alcade, C.P. 44220, Guadalajara, Jalisco",Cecilia Margarita Aguirre Macias,33313956,,,,44220,Guadalajara
JALISCO,M,CUI060102G84,"Cuidarte, A.C.","Corfu Núm 1336, Col. Chapultpec, C.P. 44620, Guadalajara, Jalisco",María Isabel Alva Castro,3338540437,cuidarte@prodigy.net.mx,,,44620,Guadalajara
JALISCO,A,CUI060102G84,"Cuidarte, A.C.","Corfu Núm 1336, Col. Chapultpec, C.P. 44620, Guadalajara, Jalisco",María Isabel Alva Castro,3338540437,cuidarte@prodigy.net.mx,,,44620,Guadalajara
JALISCO,A,CVE0902106C6,"CORDICA 21, A.C.","Av. Hidalgo Núm 1895, Col. Ladrón de Guevara, C.P. 44600, Guadalajara, Jalisco",José Rubén Ruiz Rodríguez,3336159920,pepe.ruiz@cordica.com,,,44600,Guadalajara
JALISCO,M,CVN100202RHA,"Campeones de la Vida NR, A.C.","Toluca Núm 689 - 4, Col. La Perla, C.P. 44360, Guadalajara, Jalisco",Alejandro de Jesús Barbosa Padilla,3333310241,contacto@narizroja.org,,,44360,Guadalajara
JALISCO,A,CVN100202RHA,"Campeones de la Vida NR, A.C.","Toluca Núm 689 - 4, Col. La Perla, C.P. 44360, Guadalajara, Jalisco",Alejandro de Jesús Barbosa Padilla,3333310241,contacto@narizroja.org,,,44360,Guadalajara
JALISCO,M,CZA140930GW8,"Corazones por Zapotlán, A.C.","Federico del Toro Núm 27 - 15, Col. Centro, C.P. 49000, Zapotitlán de Vadillo, Jalisco", Llamas Navarrete,3414125405,lizette_navarrete@hotmail.com,,,49000,Zapotitlán de Vadillo
JALISCO,A,CZA140930GW8,"Corazones por Zapotlán, A.C.","Federico del Toro Núm 27 - 15, Col. Centro, C.P. 49000, Zapotitlán de Vadillo, Jalisco", Llamas Navarrete,3414125405,lizette_navarrete@hotmail.com,,,49000,Zapotitlán de Vadillo
JALISCO,M,CZV131028KV4,"Colectivo Zapotlán VIHVO, A.C.","Negrete Núm 45-C, Col. Centro, C.P. 49000, Zapotitlán de Vadillo, Jalisco",Rodrigo Aguilar Cornejo,,zapotitlanvihvo@gmail.com,,,49000,Zapotitlán de Vadillo
JALISCO,A,CZV131028KV4,"Colectivo Zapotlán VIHVO, A.C.","Negrete Núm 45-C, Col. Centro, C.P. 49000, Zapotitlán de Vadillo, Jalisco",Rodrigo Aguilar Cornejo,,zapotitlanvihvo@gmail.com,,,49000,Zapotitlán de Vadillo
JALISCO,A,CHA970303778,"Casa Hogar del Anciano Agustín Velázquez Medina, A.C.","Prolongación López Mateos Núm 120, Col. El Rosario, C.P. 46400, Tequila, Jalisco",Elisa del Consuelo Sánchez Estrada,3747423625,casahogardelaancianoavm@hotmail.com,,,46400,Tequila
JALISCO,A,CHK050302RR3,"Casa Hogar Kamami, A.C.","Juan Manuel Núm 912, Col. Jesús, C.P. 44200, Guadalajara, Jalisco",Luz Marcela López de la Peña,3338253926,mgalvan@galvan.com,,,44200,Guadalajara
JALISCO,A,CHM931202E20,"Casa Hogar Ma. Teresa, A.C.","Aurelio L. Gallardo Núm 151, Col. Ladrón de Guevara, C.P. 44600, Guadalajara, Jalisco",Javier S. Delgado Suárez,,,,,44600,Guadalajara
JALISCO,A,DAA0911102U7,"Danza Aptitude Arte y Discapacidad, A.C.","Juan Cano Núm 835, Col. El Retiro, C.P. 44280, Guadalajara, Jalisco",Isela del Socorro Saldaña Quintero,3336403706,danzaptitude@gmail.com,,,44280,Guadalajara
JALISCO,M,DAA0911102U7,"Danza Aptitude Arte y Discapacidad, A.C.","Juan Cano Núm 835, Col. El Retiro, C.P. 44280, Guadalajara, Jalisco",Isela del Socorro Saldaña Quintero,3336403706,danzaptitude@gmail.com,,,44280,Guadalajara
JALISCO,A,DBS1301246M2,"Don Bosco Sobre Ruedas, A.C.","Emilio Castelar Núm 103 - 10, Col. Arcos Vallarta, C.P. 44130, Guadalajara, Jalisco",Jaime Reyes Retana Zesati,3336300037,quinobravo@yahoo.com,,,44130,Guadalajara
JALISCO,A,DCO1004133A2,"Deseos del Corazón, A.C.","Lago Nicatagua Núm 2 - B, Col. Los Lagos, C.P. 47030, San Juan de los Lagos, Jalisco",Susana Aguilera González,3957853939,admondeseos@hotmail.com,,,47030,San Juan de los Lagos
JALISCO,M,DCO1004133A2,"Deseos del Corazón, A.C.","Lago Nicatagua Núm 2 - B, Col. Los Lagos, C.P. 47030, San Juan de los Lagos, Jalisco",Susana Aguilera González,3957853939,admondeseos@hotmail.com,,,47030,San Juan de los Lagos
JALISCO,A,DDA030219ND4,"DAR, Decídete a Reconstruirte, A.C.","Av. Federalismo Norte Núm 2022, Col. Guadalupana, C.P. 44220, Guadalajara, Jalisco",Celina Verónica Kishi Sutto,3823 3723 ext. 210,kishimd@yahoo.com.,,,44220,Guadalajara
JALISCO,E,DEU140331RX0,"Desarrollo para la Educación UTEG, A.C.","Av. Héroes Ferrocarrileros Núm 1300, Col. Ferrocarril, C.P. 44440, Acatic, Jalisco",Brenda Lizeth Peña Madrigal,3310863441,contacto@hgp.com.mx,,,44440,Acatic
JALISCO,A,DIH800812S90,"Desarrollo Integral Humano, A.C.","Juan Manuel Núm 1075, Col. Sector Hidalgo, C.P. 44200, Guadalajara, Jalisco",Ma. Esther Alderete Fonseca,,,,,44200,Guadalajara
JALISCO,A,DJC0907159CA,"Dignidad y Justicia en el Camino, A.C.","Madero Núm 836, Col. Americana, C.P. 44160, Guadalajara, Jalisco",Luis Enrique González Araiza,,,,,44160,Guadalajara
JALISCO,A,DLC050422UM3,"Trasplantados en el Hospital Civil Fray Antonio Alcalde, A.C.","Hospital Núm 278, Col. El Retiro, C.P. 44280, Guadalajara, Jalisco",Georgina Velazco García,,,,,44280,Guadalajara
JALISCO,M,DSE1011269F1,"Deseo Ser, A.C.","Don Bosco Núm 132, Col. Don Bosco, C.P. 45380, Amatitán, Jalisco",Jacinto Leyva Barraza,,,,,45380,Amatitán
JALISCO,A,DSE1011269F1,"Deseo Ser, A.C.","Don Bosco Núm 132, Col. Don Bosco, C.P. 45380, Amatitán, Jalisco",Jacinto Leyva Barraza,,,,,45380,Amatitán
JALISCO,M,DVM130419F60,"Decide Vivir México, A.C.","Bruselas Núm 516, Col. Moderna, C.P. 44190, Guadalajara, Jalisco",Juan José Esquivias López,331211956,grupo_corporativo@hotmail.com,,,44190,Guadalajara
JALISCO,A,DVM130419F60,"Decide Vivir México, A.C.","Bruselas Núm 516, Col. Moderna, C.P. 44190, Guadalajara, Jalisco",Juan José Esquivias López,331211956,grupo_corporativo@hotmail.com,,,44190,Guadalajara
JALISCO,A,ECF150929RK6,"Emprende, Crece y Florece, S.C.","Av. Hidalgo Núm 582, Col. Centro, C.P. 44100, Guadalajara, Jalisco",Carlos Manuel Suárez Dávalos,3336179617,emprendecrece.f@gmail.com,,,44100,Guadalajara
JALISCO,M,ECF150929RK6,"Emprende, Crece y Florece, S.C.","Av. Hidalgo Núm 582, Col. Centro, C.P. 44100, Guadalajara, Jalisco",Carlos Manuel Suárez Dávalos,3336179617,emprendecrece.f@gmail.com,,,44100,Guadalajara
JALISCO,A,ECN131003GK4,"Egresados de la Ciudad de los Niños Padre Cuellar, A.C.","Vicente Suárez Núm 1822, Col. Chapultepec Country, C.P. 44620, Guadalajara, Jalisco",Alberto Medina Orozco,3338231951,teatrobrecha@hotmail.com,,,44620,Guadalajara
JALISCO,B,EFR920926IR8,Escuela Felipe Ramírez A.C.,"Zaragoza Núm 121, Col. Centro, C.P. 47270, Encarnación de Díaz, Jalisco",Beatriz Cardona Arias,14759532055,betymcsc@hotmail.com,,,47270,Encarnación de Díaz
JALISCO,M,EHC150730TB3,"Educando para Hacer Comunidad, A.C.","Avenida Cañas Núm 3250, - 4, Col. Ls Nogalera, C.P. 44470, Guadalajara, Jalisco",Karla Ivonne Nuñez Navarro,,,,,44470,Guadalajara
JALISCO,A,EHC150730TB3,"Educando para Hacer Comunidad, A.C.","Avenida Cañas Núm 3250, - 4, Col. Ls Nogalera, C.P. 44470, Guadalajara, Jalisco",Karla Ivonne Nuñez Navarro,,,,,44470,Guadalajara
JALISCO,B,EIA0709141X6,"Escuela Ignacio Allende Rangel, A.C.","Madero Núm s/n, Col. Localidad Bajío de San José, C.P. 47280, Encarnación de Díaz, Jalisco",Yolanda Silva Martínez,4757412317,ignacioallenderangel@yahoo.com.mx,,,47280,Encarnación de Díaz
JALISCO,A,EJA161110NGA,"Encuentra-T Jalisco, A.C.","Av. Hidalgo Núm 2433, Col. Vallarta Norte, C.P. 44690, Guadalajara, Jalisco",Gamaliel Cano Martínez María José Vuilleumier Dipp,3347375323,encunetratefiscal@gmail.com,,,44690,Guadalajara
JALISCO,B,ELG9209267I5,"Escuela López y González, A.C.","Juárez Núm 125, Col. Centro, C.P. 47200, Teocaltiche, Jalisco",Alicia Alonzo Pasillas,13467872106,h_alipas73@yahoo.com.mx,,,47200,Teocaltiche
JALISCO,A,EMJ981029CP8,"Esclerósis Múltiple Jalisco, A.C.","Samuel Ramos Núm 1715, Col. Independencia Poniente, C.P. 44290, Guadalajara, Jalisco",Ana Laura Mascareño De Navarrete,,,,,44290,Guadalajara
JALISCO,B,ENE730115GH1,"Escuela Normal Esperanza, A.C.","Federación Núm 215, Col. La Perla, C.P. 44360, Guadalajara, Jalisco",Patricia Yolanda Navarro Treviño,,,,,44360,Guadalajara
JALISCO,M,ENG140722UX7,"Espiral en Narración GDL, A. C.","Monte Carmelo Núm b9, Col. Villas de San Juan, C.P. 44290, Guadalajara, Jalisco",Jessica Jiseth Cortes Cruz,,,,,44290,Guadalajara
JALISCO,A,ENG140722UX7,"Espiral en Narración GDL, A. C.","Monte Carmelo Núm b9, Col. Villas de San Juan, C.P. 44290, Guadalajara, Jalisco",Jessica Jiseth Cortes Cruz,,,,,44290,Guadalajara
JALISCO,B,ERG070914ELA,"""Escuela Rincón Gallarado"", A.C.","Morelos Núm 111, Col. Betulia, C.P. 47504, Guadalajara, Jalisco",Juana González Vázquez,14747466086,jugonvaz@yahoo.com.mx,,,47504,Guadalajara
JALISCO,A,EVI091022P32,"Esófagos Vivos, A.C.","Calle de Reforma Núm 1263, Col. Villaseñor, C.P. 44600, Guadalajara, Jalisco",Rafael Sandoval Rodríguez,33306297,admef64@hotmail.com,,,44600,Guadalajara
JALISCO,A,FAD9512078J2,"Fundación Alejandro Díaz Guerra, A.C.","Reforma Núm 2647 - piso 3, Col. Circunvalación Vallarta, C.P. 44680, Guadalajara, Jalisco",Ana María Romo Romo,3336157572,brauliotrujillo@prodigy.net.mx,,,44680,Guadalajara
JALISCO,A,FAE980715HE8,"Fundación de Apoyo para la Educación Especial, A.C.","Zaragoza Núm 280, Col. Centro  Barranquitas, C.P. 44200, Guadalajara, Jalisco",Juana  Guadalupe Arreola Villafranco,3336132910,faee_98@hotmail.com,,,44200,Guadalajara
JALISCO,M,FAE980715HE8,"Fundación de Apoyo para la Educación Especial, A.C.","Zaragoza Núm 280, Col. Centro  Barranquitas, C.P. 44200, Guadalajara, Jalisco",Juana  Guadalupe Arreola Villafranco,3336132910,faee_98@hotmail.com,,,44200,Guadalajara
JALISCO,A,FAF161116NZ5,"Fundación Alejandro Fernández, A.C.","Av. Paseo Royal Country Núm 4596 - PB-B, Col. Puerta de Hierro, C.P. 45116, Zapopan, Jalisco",Carlos Francisco de la Torre Jiménez,3336111117,victor.ramos@grupofernandez.com.mx,,,45116,Zapopan
JALISCO,A,FAM0810104F2,"Fundación Antonio Molina Alfaro, A.C.","Bogotá Núm 3007, Col. Providencia 5a Secc., C.P. 44638, Guadalajara, Jalisco",Luz   Elena Hortensia Molina de la Puente,3336411946,lcpsanchez@hotmail.com,,,44638,Guadalajara
JALISCO,H,FAR060829JP7,"Fundación Arancia, A.C.","López Cotilla Núm 2032 - Mezanine, Col. Arcos Vallarta, C.P. 44130, Guadalajara, Jalisco",Beatriz Haro Hernández,3338184800,jmedina@arancia.com.mx,,,44130,Guadalajara
JALISCO,D,FCA121220IF3,"Fundación con Causa Azul, A.C.","Prolongación López Mateos Sur Núm 7201 nave 2, Col. San Agustín, C.P. 45645, Tlajomulco de Zuñiga, Jalisco",Jorge Enrique Barrueta Vallin,13336931120,jose.alvarado@claseazul.com,,,45645,Tlajomulco de Zuñiga
JALISCO,M,FCA121220IF3,"Fundación con Causa Azul, A.C.","Prolongación López Mateos Sur Núm 7201 nave 2, Col. San Agustín, C.P. 45645, Tlajomulco de Zuñiga, Jalisco",Jorge Enrique Barrueta Vallin,13336931120,jose.alvarado@claseazul.com,,,45645,Tlajomulco de Zuñiga
JALISCO,A,FCD071026LX4,"Fundación Caminos con Destino, A.C.","Benjamin Romero Núm 33, Col. Arcos Sur, C.P. 44150, Guadalajara, Jalisco",Mariel Paredes Reynoso,3336306371,caminoscondestino@live.com.mx,,,44150,Guadalajara
JALISCO,A,FCM150715UI7,"Fomento de Ceramica Mexicana, A.C.","Calle Juan Manuel Núm 1099 - A, Col. Villaseñor, C.P. 44600, Guadalajara, Jalisco",Horacio Fernández Castillo,3337775500,,,,44600,Guadalajara
JALISCO,A,FCN110610E26,"Fundación Cnacer, A.C.","Buenos Aires Núm 2675 - int. 1, Col. Providencia, C.P. 44630, Guadalajara, Jalisco",María Guadalupe Sánchez Gómez,,,,,44630,Guadalajara
JALISCO,A,FCP120703LD0,"Fundación Checo Perez, A.C.","Corfú Núm 1336, Col. Mezquitan Country, C.P. 44260, Guadalajara, Jalisco",Juan Moisés Silva Reyes,,,,,44260,Guadalajara
JALISCO,M,FCP120703LD0,"Fundación Checo Perez, A.C.","Corfú Núm 1336, Col. Mezquitan Country, C.P. 44260, Guadalajara, Jalisco",Juan Moisés Silva Reyes,,,,,44260,Guadalajara
JALISCO,H,FCR120227E92,"Fundación CRV, A.C.","Garibaldi Núm 1740, Col. Ladrón de Guevara, C.P. 44600, Guadalajara, Jalisco",Ricardo Blanco Fenyvesi,55 5278 4330,rblanco@c-r-v.com.mx,,,44600,Guadalajara
JALISCO,D,FCV110512V90,"Festival de Cine y Video Documental Zanate, A.C.","Órbita Núm 2902, Col. Jardines del Bosque, C.P. 44520, Guadalajara, Jalisco",Carlos Eduardo Cárdenas Aguilar,3332017666,ccardenas.aguilar@gmail.com,,,44520,Guadalajara
JALISCO,M,FCH010309CJ1,"Fundación Contacto Humano para el Autismo, A.C.","Donato Guerra Núm 731 - 3, Col. Mexicaltzingo, C.P. 44180, Guadalajara, Jalisco",Ma. de los Milagros Rodríguez González,3333306879,milyrdz@hotmail.com,"20 de Noviembre Núm 906, Col. Centro, C.P. 68000, Oaxaca De Juarez, Oaxaca",01 (951) 516 37 70,44180,Guadalajara
JALISCO,A,FCH010309CJ1,"Fundación Contacto Humano para el Autismo, A.C.","Donato Guerra Núm 731 - 3, Col. Mexicaltzingo, C.P. 44180, Guadalajara, Jalisco",Ma. de los Milagros Rodríguez González,3333306879,milyrdz@hotmail.com,"20 de Noviembre Núm 906, Col. Centro, C.P. 68000, Oaxaca De Juarez, Oaxaca",01 (951) 516 37 70,44180,Guadalajara
JALISCO,H,FDC130423UQ5,"Fundación Dalton Colegio Unión, A.C.","Prisciliano Sánchez Núm 952, Col. Americana, C.P. 44160, Guadalajara, Jalisco",Lucia Marquez López,,,,,44160,Guadalajara
JALISCO,H,FDF0604274V4,"Fundación Dalton, Fundación","Avenida Américas Núm 1819 - 8, Col. Américas Colomos, C.P. 44620, Guadalajara, Jalisco",Lic. Lucia Máquez López,3338806004,,,,44620,Guadalajara
JALISCO,B,FEO000726P45,"Filantrópica y Educativa de Occidente, A.C.","Monte la Luna Núm 1235, Col. San Vicente, C.P. 44330, Guadalajara, Jalisco","Luciano Pelayo Pelayo,",33306378645,finanzas.cvg@gmail.com,,,44330,Guadalajara
JALISCO,M,FEO000726P45,"Filantrópica y Educativa de Occidente, A.C.","Monte la Luna Núm 1235, Col. San Vicente, C.P. 44330, Guadalajara, Jalisco","Luciano Pelayo Pelayo,",33306378645,finanzas.cvg@gmail.com,,,44330,Guadalajara
JALISCO,M,FES960127LH0,"Fundación Ecológica Selva Negra, A.C.","Manuel Acuña Núm 3359 - C, Col. Monraz, C.P. 44670, Guadalajara, Jalisco",José Ulises Calleros Ramos,3640 0654,selvanegra@megared.net.mx,,,44670,Guadalajara
JALISCO,F,FES960127LH0,"Fundación Ecológica Selva Negra, A.C.","Manuel Acuña Núm 3359 - C, Col. Monraz, C.P. 44670, Guadalajara, Jalisco",José Ulises Calleros Ramos,3640 0654,selvanegra@megared.net.mx,,,44670,Guadalajara
JALISCO,H,FGA130507545,"Fundación Grupo Aeroportuario del Pacífico, A.C.","AV. Mariano Otero Núm 1249 - Edif. B p6 161, Col. Rincón del Bosque, C.P. 44530, Guadalajara, Jalisco",Sergio Enrique Flores Ochoa,3338801100 ext. 273,areyana@aeropuertosgap.com.mx,,,44530,Guadalajara
JALISCO,H,FGC0905229T2,"Fundación Guadalajara Country Club, A.C.","Mar Egeo Núm 1555, Col. Country Club, C.P. 44610, Guadalajara, Jalisco",Saúl Rodríguez Méndéz,38172858,fundacioncountryclub22@hotmail.com,,,44610,Guadalajara
JALISCO,A,FIN130515BI8,"Fundación Inspira, A.C.","Calderón de la Barca Núm 89, Col. Arcos Sur, C.P. 44150, Guadalajara, Jalisco",Eulalio Martínez Corona,31463921,eulalio.marcorona@gmail.com,,,44150,Guadalajara
JALISCO,D,FJA910710G95,"Fundación Jesús Álvarez del Castillo V., A.C.","Liceo Núm 223, Col. Zona Centro, Sector Hidalgo, C.P. 44100, Guadalajara, Jalisco",Ramón Murguia Dueñas,01 3 6 414222,,,,44100,Guadalajara
JALISCO,M,FJC090915QA1,"Fundación Jalisco Construye, A.C.","Luis Manuel Rojas Núm 610, Col. Jardines Alcalde, C.P. 44290, Guadalajara, Jalisco",Adriana Minero Álvarez,443338438069,jaliama5@yahoo.com.mx,,,44290,Guadalajara
JALISCO,A,FJC090915QA1,"Fundación Jalisco Construye, A.C.","Luis Manuel Rojas Núm 610, Col. Jardines Alcalde, C.P. 44290, Guadalajara, Jalisco",Adriana Minero Álvarez,443338438069,jaliama5@yahoo.com.mx,,,44290,Guadalajara
JALISCO,A,FLC770812AG0,"Fundación López Chávez, A.C.","Plan de San Luis Núm 2066, Col. Sector Hidalgo, C.P. 44600, Guadalajara, Jalisco",Lucía López de Quirarte.,3336783010,,,,44600,Guadalajara
JALISCO,H,FLI060829F81,"Fundación Luis e Isabel, A.C.","López Cotilla Núm 2032 - Mezanine, Col. Arcos Vallarta, C.P. 44130, Guadalajara, Jalisco",Batriz Haro Hernández,33-3818-4864,asenkowski@arancia.com.mx,,,44130,Guadalajara
JALISCO,A,FLO041216KA7,"Fundación Lorena Ochoa, A.C.","Av. Morelos Núm 2179, Col. Arcos Vallarta, C.P. 44130, Guadalajara, Jalisco",Alejandro Ochoa Reyes,3338176904,alejandro@osports.com.mx,,,44130,Guadalajara
JALISCO,M,FLO041216KA7,"Fundación Lorena Ochoa, A.C.","Av. Morelos Núm 2179, Col. Arcos Vallarta, C.P. 44130, Guadalajara, Jalisco",Alejandro Ochoa Reyes,3338176904,alejandro@osports.com.mx,,,44130,Guadalajara
JALISCO,A,FMM9208042X6,"Fundación Mexicana de Medicina Paliativa y Alivio del Dolor en Cáncer, A.C.","Salvador Quevedo y Zubieta Núm 750, Col. Independencia, C.P. 44340, Guadalajara, Jalisco",Gustavo A. Montejo Rosas,3336189326,,,,44340,Guadalajara
JALISCO,A,FMS151110455,"Fundación México Solidario de los Altos, A.C.","Cerrada Privada Allende Núm 236-A, Col. Centro, C.P. 47600, Tepatitlán de Morelos, Jalisco",Rodrigo Guillermo Franco Martín del Campo,3781214328,betty35@hotmail.com,,,47600,Tepatitlán de Morelos
JALISCO,A,FMT1105188A0,"Fundación MTQ, A.C.","Cayena Núm 2558, Col. Providencia, C.P. 44630, Guadalajara, Jalisco",Margarita de la Paz Casillas González,3336306028,fundacionmtgac@mexico.com,,,44630,Guadalajara
JALISCO,A,FNI990312998,"Fundación Nice, A.C.","Ottawa Núm 1610 - 5, Col. Providencia 1a, 2a y 3a sección, C.P. 44630, Guadalajara, Jalisco",Felicitas Real Ramírez,3336161250,,,,44630,Guadalajara
JALISCO,H,FOM0809297H0,"Fundación Jorge Vergara, A.C.","Calle Francisco I. Madero Núm 5850 - A, Col. Jocotlán, C.P. 45017, Guadalajara, Jalisco",Luis Fernando Magallón Villanueva,13338803320,jvazquez@contabilidad.omnilife.com,,,45017,Guadalajara
JALISCO,A,FON890728AB6,"Fonocultura, A.C.","Manuel Acuña Núm 679, Col. Sector Hidalgo, C.P. 44200, Guadalajara, Jalisco",Salvador Cacho Robledo,13 18 62,,,,44200,Guadalajara
JALISCO,A,FOO940215CT9,"Fundación Oftalmológica de Occidente, A.C.","Av. Las Américas Núm 276, Col. Ladron de Guevara, C.P. 44680, Guadalajara, Jalisco",Oscar Cota Mendoza,3336162201,,,,44680,Guadalajara
JALISCO,A,FPA9006281V3,"Fundación Pro-ayuda Zapopan, A.C.","Alcamo Núm 3070, Col. Prados Providencia, C.P. 44670, Guadalajara, Jalisco",Irma Estela Sierra Mariscal,3336429804,,,,44670,Guadalajara
JALISCO,A,FPJ651220PE9,"Formación y Protección de la Joven, A.C.","Brasilia Núm 90, Col. Fracc. Providencia, C.P. 44660, Guadalajara, Jalisco",Elvia Salazar Rivera,,,,,44660,Guadalajara
JALISCO,A,FQO010508777,"Fibrosis Quística de Occidente, A.C.","Cordobanes Núm 2051, Col. Jardines del Country, C.P. 44210, Guadalajara, Jalisco",Jorge Humberto Camacho Delgadillo,3338231939,fqoccidente@megared.net.mx,,,44210,Guadalajara
JALISCO,A,FRM151223QV6,"Fundación Renal de México, A.C.","Av. de la Cruz Núm 240 - 29, Col. Tlaquepaque, C.P. 45570, Tepatitlán de Morelos, Jalisco",María del Carmen Ramírez Ruvalcaba,443319765773,mcrr10@hotmail.com,,,45570,Tepatitlán de Morelos
JALISCO,M,FRM151223QV6,"Fundación Renal de México, A.C.","Av. de la Cruz Núm 240 - 29, Col. Tlaquepaque, C.P. 45570, Tepatitlán de Morelos, Jalisco",María del Carmen Ramírez Ruvalcaba,443319765773,mcrr10@hotmail.com,,,45570,Tepatitlán de Morelos
JALISCO,H,FSC110325UH6,"Fundación del Sector de la Construcción Jalisco, A.C.","Av. Chapultepec Núm 70 - 8, Col. Americana, C.P. 44160, Guadalajara, Jalisco",Norma Alicia Aguilar Macías,01(33)38269486/38260572,fuscoac@hotmail.com,,,44160,Guadalajara
JALISCO,H,FSE081217MR6,"Fundación Social del Empresariado Jalisciense, A.C.","Rubén Dario Núm 1313 - 4, Col. Providencia 1a, 2a y 3a sección, C.P. 44630, Guadalajara, Jalisco",Claudia Marín de la Serna,,,,,44630,Guadalajara
JALISCO,A,FVO160804916,"Forjando Voluntades, A.C.","Concepción Loy Núm 3392, Col. Lomas de Polanco, C.P. 44960, Guadalajara, Jalisco",Sandra Cecilia Pérez Leos,,,,,44960,Guadalajara
JALISCO,M,FVO160804916,"Forjando Voluntades, A.C.","Concepción Loy Núm 3392, Col. Lomas de Polanco, C.P. 44960, Guadalajara, Jalisco",Sandra Cecilia Pérez Leos,,,,,44960,Guadalajara
JALISCO,M,GCL150630PR5,"Guadalajara Clubhouse, A.C.","Santa María Núm 3034, Col. Vallarta Norte, C.P. 44690, Guadalajara, Jalisco",Elvira Leticia Yeme Nava,3320016732,,,,44690,Guadalajara
JALISCO,A,GCL150630PR5,"Guadalajara Clubhouse, A.C.","Santa María Núm 3034, Col. Vallarta Norte, C.P. 44690, Guadalajara, Jalisco",Elvira Leticia Yeme Nava,3320016732,,,,44690,Guadalajara
JALISCO,M,GCV120224KM6,"Grupo la Creación Vs El Sida Drogas y Alcohol, A.C.","San Baltazar Núm 1297, Col. Santa María, C.P. 44350, Guadalajara, Jalisco",Juan Juárez González,3336331264,,,,44350,Guadalajara
JALISCO,A,GCV120224KM6,"Grupo la Creación Vs El Sida Drogas y Alcohol, A.C.","San Baltazar Núm 1297, Col. Santa María, C.P. 44350, Guadalajara, Jalisco",Juan Juárez González,3336331264,,,,44350,Guadalajara
JALISCO,M,GDM980224UY4,"Galilea 2000, A.C.","Av. Alcalde Núm 572, Col. Centro, C.P. 44100, Guadalajara, Jalisco",María Enugenia Casillas de Pérez,3336335303,,,,44100,Guadalajara
JALISCO,A,GDM980224UY4,"Galilea 2000, A.C.","Av. Alcalde Núm 572, Col. Centro, C.P. 44100, Guadalajara, Jalisco",María Enugenia Casillas de Pérez,3336335303,,,,44100,Guadalajara
JALISCO,A,GES9505162N4,"Mi Gran Esperanza, A.C.","Juan Álvarez Núm 237, Col. Barranquitas, C.P. 44170, Guadalajara, Jalisco",José Pérez Ramírez,3336149293,MGE@MGE.ORG.MX,,,44170,Guadalajara
JALISCO,A,HCA910620K18,"Hogares de la Caridad, A.C.","Hidalgo Núm 668, Col. Sector Hidalgo, C.P. 44100, Guadalajara, Jalisco",Francisco Javier de la O. Alatorre,,,,,44100,Guadalajara
JALISCO,A,HTR0510188C3,"Hogares Trinitarios, A.C.","Pablo Valdez Núm 1525, Col. El Mirador, C.P. 44370, Guadalajara, Jalisco",Silvia Susana Lua Nava,3336370189,susalu29@yahoo.com,,,44370,Guadalajara
JALISCO,M,ICA150723V81,"Innovación en Ciencias y Artes, A.C.","Justo Sierra Núm 3152, Col. Vallarta San Jorge, C.P. 44690, Guadalajara, Jalisco",Felipe Eduardo Castro Ahirada,3316686305,felipe.castro@feciar.org,,,44690,Guadalajara
JALISCO,C,ICA150723V81,"Innovación en Ciencias y Artes, A.C.","Justo Sierra Núm 3152, Col. Vallarta San Jorge, C.P. 44690, Guadalajara, Jalisco",Felipe Eduardo Castro Ahirada,3316686305,felipe.castro@feciar.org,,,44690,Guadalajara
JALISCO,B,ICI980120GR2,"Instituto de Comunicación Internacional de México, A.C.","Avenida Hidalgo Núm 1420, Col. Ladrón de Guevara, C.P. 44600, Guadalajara, Jalisco",Oliver Schmidt,3338254208,ici@ici.edu.mx,,,44600,Guadalajara
JALISCO,B,IEG621016SE0,"Institutos Educativos de Guadalajara, A.C.","San Miguel Núm 506, Col. Chapalita, C.P. 44510, Guadalajara, Jalisco",Martha Elena Huerta Leal,3314043333,dfrc@prodigy.net.mx,,,44510,Guadalajara
JALISCO,D,IFM681105LIA,"Instituto Franco Mexicano, A.C.","López Cotilla Núm 1199, Col. Americana, C.P. 44160, Guadalajara, Jalisco",Jean Pierre Vachez Plagnol,3338252140,alianzafrancesa.cont@gmail.com,,,44160,Guadalajara
JALISCO,A,IMS8709185N9,"Instituto de Misioneros Seglares, A.C.","Libertad Núm 1615, Col. Americana, C.P. 44160, Guadalajara, Jalisco",José Jiménez Hurtado,3338270775,,,,44160,Guadalajara
JALISCO,D,INF050113828,"Infolectura, A.C.","Belén Núm 131, Col. Gudalupana, C.P. 44220, Guadalajara, Jalisco",David Solórzano Álvarez del Castillo Carlos Francisco Flores de la Torre,0133 36136316,cflores@informador.com.mx,,,44220,Guadalajara
JALISCO,A,IRI101020QD2,"Instituto Ríe, A.C.","Manzanares Núm 2130, Col. Jardines del Country, C.P. 44210, Guadalajara, Jalisco",Lizette Sánchez Hernández,15 22 78 96  y 78 55,institutirie@hotmail.com,,,44210,Guadalajara
JALISCO,B,IRO7105012S6,"Instituto Rougier, A.C.","Cerro de la Campana Núm 2431, Col. Esperanza, C.P. 44300, Guadalajara, Jalisco",Ma. de la Luz Martínez Martínez,36511778,Josecruz1950@hotmail.com,,,44300,Guadalajara
JALISCO,B,ISD730221Q29,"Instituto Santos Degollado, A.C.","Amado Aguirre Núm 480, Col. Jardines Alcalde, C.P. 44298, Guadalajara, Jalisco",Leticia Prado Lara,38 24 06 68,josecruz1950@hotmail.com,,,44298,Guadalajara
JALISCO,A,JBS080611FIA,"Juntos por el Bienestar Social, A.C.","Getsemaní Núm 3585, Col. Hermosa Provincia, C.P. 44770, Guadalajara, Jalisco",Rocío Aguilar Tejeda,333 644 83,rocio_trabajosocial@hotmail.com,,,44770,Guadalajara
JALISCO,B,JNT820929UX6,"Jardín de Niños Tzitlacalli, A.C.","Módena Núm 1121, Col. Fracc. Providencia, C.P. 44630, Guadalajara, Jalisco",Ana Domínguez Meneses,642 55 41,,,,44630,Guadalajara
JALISCO,H,JPR120912RT7,"Jovenes con Proyecto, A.C.","Rodrigo de Triana Núm 2928, Col. Vallarta Norte, C.P. 44690, Guadalajara, Jalisco",Ernesto José Amescua Hernández Chávez,,,,,44690,Guadalajara
JALISCO,A,LAL140319KZ2,"Luz y Amor Latiendo con un Mismo Corazón, A. C.","Amado Nervo Núm 996-C, Col. La Gloria, C.P. 47670, Tepatitlán de Morelos, Jalisco",Víctor Napoleón García Sandoval,3787014993,victoraxxel.vg@gmail.com,,,47670,Tepatitlán de Morelos
JALISCO,B,LBO960320DJ4,"Liceo del Bosque, A.C.","Rinconada de la Floresta Núm 400, Col. Rinconada del Bosque, C.P. 44530, Guadalajara, Jalisco",Pedro Ernesto González Limón y González,3336155085,romanortega@hotmail.com,,,44530,Guadalajara
JALISCO,E,LCA141208CI4,"Libertad de Catedra, A. C.","José Guadalupe Montenegro Núm 1653, Col. Americana, C.P. 44160, Guadalajara, Jalisco",Santos Magaña Moya,3314797979,lorena.jimenez@edu.uag.mx,,,44160,Guadalajara
JALISCO,M,LEN131011ID8,"Lenam, A.C.","Altamiras Núm 2 - A, Col. Camichines, C.P. 48510, Cocula, Jalisco",Jesús Acosta Velázquez,,,,,48510,Cocula
JALISCO,A,LEN131011ID8,"Lenam, A.C.","Altamiras Núm 2 - A, Col. Camichines, C.P. 48510, Cocula, Jalisco",Jesús Acosta Velázquez,,,,,48510,Cocula
JALISCO,B,LSI010913IWA,"Líderes del Siglo, A.C.","Niños Héroes Núm 355, Col. Las Liebres, C.P. 45623, Guadalajara, Jalisco",Arturo Vizacarra Esparza,3330012100,a.vizcarra@asintur.net,,,45623,Guadalajara
JALISCO,M,LSI010913IWA,"Líderes del Siglo, A.C.","Niños Héroes Núm 355, Col. Las Liebres, C.P. 45623, Guadalajara, Jalisco",Arturo Vizacarra Esparza,3330012100,a.vizcarra@asintur.net,,,45623,Guadalajara
JALISCO,H,LVA091214PRA,"Lumen Vitae, A.C.","Barlovento Núm 2596, Col. Bosques de la Victoria, C.P. 44540, Guadalajara, Jalisco",Javier Ignacio de la Garza Noble,36789135,jdelagarza@lumenvitae.org,,,44540,Guadalajara
JALISCO,A,LVA150401P53,"Luz de Vida al Adulto Mayor, A.C.","Loma Atemajac Núm 317 - 304, Col. Loma Dorada, C.P. 45402, Tonalá, Jalisco",Luz María Silvia Esquivel,16392204,luzmanasilvia80@yahoo.com.mx,,,45402,Tonalá
JALISCO,M,LVA150401P53,"Luz de Vida al Adulto Mayor, A.C.","Loma Atemajac Núm 317 - 304, Col. Loma Dorada, C.P. 45402, Tonalá, Jalisco",Luz María Silvia Esquivel,16392204,luzmanasilvia80@yahoo.com.mx,,,45402,Tonalá
JALISCO,M,MAM010228880,"Mar Adentro de México, A.C.","Córdoba Núm 2424 - 1, Col. Providencia 1a, 2a y 3a sección, C.P. 44630, Guadalajara, Jalisco",Roberto Hemuda Guerra,3336155840,robertohemuda@hotmail.com,,,44630,Guadalajara
JALISCO,A,MAM010228880,"Mar Adentro de México, A.C.","Córdoba Núm 2424 - 1, Col. Providencia 1a, 2a y 3a sección, C.P. 44630, Guadalajara, Jalisco",Roberto Hemuda Guerra,3336155840,robertohemuda@hotmail.com,,,44630,Guadalajara
JALISCO,A,MAM8804204P0,"Movimiento de Apoyo a Menores Abandonados Mama, A.C.","Libertad Núm 1416, Col. Americana, C.P. 44160, Guadalajara, Jalisco",Elena Ló López Mejía,25-25-76,,,,44160,Guadalajara
JALISCO,A,MMD9607254S9,"Mesón de la Misericordia Divina, A.C.","San Felipe Núm 637, Col. Centro, C.P. 44100, Guadalajara, Jalisco",Beatriz Rebeca Jarero Ramírez,3336131918,,,,44100,Guadalajara
JALISCO,A,MML1005078E4,"María Manos Llenas de Amor, A.C.","Garibaldi Núm 1071, Col. Barranquitas, C.P. 44270, Guadalajara, Jalisco",María Victoria hernández Méndez,3338250601,elydelfina@hotmail.com,,,44270,Guadalajara
JALISCO,M,MMU1211142N0,"México Me Uno, A.C.","Av. Tepeyac Núm 225, Col. Campo de Polo Chapalita, C.P. 44500, Guadalajara, Jalisco",David Cueva Villaseñor,3331216797,david.cueva@mexicomeuno.com,,,44500,Guadalajara
JALISCO,A,MMU1211142N0,"México Me Uno, A.C.","Av. Tepeyac Núm 225, Col. Campo de Polo Chapalita, C.P. 44500, Guadalajara, Jalisco",David Cueva Villaseñor,3331216797,david.cueva@mexicomeuno.com,,,44500,Guadalajara
JALISCO,A,MON100510EZ0,"Mondphase, A.C.","Av. Lopéz Mateos Norte Núm 484 - Piso 2, Col. Ladrón de Guevara, C.P. 44600, Guadalajara, Jalisco",Fernando Robledo Novoa,3339440642,ferrobledo@aol.com,,,44600,Guadalajara
JALISCO,L,MOV131216JC5,"Mov45ymás, A.C.","Romero Hilario Núm 921, Col. Alcalde Barranquitas, C.P. 44270, Guadalajara, Jalisco",José Antonio Ramos López,3333305471,direcciongeneral@mov45ymas.org,,,44270,Guadalajara
JALISCO,M,MSC1510099G7,"Mujer sin Cáncer, A.C.","Av.  Aztecas Núm 263, Col. Fracc. Monraz, C.P. 44670, Guadalajara, Jalisco",Ana Beatriz Michel Álvarez,38543919,,,,44670,Guadalajara
JALISCO,A,MSC1510099G7,"Mujer sin Cáncer, A.C.","Av.  Aztecas Núm 263, Col. Fracc. Monraz, C.P. 44670, Guadalajara, Jalisco",Ana Beatriz Michel Álvarez,38543919,,,,44670,Guadalajara
JALISCO,A,MTR141126SI7,"Mejorando tu Realidad, A.C.","Avenida 16 de Septiembre Núm 730 - Despacho 805, Col. Mexicaltzingo, C.P. 44180, Guadalajara, Jalisco",Marco Antonio Gil González,3316589887,margil_9@hotmail.com,,,44180,Guadalajara
JALISCO,A,NAL090306QK8,"Nuevo Amanecer Loma Bonita, A.C.","Isla Perim Núm 3234, Col. Vicente Guerrero, C.P. 44987, Guadalajara, Jalisco",Eduardo Ortíz Campos,3336453574,eduard nuevoamanecer@hotmail.com,,,44987,Guadalajara
JALISCO,I,NIM010509DX8,"A.N.I.M.A.L. Asociación Nacional e Internacional contra el Maltrato Animal, A.C.","Paseo de los Filósofos Núm 1696, Col. Colinas de la Normal, C.P. 44270, Guadalajara, Jalisco",Judith Reyna García de la Cedena,33 38 53 69 93,animaljaliscoac@hotmail.com,,,44270,Guadalajara
JALISCO,A,NNC991110UP6,"Nosotros por los Niños con Cáncer, A.C.","Pablo Neruda Núm 3044 - 5, Col. Providencia, C.P. 44630, Guadalajara, Jalisco",Victoria Eugenia Covarrubias Arregui,6586121577,,,,44630,Guadalajara
JALISCO,M,NVP1506193J9,"Niños con Visión y Próposito, A.C.","Av. Cañas Núm 3250 - 21, Col. La Nogalera, C.P. 44470, Guadalajara, Jalisco",Heriberto Orozco Aviña,3337204995,h.orozco@ninosconproposito.org,,,44470,Guadalajara
JALISCO,A,NVP1506193J9,"Niños con Visión y Próposito, A.C.","Av. Cañas Núm 3250 - 21, Col. La Nogalera, C.P. 44470, Guadalajara, Jalisco",Heriberto Orozco Aviña,3337204995,h.orozco@ninosconproposito.org,,,44470,Guadalajara
JALISCO,A,OLA1401289B4,"Obra Libre de Adiciones Jalisco, A.C.","Av. Chapultepec Núm 70 - 9, Col. Americana, C.P. 44160, Guadalajara, Jalisco",Carlos Pérez Villas,,,,,44160,Guadalajara
JALISCO,M,OLA1401289B4,"Obra Libre de Adiciones Jalisco, A.C.","Av. Chapultepec Núm 70 - 9, Col. Americana, C.P. 44160, Guadalajara, Jalisco",Carlos Pérez Villas,,,,,44160,Guadalajara
JALISCO,M,OMA130517S46,"Opera María, A.C.","Libertad Núm 1595, Col. Americana, C.P. 44160, Guadalajara, Jalisco",Ada Julia Parra Verdugo,3338272139,trinitariademariaguad@gmail,,,44160,Guadalajara
JALISCO,A,OMA130517S46,"Opera María, A.C.","Libertad Núm 1595, Col. Americana, C.P. 44160, Guadalajara, Jalisco",Ada Julia Parra Verdugo,3338272139,trinitariademariaguad@gmail,,,44160,Guadalajara
JALISCO,A,OMI151029FS0,"Obras de Misericordia, A.C.","Ramos Millám Núm 882, Col. Villaseñor, C.P. 44600, Guadalajara, Jalisco",César Mauricio González García,3338257413,obrasdemisericordia8@gmail.com,,,44600,Guadalajara
JALISCO,A,OMS750514953,"Orfanatorio Magdalena Sofía, A.C.","Josefa Ortíz de Domínguez Núm 464, Col. Barajas Villaseñor, Sector Libertad, C.P. 44750, Guadalajara, Jalisco",María del Rosario De la Torre Barajas,,,,,44750,Guadalajara
JALISCO,A,OSJ050307166,"Obras Sociales José María Robles Hurtado, A.C.","República Núm 462, Col. San Juan de Dios, C.P. 44360, Guadalajara, Jalisco",Josefina Solórzano Robles,3617-2631,obrassocialesjmrh prodigy.net. mx,,,44360,Guadalajara
JALISCO,A,OSM070430BQ5,"Oxigene Servicios Múltiples para la Familia, A.C.","Puebla Núm 309, Col. Jesús, C.P. 44200, Guadalajara, Jalisco",Bertha Margarita Vázquez Haro Ana Rosa López Pérez Ma. Carmen Álvarez Navarro,3335627272,oxigeneservmult@hotmail.com,,,44200,Guadalajara
JALISCO,A,PAD13062689A,"Prospera Alternativas de Desarrollo para México, A.C.","Av. Hidalgo Núm 2083, Col. Ladrón de Guevara, C.P. 44600, Guadalajara, Jalisco",Hilda Gabriela Enrigue González Roberto Daniel Enrigue González Hilda Soledad González Sánchez,,,,,44600,Guadalajara
JALISCO,M,PAD13062689A,"Prospera Alternativas de Desarrollo para México, A.C.","Av. Hidalgo Núm 2083, Col. Ladrón de Guevara, C.P. 44600, Guadalajara, Jalisco",Hilda Gabriela Enrigue González Roberto Daniel Enrigue González Hilda Soledad González Sánchez,,,,,44600,Guadalajara
JALISCO,A,PAI9404237X0,"Proyecto de Atención Integral a la Persona Inmuno Deprimida, A.C.","Juan Jesús Posadas Ocampo Núm 16, Col. Santa Cruz de las Huertas, C.P. 45402, Tonalá, Jalisco",Bertha López Chávez,336812679,,,,45402,Tonalá
JALISCO,A,PAS6506176A3,"Protección y Auxilio Social, A.C.","Otranto Núm 2075, Col. Providencia, C.P. 44640, Guadalajara, Jalisco",Lucina Jaimes Arce,3336414724,,,,44640,Guadalajara
JALISCO,L,PDC141114DV9,"Periplo Desarrollo y Cultura, A.C.","Hospital Núm 1626, Col. Villaseñor, C.P. 44600, Guadalajara, Jalisco",Juan Salvador Mendez Rosas,3315932578,periplo.mi@gmail.com,,,44600,Guadalajara
JALISCO,D,PDH140306EZ6,"Con el Poder de Hacer Khuba, A.C.","Monte Lisboa Núm 14, Col. El Paraíso, C.P. 48903, Autlán de Navarro, Jalisco",Irma Dolores Salamanca Sánchez,3316046527,asesoria_salamanca@hotmail.com,,,48903,Autlán de Navarro
JALISCO,A,PDH801029761,"Pro-Dignidad Humana, A.C.","Plan de San Luis Núm 1616, Col. Mezquitán Country, C.P. 44260, Guadalajara, Jalisco",Pedro Castro Mendoza,,,,,44260,Guadalajara
JALISCO,D,PFI960305969,"Patronato del Festival Internacional de Cine en Guadalajara, A.C. Universidad de Guadalajara.","Tomas V. Gómez Núm 121, Col. Centro, C.P. 44190, Guadalajara, Jalisco",Francisco Herrera Paredes,3331224800,zambranoe_3@hotmail.com,,,44190,Guadalajara
JALISCO,M,PFI960305969,"Patronato del Festival Internacional de Cine en Guadalajara, A.C. Universidad de Guadalajara.","Tomas V. Gómez Núm 121, Col. Centro, C.P. 44190, Guadalajara, Jalisco",Francisco Herrera Paredes,3331224800,zambranoe_3@hotmail.com,,,44190,Guadalajara
JALISCO,M,PMA951026788,"Programa Mano Amiga a la Niñez, A.C.","Hacienda Santiago Núm 2602, Col. Oblatos, C.P. 44700, Guadalajara, Jalisco",Martha García Lara,3336707131,programa_mano-amiga@hotmail.com,,,44700,Guadalajara
JALISCO,A,PMA951026788,"Programa Mano Amiga a la Niñez, A.C.","Hacienda Santiago Núm 2602, Col. Oblatos, C.P. 44700, Guadalajara, Jalisco",Martha García Lara,3336707131,programa_mano-amiga@hotmail.com,,,44700,Guadalajara
JALISCO,A,PPD900111CCA,"Patrimonio Pro-Enfermos Desvalidos del Hospital Civil de Guadalajara, A.C.","Americas Núm 758, Col. Nueva Italia, Sector Hidalgo, C.P. 44658, Guadalajara, Jalisco",Carlos German Benh Fregoso,3336422414,,,,44658,Guadalajara
JALISCO,B,PPE050218974,"Pie Pequeño, S.C.","José Bonifacio Andrada Núm 2789, Col. Providencia 1a, 2a y 3a Sección, C.P. 44630, Guadalajara, Jalisco",Carlos Álvarez del castillo Roa,15961922,nominasbelasting@gmail.com,,,44630,Guadalajara
JALISCO,M,PRJ140812PA5,"Pacientes Renales de Jalisco, A. C.","Raúl Anguiano Núm 4277, Col. Miravalle, C.P. 44990, Guadalajara, Jalisco",María Esther Marrón Reinaga,3311802355,marythey66@hotmail.com,,,44990,Guadalajara
JALISCO,A,PRJ140812PA5,"Pacientes Renales de Jalisco, A. C.","Raúl Anguiano Núm 4277, Col. Miravalle, C.P. 44990, Guadalajara, Jalisco",María Esther Marrón Reinaga,3311802355,marythey66@hotmail.com,,,44990,Guadalajara
JALISCO,M,PSE140122U84,"Plexus: Servir es Vivir, A.C.","Calle Vallarta Núm 44, Tecolotlán, Jalisco",Victor Manuel Castillo Giron,3497761241,,,,,
JALISCO,A,PSE140122U84,"Plexus: Servir es Vivir, A.C.","Calle Vallarta Núm 44, Tecolotlán, Jalisco",Victor Manuel Castillo Giron,3497761241,,,,,
JALISCO,M,PVJ100803D5A,"Principios de Vida Jalisco, A.C.","Av. Vallarta Núm 1191, Col. Americana, C.P. 44160, Guadalajara, Jalisco",José Antonio Ramírez Ruiz Velasco,3338255100,jose.ramires@principiosdevida.mx,,,44160,Guadalajara
JALISCO,A,PVJ100803D5A,"Principios de Vida Jalisco, A.C.","Av. Vallarta Núm 1191, Col. Americana, C.P. 44160, Guadalajara, Jalisco",José Antonio Ramírez Ruiz Velasco,3338255100,jose.ramires@principiosdevida.mx,,,44160,Guadalajara
JALISCO,A,QVI0102089E8,"Quiero Vivir, A.C","Mariano Jiménez Núm 542, Col. La Perla, C.P. 44360, Guadalajara, Jalisco",Eva Judith Naude Pérez,3336179610,,,,44360,Guadalajara
JALISCO,A,RAR121008DV1,"Renovare ARS, A.C.","Isla Salomón Núm 2408 - 5, Col. Jardines del Sur, C.P. 44950, Guadalajara, Jalisco",Chistian Alexis Ochoa Cárdenas,,,,,44950,Guadalajara
JALISCO,M,RAR121008DV1,"Renovare ARS, A.C.","Isla Salomón Núm 2408 - 5, Col. Jardines del Sur, C.P. 44950, Guadalajara, Jalisco",Chistian Alexis Ochoa Cárdenas,,,,,44950,Guadalajara
JALISCO,A,REE051208CG6,"Re-Espalda, A.C.","Tarasco Núm 3469 - 507, Col. Monraz, C.P. 44670, Guadalajara, Jalisco",Blanca Guadalupe Larios Gutiérrez,3336133038,reespalda@gmail.com,,,44670,Guadalajara
JALISCO,A,ROC090923BH3,"Remar Occidente, A.C.","Niños Héroes Núm 777, Col. San Agustín, C.P. 45645, Tlajomulco de Zuñiga, Jalisco",Luis López Criado,3824 2274,remarguadalajara@hotmail.com,,,45645,Tlajomulco de Zuñiga
JALISCO,M,ROC090923BH3,"Remar Occidente, A.C.","Niños Héroes Núm 777, Col. San Agustín, C.P. 45645, Tlajomulco de Zuñiga, Jalisco",Luis López Criado,3824 2274,remarguadalajara@hotmail.com,,,45645,Tlajomulco de Zuñiga
JALISCO,B,RST870507S4A,"Reivindicación Social de los Trabajadores Universitarios, A.C.","Escorza Núm 131, Col. Centro, C.P. 44100, Guadalajara, Jalisco",Sonia Briseño Montes de Oca,3315667305,ernesto.guerrero@redug.udg.mx,,,44100,Guadalajara
JALISCO,A,RTS110411RV4,"Resignifica en Todos Sentidos, A.C.","Jesús García Núm 1558 - 8, Col. Villaseñor, C.P. 44600, Guadalajara, Jalisco",Silvia Zepeda Durán,0133 36428971,solsilced@hotmail.com,,,44600,Guadalajara
JALISCO,M,RTS110411RV4,"Resignifica en Todos Sentidos, A.C.","Jesús García Núm 1558 - 8, Col. Villaseñor, C.P. 44600, Guadalajara, Jalisco",Silvia Zepeda Durán,0133 36428971,solsilced@hotmail.com,,,44600,Guadalajara
JALISCO,A,SAR101119Q95,"Sarica, A.C.","Iturbide Núm 292, Col. Santa Rosa, C.P. 47750, Atotonilco el Alto, Jalisco",María Guadalupe Rico Rodríguez,3919175595,sarica.a.c_atotonilco@hotmail.com,,,47750,Atotonilco el Alto
JALISCO,M,SAR101119Q95,"Sarica, A.C.","Iturbide Núm 292, Col. Santa Rosa, C.P. 47750, Atotonilco el Alto, Jalisco",María Guadalupe Rico Rodríguez,3919175595,sarica.a.c_atotonilco@hotmail.com,,,47750,Atotonilco el Alto
JALISCO,A,SAR881021C74,"Servicios Asistenciales Regina, A.C.","Andalucía Núm 2250, Col. Guadalupana, C.P. 44220, Guadalajara, Jalisco",Manuel Corona Castillo,3336230430,,,,44220,Guadalajara
JALISCO,A,SBF130705934,"Sembrando Bienestar para el Futuro, A.C.","Carretera Federal Etzatlan Magdalena Km 4, Col. Etzatlan, C.P. 46500, Etzatlán, Jalisco",Hermilia Villanueva Quintero,1386753522,sembrandobienestar.2013@gmail.com,,,46500,Etzatlán
JALISCO,M,SBF130705934,"Sembrando Bienestar para el Futuro, A.C.","Carretera Federal Etzatlan Magdalena Km 4, Col. Etzatlan, C.P. 46500, Etzatlán, Jalisco",Hermilia Villanueva Quintero,1386753522,sembrandobienestar.2013@gmail.com,,,46500,Etzatlán
JALISCO,A,SDH131010GP0,"Salud Digestiva y Hepática Fundación Rene Male, A.C.","Tarascos Núm 3469 - 402, Col. Monraz, C.P. 44670, Acatic, Jalisco",René Male Velázquez,3338131751,monirahalabe@yahoo.com.mx,,,44670,Acatic
JALISCO,M,SDH131010GP0,"Salud Digestiva y Hepática Fundación Rene Male, A.C.","Tarascos Núm 3469 - 402, Col. Monraz, C.P. 44670, Acatic, Jalisco",René Male Velázquez,3338131751,monirahalabe@yahoo.com.mx,,,44670,Acatic
JALISCO,A,SEN910221240,"Salud de los Enfermos, A.C.","Juan Cano Núm 926, Col. Sector Hidalgo Zona Centro, C.P. 44100, Guadalajara, Jalisco",Guillermo Manuel Gutiérrez Romo,3336131545,,,,44100,Guadalajara
JALISCO,A,SFD080421QG3,"El Sendero Fuente de Amor y Servicio, A.C.","Av. Avila Camacho Núm 1472-C, Col. Mexquitan Country, C.P. 44260, Guadalajara, Jalisco",Julia Strouse Sánchez,,,,,44260,Guadalajara
JALISCO,A,SML020218FI3,"Santa María de la Luz, A.C.","Fray Manuel de Navarrete Núm 3336, Col. La Aurora, C.P. 44790, Guadalajara, Jalisco",Brigido Rodríguez Jiménez,3336531593,samalu04@prodigy.net.mx,,,44790,Guadalajara
JALISCO,A,SOF1402174NA,"Sofadis, A.C.","Monte Bello Núm 1447, Col. Postes Cuates, C.P. 44350, Guadalajara, Jalisco",Horacio Chávez Cárdenas,,,,,44350,Guadalajara
JALISCO,M,SOF1402174NA,"Sofadis, A.C.","Monte Bello Núm 1447, Col. Postes Cuates, C.P. 44350, Guadalajara, Jalisco",Horacio Chávez Cárdenas,,,,,44350,Guadalajara
JALISCO,B,SPE080716MR6,"Solo para Peques, S.C.","Calle Pelicano Núm 2164, Col. Del Fresno, C.P. 44900, Guadalajara, Jalisco",María del Rosario Robles Salazar,,,,,44900,Guadalajara
JALISCO,A,SRI110906LN8,"Salud Renal Integral Camilo de Lellis, Sari, A.C.","Av.Niños Héroes Núm 1633 - 104, Col. Moderna, C.P. 44190, Guadalajara, Jalisco",J. Refugio Martin Romo,,,,,44190,Guadalajara
JALISCO,M,SRI110906LN8,"Salud Renal Integral Camilo de Lellis, Sari, A.C.","Av.Niños Héroes Núm 1633 - 104, Col. Moderna, C.P. 44190, Guadalajara, Jalisco",J. Refugio Martin Romo,,,,,44190,Guadalajara
JALISCO,B,TAC030716655,"Traviesos en Acción, S.C.","Hidalgo Núm 150, Col. San José del Castillo, C.P. 45685, Guadalajara, Jalisco",Paul René Calderón Meza,3315961922,belastinglg@hotmail.com,,,45685,Guadalajara
JALISCO,A,TAP120518SR6,"Talleres Ana Pau, A.C.","Buenos Aires Núm 3008, Col. Lomas de Providencia, C.P. 44630, Guadalajara, Jalisco",Carlos Miguel Soto Vega,3336418326,info@prelab.mx,,,44630,Guadalajara
JALISCO,A,TIE070509AN9,"Tierralegre, A.C.","María Asunción González Núm 49-A, Col. La Manzanilla, C.P. 48898, La Huerta, Jalisco",Davison Daryl Collins,3153515305,davison.collins@gmail.com,,,48898,La Huerta
JALISCO,M,TIE070509AN9,"Tierralegre, A.C.","María Asunción González Núm 49-A, Col. La Manzanilla, C.P. 48898, La Huerta, Jalisco",Davison Daryl Collins,3153515305,davison.collins@gmail.com,,,48898,La Huerta
JALISCO,A,TNG890906R45,"Tiempo Nuevo de Guadalajara, A.C.","Duque de Rivas Núm 25-G, Col. Arcos, C.P. 44100, Guadalajara, Jalisco",Atala Ruiz Manzur,01 3 6164283,,,,44100,Guadalajara
JALISCO,M,TSG140403280,"Tercera Sonrisa Guadalajara, A.C.","Calle Juan Pablo II, Núm. 1916, Col. Col. Talpita, CP 44719, Guadalajara, Jalisco",Eduardo Olvera Gutiérrez,,,,,,Guadalajara
JALISCO,A,TSG140403280,"Tercera Sonrisa Guadalajara, A.C.","Calle Juan Pablo II, Núm. 1916, Col. Col. Talpita, CP 44719, Guadalajara, Jalisco",Eduardo Olvera Gutiérrez,,,,,,Guadalajara
JALISCO,A,UDE930427B57,"Mi Último Deseo, A.C.","Liceo Núm 779, Col. Centro Barranquitas, C.P. 44200, Guadalajara, Jalisco",Tomás Fernando López Jiménez,336140426,,,,44200,Guadalajara
JALISCO,A,UDI1407042Z0,"Unidos Para el Desarrollo Internacional Visual de América, A.C.","Vicente Guerrero Pte. Núm 79-A, Col. Centro, C.P. 45800, Jocotepec, Jalisco",María Patricia Hernández Muñoz,3339713732,patrushka16@live.com.mx,,,45800,Jocotepec
JALISCO,A,UFC060511LT5,"Unión Femenil CNPR del Estado de Jalisco, A.C.","Justo Sierra Núm 2629, Col. Ladrón de Guevara, C.P. 44600, Guadalajara, Jalisco",Ana Victoria Llamas Iñiguez,,,,,44600,Guadalajara
JALISCO,M,UFC060511LT5,"Unión Femenil CNPR del Estado de Jalisco, A.C.","Justo Sierra Núm 2629, Col. Ladrón de Guevara, C.P. 44600, Guadalajara, Jalisco",Ana Victoria Llamas Iñiguez,,,,,44600,Guadalajara
JALISCO,M,UGU980314L76,"Unidos de Guadalajara, A.C.","Manuel Acuña Núm 2480, Col. Rojas Ladron de Guevara, C.P. 44650, Guadalajara, Jalisco",Ana Laura González Aguilar,826-93-87,,,,44650,Guadalajara
JALISCO,A,UGU980314L76,"Unidos de Guadalajara, A.C.","Manuel Acuña Núm 2480, Col. Rojas Ladron de Guevara, C.P. 44650, Guadalajara, Jalisco",Ana Laura González Aguilar,826-93-87,,,,44650,Guadalajara
JALISCO,A,ULD141009R20,"Unión de Limitaciones Diferentes de Tlajomulco de Zuñiga, A. C.","Potrero del Llano Núm 1787, Col. Fracc. 18 de Marzo, C.P. 44960, Guadalajara, Jalisco",Miguel Ángel Padilla Robles,3314044846,uniondelimitaciones@outlook.com,,,44960,Guadalajara
JALISCO,M,ULD141009R20,"Unión de Limitaciones Diferentes de Tlajomulco de Zuñiga, A. C.","Potrero del Llano Núm 1787, Col. Fracc. 18 de Marzo, C.P. 44960, Guadalajara, Jalisco",Miguel Ángel Padilla Robles,3314044846,uniondelimitaciones@outlook.com,,,44960,Guadalajara
JALISCO,A,UNC140526JH8,"Un Nuevo Camino para Vivir y Servir, A.C.","Antiguo Carretera a Chápala Núm 6352, Col. Las Pintas de Abajo, C.P. 45619, Tlaquepaque, Jalisco",Alfredo Jiménez Orozco,3315917614,alka-1nuevocamino@hotmail.com,,,45619,Tlaquepaque
JALISCO,M,UNC140526JH8,"Un Nuevo Camino para Vivir y Servir, A.C.","Antiguo Carretera a Chápala Núm 6352, Col. Las Pintas de Abajo, C.P. 45619, Tlaquepaque, Jalisco",Alfredo Jiménez Orozco,3315917614,alka-1nuevocamino@hotmail.com,,,45619,Tlaquepaque
JALISCO,M,USD0410276Y7,"Una Sonrisa al Dolor, A.C.","Victoria Núm 1531, Col. Providencia, C.P. 44630, Guadalajara, Jalisco",Ana Guilaisne Bernard Medina,36427963,bernard@cencar.udg.mx,,,44630,Guadalajara
JALISCO,A,USD0410276Y7,"Una Sonrisa al Dolor, A.C.","Victoria Núm 1531, Col. Providencia, C.P. 44630, Guadalajara, Jalisco",Ana Guilaisne Bernard Medina,36427963,bernard@cencar.udg.mx,,,44630,Guadalajara
JALISCO,A,UXL091028TIA,"UXLN, A.C.","Inglaterra Núm 2702, Col. La Arcos Sur, C.P. 44150, Guadalajara, Jalisco",Jorge Arturo Avila Cervantes,1333310918221,contacto@unionporlosninos.org,,,44150,Guadalajara
JALISCO,M,VGU1408197C3,"Verónica Gutiérrez, A.C.","Francisco I. Madero Núm 93, C.P. 47600, Tepatitlán de Morelos, Jalisco",Verónica Gutiérrez Gutiérrez,,,,,47600,Tepatitlán de Morelos
JALISCO,A,VGU1408197C3,"Verónica Gutiérrez, A.C.","Francisco I. Madero Núm 93, C.P. 47600, Tepatitlán de Morelos, Jalisco",Verónica Gutiérrez Gutiérrez,,,,,47600,Tepatitlán de Morelos
JALISCO,A,VIN931206A38,"Villa Infantil Guadalupe y San José, A.C.","Juan Manuel Núm 145, Col. Centro Barranquitas, C.P. 44280, Guadalajara, Jalisco",María Calderón Gaytán,13877632511,oficina_slo@hotmail.com,,,44280,Guadalajara
JALISCO,A,VUG140624QNA,"Voluntariado de la Unión Ganadera Regional de Jalisco al Servicio de Los Ganaderos, A.C.","Huascato Núm 915, Col. Álamo, C.P. 45560, Tlaquepaque, Jalisco",Rosalinda Pérez Ceballos,3338370770,voluntariado_ugrj@hotmail.com,,,45560,Tlaquepaque
JALISCO,L,VVV100416PX4,"Víctimas de Violencia Vial, A.C.","Av. México, Núm. 3370, L 8 y L 9,, Col. Rinconada De Santa Rita, C.P. 44690, Guadalajara, Jalisco",Alma Araceli Chávez Guth,,,,,44690,Guadalajara
JALISCO,A,AAA080527HB7,"Asilo de Ancianos Asunción de María, A.C.","Santa Lucía Núm 50, Col. Nueva Santa María, C.P. 45530, Tlaquepaque, Jalisco",Felipe de Jesús Vizcarra Vallecillo,,,,,45530,Tlaquepaque
JALISCO,M,AAA080527HB7,"Asilo de Ancianos Asunción de María, A.C.","Santa Lucía Núm 50, Col. Nueva Santa María, C.P. 45530, Tlaquepaque, Jalisco",Felipe de Jesús Vizcarra Vallecillo,,,,,45530,Tlaquepaque
JALISCO,B,ACU710617MK9,"Antonio Curiel, A.C.","Ramón Corona Núm 70, Col. Centro, C.P. 47900, Jamay, Jalisco",Raquel Barbosa Valdez,13929240149,acoss5508@prodigy.net.mx,,,47900,Jamay
JALISCO,A,ALJ7412183KA,"Asociación de Lisiados de Jalisco, A.C.","Dr. Silverio García Núm 120 - SR, Col. General Real, C.P. 44400, Guadalajara, Jalisco",Ana María Barajas Cervantes,617 38 52,,,,44400,Guadalajara
JALISCO,A,AMC7002178H4,"Ana María Casillas Cruz, A.C.","Pedro Moreno Núm 430, Col. Pozo del Monte, C.P. 47600, Tepatitlán de Morelos, Jalisco",Alessandra Amigoni Bolis.,(91278) 209-04,,,,47600,Tepatitlán de Morelos
JALISCO,A,ANS111006V34,"Asilo Nuestra Señora de la Salud, A.C.","Calle 5 de Mayo Núm 528, Col. Analco, C.P. 44450, Guadalajara, Jalisco",Juan Pablo Preciado Ramírez,3336198549,,,,44450,Guadalajara
JALISCO,A,APP130112GG8,"El Albergue del Padre Pio, A.C.","Libertad Núm 9, Col. Centro, C.P. 45680, El Salto, Jalisco",Tomás Guillerrmo González Jiménez,37320484,se_vipe@live.com.mx,,,45680,El Salto
JALISCO,M,APP130112GG8,"El Albergue del Padre Pio, A.C.","Libertad Núm 9, Col. Centro, C.P. 45680, El Salto, Jalisco",Tomás Guillerrmo González Jiménez,37320484,se_vipe@live.com.mx,,,45680,El Salto
JALISCO,A,ASC831101T27,"Agrupación Social y Cultural de la Región de Los Altos, A.C.","Luisa de la Peña Núm 501, Col. Atotonilco El  Alto, C.P. 47750, Atotonilco el Alto, Jalisco",Luis Alberto Hernández Gutiérrez,(391) 917-25-44,,,,47750,Atotonilco el Alto
JALISCO,A,ASV9107205NA,"Asilo San Vicente de Atotonilco El Alto, A.C.","Jose Estrada Núm 154, C.P. 47750, Atotonilco el Alto, Jalisco",Imelda Pérez Ruíz,(391) 917-1469,,,,47750,Atotonilco el Alto
JALISCO,M,ASV9107205NA,"Asilo San Vicente de Atotonilco El Alto, A.C.","Jose Estrada Núm 154, C.P. 47750, Atotonilco el Alto, Jalisco",Imelda Pérez Ruíz,(391) 917-1469,,,,47750,Atotonilco el Alto
JALISCO,A,BAA081107DA3,"Banco de Alimentos de Atotonilco, A.C.","Fernando de Alba Núm 395-B, Col. Los Naranjos, C.P. 47750, Atotonilco el Alto, Jalisco",Cristina de Alba Valle,3919175665,badaatotodirecc@hotmail.com,,,47750,Atotonilco el Alto
JALISCO,A,BAJ081125GY6,"Banco de Alimentos de Juanacatlan, A.C.","Camino al Seminario Núm 83, Col. San Antonio, C.P. 45880, Juanacatlán, Jalisco",Rosalba Bedoy Alvarez,33-3732-4174,bancodealimentosdejuanacatlan@hotmail.com,,,45880,Juanacatlán
JALISCO,A,BAZ091005GZ7,"Banco de Alimentos de Zapotlanejo, A.C.","Calle de Moda Núm 6, Col. Zapotlanejo Brenda, C.P. 45430, Zapotlanejo, Jalisco",Julián Becerra Torres,01-373-734-94-28,bancodealimentosdezapotlanejo@hotmail.com,,,45430,Zapotlanejo
JALISCO,A,BDA070510AL4,"Banco Diocesano de Alimentos de los Altos, A.C.","Hidalgo Núm 347, Col. Centro, C.P. 47600, Tepatitlán de Morelos, Jalisco",Guillermo Hernández González,3787825552,ghg100x1@hotmail.com,,,47600,Tepatitlán de Morelos
JALISCO,A,BDA9205064S1,"Banco Diocesano de Alimentos Guadalajara, A.C.","Pichón Núm 1147, Col. Morelos, C.P. 44910, Guadalajara, Jalisco",Ramón Campos Espinoza,3338106595,bdag@megared.net.mx,,,44910,Guadalajara
JALISCO,A,BDE0704034B1,"Bendito Despertar, A.C.","Carr. Antigua a Chapala Núm 6225, Col. Las Pintas de Abajo, C.P. 45619, Tlaquepaque, Jalisco",José Joel Puentes Sauceda,(33) 3606 4278,,,,45619,Tlaquepaque
JALISCO,M,BDG070309FFA,"Bred Diocesano de Guadalajara, A.C.","4 Núm 2386, Col. Zona Industrial, C.P. 44940, Guadalajara, Jalisco",Julia Verónica Alcalá Moreno,,,,,44940,Guadalajara
JALISCO,A,BDG070309FFA,"Bred Diocesano de Guadalajara, A.C.","4 Núm 2386, Col. Zona Industrial, C.P. 44940, Guadalajara, Jalisco",Julia Verónica Alcalá Moreno,,,,,44940,Guadalajara
JALISCO,B,CCA730428495,"Colegio Chapala, A.C.","Flavio Romero de Velasco Núm 421, Col. Centro, C.P. 45900, Chapala, Jalisco",Elisa Estrada Carrillo,01-376-765-5846,acoss5508@prodigy.net.mx,,,45900,Chapala
JALISCO,B,CCA880323H3A,"Centro Cultural Alteño, A.C.","Misioneros Núm 613, Col. El Carmen, C.P. 47180, Arnadas, Jalisco",José de Jesús Romero Vera,01 348 783 13 13 y 01 3 31313,patricia@serratos.com.mx,,,47180,Arnadas
JALISCO,B,CCO630817HH3,"Colegio Colón de Ocotlán, A.C.","Morelos Núm 475, Col. Centro, C.P. 47800, Ocotlán, Jalisco",Víctor Manuel Preciado Ramírez,922-11-74,,,,47800,Ocotlán
JALISCO,M,CCO881003HZ2,"Cerro del Copo, A.C.","Federico Medrano Núm 917, Col. General Real, C.P. 44400, Guadalajara, Jalisco",Yolanda Barajas de Anda,122-74-75.,,,,44400,Guadalajara
JALISCO,A,CCO881003HZ2,"Cerro del Copo, A.C.","Federico Medrano Núm 917, Col. General Real, C.P. 44400, Guadalajara, Jalisco",Yolanda Barajas de Anda,122-74-75.,,,,44400,Guadalajara
JALISCO,A,CCO910801EP1,"Centro de Capacitación, Orientación y Apoyo a la Mujer, A.C.","Av. Xochimilco Núm 565, Col. Álamo, C.P. 45560, Tlaquepaque, Jalisco",Ma. del Socorro Cabrera Larrañaga,36-59-86-54,,,,45560,Tlaquepaque
JALISCO,D,CDI130613RU8,"Cultura para el Desarrollo Integral, A.C.","Constitución de 1857 Núm 3366, Col. Fracc. Revolución, C.P. 45580, Tlaquepaque, Jalisco",Genoveva Guzmán Ornelas,3338385987,genoveva.ornelas@hotmail.com,,,45580,Tlaquepaque
JALISCO,M,CDI130613RU8,"Cultura para el Desarrollo Integral, A.C.","Constitución de 1857 Núm 3366, Col. Fracc. Revolución, C.P. 45580, Tlaquepaque, Jalisco",Genoveva Guzmán Ornelas,3338385987,genoveva.ornelas@hotmail.com,,,45580,Tlaquepaque
JALISCO,A,CDJ971213541,"Centro de Desarrollo para Jóvenes Señor de la Misericordia, A.C.","Independencia Núm 14 - 402, Col. Centro, C.P. 47600, Tepatitlán de Morelos, Jalisco",Gerardo Gutiérrez Iñiguez,,,,,47600,Tepatitlán de Morelos
JALISCO,A,CEE050607US3,"Centro de Educación Especial Guadalajara Cedue, A.C.","Gigantes Núm 2318, Col. San Andrés, C.P. 44810, Guadalajara, Jalisco",Mónica Liliana Alonso Mariscal,3336556081,Icsevilla77@gmail.com,,,44810,Guadalajara
JALISCO,A,CEF001220FM9,"Centro Educativo Familiar María de Nazaret de Tepatitlán, A.C.","Emilio Carranza Núm 81, Col. Centro, C.P. 47600, Tepatitlán de Morelos, Jalisco",Celia González González,01378-78-2-01-70,,,,47600,Tepatitlán de Morelos
JALISCO,M,CES991215H70,"Centro de Estudios San Juan Bosco, A.C.","Salvador Orozco Loreto Núm 21, Col. Álvaro Obregón, C.P. 45620, Tlaquepaque, Jalisco",Marisol Lozano Franco,3310296342,cristian_5582@hotmail.com,,,45620,Tlaquepaque
JALISCO,A,CES991215H70,"Centro de Estudios San Juan Bosco, A.C.","Salvador Orozco Loreto Núm 21, Col. Álvaro Obregón, C.P. 45620, Tlaquepaque, Jalisco",Marisol Lozano Franco,3310296342,cristian_5582@hotmail.com,,,45620,Tlaquepaque
JALISCO,A,CET101206M10,"Centro de Equitación Terapéutica Limón, A.C.","Gabino Barreda Núm 56, Col. Santa Paula, C.P. 45426, Guadalajara, Jalisco",Gustavo Enrique Limón Orozco,3336590340,glimon.cetlimon@gmail.com,,,45426,Guadalajara
JALISCO,A,CID110217J30,"Centro Integral de Desarrollo Especial Arandense, A.C.","Aldama Núm 62, Col. Centro, C.P. 47180, Arnadas, Jalisco",Delia del Carmen López Cabrera,348-783-1761,cidea2011@hotmail.com,,,47180,Arnadas
JALISCO,B,CJA630903KB6,"Colegio Juana de Arco, A.C.","Miguel Montes Castellanos Núm 135, Col. Centro, C.P. 45950, Poncitlán, Jalisco",Elisa Estrada Carrillo,1 01 33,,,,45950,Poncitlán
JALISCO,B,CMB920926T61,"Colegio Miguel de Bolonia, A.C.","La Salle Núm 14, Col. Centro, C.P. 47000, San Juan de los Lagos, Jalisco",Guillermo Garcia Lopéz,395-7-85-10-14,,,,47000,San Juan de los Lagos
JALISCO,B,CMT980121M18,"Colegio Morelos de Tepatitlán, A.C.","Morelos Núm 301, Col. Centro, C.P. 47600, Tepatitlán de Morelos, Jalisco",Rigoberto Limón Limón,2 06 45,,,,47600,Tepatitlán de Morelos
JALISCO,A,CNA841226QW5,"Casa Nazareth, A.C.","Mesa del Norte Núm 1048, Col. Vicente Guerrero, C.P. 44330, Guadalajara, Jalisco",Jesús Uriel Figueroa Zepeda,36 38 16 19,cnazarethgdl@yahoo.com.mx,,,44330,Guadalajara
JALISCO,B,CNH090121J96,"Colegio Niños Héroes de Tepatitlán, A.C.","Cuauhtémoc Núm 25, Col. Centro, C.P. 47600, Tepatitlán de Morelos, Jalisco",Martha Laura Arreola Hernández,3787810679,asauceda@afcaci.com,,,47600,Tepatitlán de Morelos
JALISCO,B,CNH881006PM5,"Colegio Niños Héroes de San Ignacio Cerro Gordo, A.C.","Morelos Núm 91, Col. Centro, C.P. 47190, Arnadas, Jalisco",Guillermina Torres López,13487160124,,,,47190,Arnadas
JALISCO,A,CRT100303P97,"Casa de Reposo Teresa de Calcuta, A.C.","Hidalgo Núm 173, Col. Capilla de Guadalupe, C.P. 47700, Guadalajara, Jalisco",J. Oscar González Barba,,,,,47700,Guadalajara
JALISCO,A,CSJ940622HG2,"Cáritas de San Juan de los Lagos, A.C.","Silverio de Anda Núm 21 - 31, Col. Centro, C.P. 47000, San Juan de los Lagos, Jalisco",Pascual Avelar Marquez,3957851479,caritassj@hotmail.com,,,47000,San Juan de los Lagos
JALISCO,B,CTA9305173K4,"Colegio Teresa de Ávila Lagos, A.C.","Blvd. Teresa de Ávila Núm 200, Col. La Forestal, C.P. 47480, Lagos de Moreno, Jalisco",Elda Rosa Améndola Ávila,74-2-85-05,,,,47480,Lagos de Moreno
JALISCO,A,CTE860827B59,"Casa de la Tercera Edad Santiago de Tonalá, A.C.","Av Los Amiales Núm 256, Col. La Loma, C.P. 45400, Tonalá, Jalisco",Miguel Angel Guzmán Reynoso,01 43 683 24 08,,,,45400,Tonalá
JALISCO,A,CTV070326G85,"Centro de Tratamiento Volver a Nacer, A.C.","Cielo Azul Núm 2, C.P. 45850, Ixtlahuacan de los Membrillos, Jalisco",EZEQUIEL SANTOS MOSQUEDA,3121-2585,elizabq@prodigy.net.mx,,,45850,Ixtlahuacan de los Membrillos
JALISCO,A,CHE000221J34,"Compartir Hermano, A.C.","16 de Septiembre Núm 266, Col. Centro, C.P. 47600, Tepatitlán de Morelos, Jalisco",Berta Gutiérrez Martín,7821767,,,,47600,Tepatitlán de Morelos
JALISCO,M,CHG770223LK4,"Casa Hogar de Guadalajara, A.C.","Calz. Olímpica Núm 709, Col. Universitaria, C.P. 44840, Guadalajara, Jalisco",Teresa de Jesús Navarro Orozco,01 33 8 24 36 25,,,,44840,Guadalajara
JALISCO,A,CHG770223LK4,"Casa Hogar de Guadalajara, A.C.","Calz. Olímpica Núm 709, Col. Universitaria, C.P. 44840, Guadalajara, Jalisco",Teresa de Jesús Navarro Orozco,01 33 8 24 36 25,,,,44840,Guadalajara
JALISCO,A,CHM870831FL6,"Casa Hogar Madre Luisita, A.C.","Zaragoza Núm 100, Col. Centro, C.P. 47750, Atotonilco el Alto, Jalisco",Sara Arellano Rodríguez,(391) 917 08 73,,,,47750,Atotonilco el Alto
JALISCO,A,EAM850909G70,"Estancia para Ancianos María Reyna de los Ángeles, A.C.","Calz. J. Guadalupe Zuno Núm 67, Col. San Antonio, Ferrocarriles Nacionales de México, C.P. 47910, La Barca, Jalisco",Pedro Gálvez Manzo,,,,,47910,La Barca
JALISCO,B,ECA9210027GA,"Escuela por Cooperación América, A.C.","Agustín Bancalari Núm 32-14, Col. San Andrés, C.P. 44810, Guadalajara, Jalisco",Ana Bertha Jiménez Arambula,,,,,44810,Guadalajara
JALISCO,A,EGT890130J30,"Espacio Grato para la Tercera Edad, A.C.","Prolongación Hidalgo Núm 709, Col. Centro, C.P. 47600, Tepatitlán de Morelos, Jalisco",Salvador Zúñiga Torres,01 378 20001,,,,47600,Tepatitlán de Morelos
JALISCO,B,EMC920713IM0,"Escuela Martín de Coruña, A.C.","Fontaneros Núm 547, Col. Electricistas, C.P. 44800, Guadalajara, Jalisco",Concepción Ruvalcava Varela,,,,,44800,Guadalajara
JALISCO,A,FC&990722M16,Fundación C&A,"Camino al ITESO Núm 8350, Col. El Mante, C.P. 45080, Tlaquepaque, Jalisco",Ileana Flores Macías,3338846712,,,,45080,Tlaquepaque
JALISCO,M,FC&990722M16,Fundación C&A,"Camino al ITESO Núm 8350, Col. El Mante, C.P. 45080, Tlaquepaque, Jalisco",Ileana Flores Macías,3338846712,,,,45080,Tlaquepaque
JALISCO,A,FCG030319SN8,"Fundación Cardenal Garibi Rivera, Fundación.","Cobre Núm 4235, Col. Lomas de la Victoria, C.P. 45608, Tlaquepaque, Jalisco","Jose Trinidad y Eduardo Delfino González,    Mendoza Rodríguez,     Medina",01-33-36183778,,,,45608,Tlaquepaque
JALISCO,A,FDG851021HB7,Fundación David Gutiérrez Carbajal,"Av. Topacio Núm 2419, Col. Fracc. Verde Valle, C.P. 44540, Guadalajara, Jalisco",Laura Guadalupe Corona,91 3 647 03 34,,,,44540,Guadalajara
JALISCO,A,FGA100728PS0,"Fundación Guadalupana Alteña, A.C.","José María de la Mora Núm 49, Col. Capilla de Guadalupe, C.P. 47700, Tepatitlán de Morelos, Jalisco",Luis Alfonso Martín Jimenez,,,,,47700,Tepatitlán de Morelos
JALISCO,A,FJC980224M47,"Fundación José Cuervo, A.C.","Periférico Sur Núm 8500, Col. Tramo Morelia -Chapala, C.P. 45601, Tlaquepaque, Jalisco",Jorge Ambriz García,31-34-33-00,,,,45601,Tlaquepaque
JALISCO,A,FOR101101KY3,"Fortasol, A.C.","Reforma Núm 191, Col. San Pedro, C.P. 45500, Tlaquepaque, Jalisco",Alina Elizabeth Hernández Castañeda,3338387764,roberto_razon00@hotmail.com,,,45500,Tlaquepaque
JALISCO,M,FPA100204IE0,"Familia Pavoniana, A.C.","Mármol de Carrara Núm 160, Col. Jacales, C.P. 47400, Lagos de Moreno, Jalisco",Lic. José Luis Chavez Franco,56625920,chavezfranco@prodigy.net.mx,,,47400,Lagos de Moreno
JALISCO,A,FPA100204IE0,"Familia Pavoniana, A.C.","Mármol de Carrara Núm 160, Col. Jacales, C.P. 47400, Lagos de Moreno, Jalisco",Lic. José Luis Chavez Franco,56625920,chavezfranco@prodigy.net.mx,,,47400,Lagos de Moreno
JALISCO,A,FSM010516432,"Fundación Propersonas con Discapacidad Nueva Santa María, A.C.","Av. 8 de Julio Núm 3086, Col. Nueva Santa María, C.P. 44530, Tlaquepaque, Jalisco",J. Guadalupe Cabrera Nodal,38268312,fun.prodiscapacidad_nsm@hotmail.com,,,44530,Tlaquepaque
JALISCO,A,FTR061127D42,"Fundación Tracsa, A.C.","Anillo Periférico Sur Núm 7800, Col. Artesanos Industrial, C.P. 45610, Tlaquepaque, Jalisco",Sergio Antonio Fonseca Arámbula,3678-8000,maeugeniav@prodigy.net.mx,,,45610,Tlaquepaque
JALISCO,A,GIP7803068Y3,"Guarderías Infantiles Providencia, A.C.","Juan Alegría Núm 4, Col. Nueva Santa María, C.P. 45530, Tlaquepaque, Jalisco",María Guadalupe Andalón González,01 33 6 63 45 73,,,,45530,Tlaquepaque
JALISCO,A,GJV1211131N3,"Generaciones de Jovenes Victoriosos, A.C.","Luis J. Jiménez Núm 1064, Col. Primero de Mayo, C.P. 44970, Guadalajara, Jalisco",Andrés Torres Díaz,3333670340,puertadelavida@hotmail.com,,,44970,Guadalajara
JALISCO,M,GJV1211131N3,"Generaciones de Jovenes Victoriosos, A.C.","Luis J. Jiménez Núm 1064, Col. Primero de Mayo, C.P. 44970, Guadalajara, Jalisco",Andrés Torres Díaz,3333670340,puertadelavida@hotmail.com,,,44970,Guadalajara
JALISCO,M,HAM050831175,"Hogar Ana María Casillas, A.C.","Pedro Moreno Núm 430, Col. Pozo del Monte, C.P. 47610, Tepatitlán de Morelos, Jalisco",Josefina Ortiz González,01 378  7820904,conceptocontadorestepa@hotmail.com,,,47610,Tepatitlán de Morelos
JALISCO,A,HAM050831175,"Hogar Ana María Casillas, A.C.","Pedro Moreno Núm 430, Col. Pozo del Monte, C.P. 47610, Tepatitlán de Morelos, Jalisco",Josefina Ortiz González,01 378  7820904,conceptocontadorestepa@hotmail.com,,,47610,Tepatitlán de Morelos
JALISCO,A,HFS970820FC4,"Hogares Fraternales de El Salto, A.C.","Adolfo López Mateos Núm 9 Módulo I - Int. 2, Col. La Mesa, C.P. 45680, El Salto, Jalisco",Francisco Javier Aguilar Rosales,,,,,45680,El Salto
JALISCO,L,HRE160125EE2,Hagamos Realidades A.C.,"Hacienda del Cabezón Núm 1967, Col. Circunvalación Oblatos, C.P. 44710, Guadalajara, Jalisco",Damián García Silva,3311941037,martinez_mora13@hotmail.com,,,44710,Guadalajara
JALISCO,M,IAD931116SS3,"Instituto Alteño para el Desarrollo de Jalisco, A.C.","Ponciano Arriaga Núm 508, Col. Panteón Viejo, C.P. 44180, Arnadas, Jalisco",Irma Serafina González Hernández,36253,,,,44180,Arnadas
JALISCO,A,IAD931116SS3,"Instituto Alteño para el Desarrollo de Jalisco, A.C.","Ponciano Arriaga Núm 508, Col. Panteón Viejo, C.P. 44180, Arnadas, Jalisco",Irma Serafina González Hernández,36253,,,,44180,Arnadas
JALISCO,A,ICN5909159N3,"Instituto de Capacitación para el Niño Ciego y Sordo, A.C.","Irineo Paz Núm 385, Col. Magaña, C.P. 44800, Guadalajara, Jalisco",Guadalupe Saborio,6-35-31-92,,,,44800,Guadalajara
JALISCO,B,IES730706GK4,"Instituto de Enseñanza Secundaria Ramón López Velarde, A.C.","Alba Núm 1914, Col. San Pedrito, C.P. 45625, Tlaquepaque, Jalisco",Pbro. Juan Manuel Galaviz Herrera,658-24-42,,,,45625,Tlaquepaque
JALISCO,B,IIA780214J41,"Instituto Ignacio Allende, A.C.","Loro Núm 1560, Col. Ocho de Julio 1a y 2a sección, C.P. 44910, Guadalajara, Jalisco",Olivia Pérez Plazola,(01) 333 810 8375,serconaher3000@yahoo.com.mx,,,44910,Guadalajara
JALISCO,B,ILA681101NW0,"Instituto Laguense, A.C.","Nicolás Bravo Núm 834, Col. El Refugio, C.P. 47470, Lagos de Moreno, Jalisco",Héctor Javier Ramírez Alanís,4747420155,instituto_lagunenseyahoo.com.mx,,,47470,Lagos de Moreno
JALISCO,B,ITE570731PS9,"Instituto Tecnológico y de Estudios Superiores de Occidente, A.C.","Periférico Sur Manuel Gómez Morin Núm 8585, Col. ITESO, C.P. 45604, Tlaquepaque, Jalisco",Roberto Núñez Gutiérrez,01 3 6693434,,,,45604,Tlaquepaque
JALISCO,A,JCD111114KY3,"Juntos contra el Dolor, A.C.","Nicolás Romero Núm 1358 - D, Col. Mezquitan Country, C.P. 44260, Guadalajara, Jalisco",Silvia Susana Lúa Nava,33 3333 3545,grupo-corporativo@hotmail.com,,,44260,Guadalajara
JALISCO,M,JCD111114KY3,"Juntos contra el Dolor, A.C.","Nicolás Romero Núm 1358 - D, Col. Mezquitan Country, C.P. 44260, Guadalajara, Jalisco",Silvia Susana Lúa Nava,33 3333 3545,grupo-corporativo@hotmail.com,,,44260,Guadalajara
JALISCO,B,KBM760927UR5,"Kinder Bilingue Montessori, A.C.","Caracol Núm 2872, Col. Verde Valle, C.P. 44550, Guadalajara, Jalisco",Irma Patricia Madero Suárez,36304447,lcpjavier@prodigy.net.mx,,,44550,Guadalajara
JALISCO,A,MAY081121NC8,"Mayama, A.C.","Altos Hornos Núm 1286, Col. Parque Álamo Industrial, C.P. 44490, Guadalajara, Jalisco",Enedina Ramos Velasco,50-00-09-35,enedinar@mayama.org.mx,,,44490,Guadalajara
JALISCO,M,MAY081121NC8,"Mayama, A.C.","Altos Hornos Núm 1286, Col. Parque Álamo Industrial, C.P. 44490, Guadalajara, Jalisco",Enedina Ramos Velasco,50-00-09-35,enedinar@mayama.org.mx,,,44490,Guadalajara
JALISCO,A,MFE8910058I6,"Madre Felícitas, A.C.","Cinco de Mayo Núm 424, Col. La Bandera, Sector Reforma, C.P. 44450, Guadalajara, Jalisco",Oliveria Ortiz Barraza,,,,,44450,Guadalajara
JALISCO,A,NAE070824UK6,"Niños y Adolescentes en Armonía, A.C.","Romulo del Valle Núm 96, Col. Lázaro Cárdenas, C.P. 44490, Guadalajara, Jalisco",Sarahí Estrada Ramírez,33670198,niñosyadolescenesenarmonia@hotmail.com,,,44490,Guadalajara
JALISCO,M,NAE070824UK6,"Niños y Adolescentes en Armonía, A.C.","Romulo del Valle Núm 96, Col. Lázaro Cárdenas, C.P. 44490, Guadalajara, Jalisco",Sarahí Estrada Ramírez,33670198,niñosyadolescenesenarmonia@hotmail.com,,,44490,Guadalajara
JALISCO,A,NSA880315PD4,"Niños de San Antonio, A.C.","Jesús García Núm 4, Col. San Antonio Tlayacapan, C.P. 45915, Chapala, Jalisco",María de Jesús Beltrán Huerta,(01376) 765-42-46,jdelgado530@hotmail.com,,,45915,Chapala
JALISCO,M,ONI850729S57,"Organismo de Nutrición Infantil, A.C.","Marcelino García Barragán Núm 1280, Col. Quinta Velarde, C.P. 44430, Guadalajara, Jalisco",José Ramón Solis Fernandez,650 29 19,,,,44430,Guadalajara
JALISCO,A,ONI850729S57,"Organismo de Nutrición Infantil, A.C.","Marcelino García Barragán Núm 1280, Col. Quinta Velarde, C.P. 44430, Guadalajara, Jalisco",José Ramón Solis Fernandez,650 29 19,,,,44430,Guadalajara
JALISCO,A,OSH060810M8A,"Obra Social Hacienda de la Esperanza, A.C.","Av. Gobernador Curiel Núm 2166, Col. 8 de Julio, C.P. 44910, Guadalajara, Jalisco",Leticia Castillo Martínez,333 637 6418,marthapatriciaponce@yahoo.com,"Rancho Paraíso 1 Km. y medio a los Pozos Núm s/n, Col. Municipio de Zacoalco de Torres, Zocoalco de Torres, Jalisco",,44910,Guadalajara
JALISCO,A,PAA1206265H8,"Pequeñas Alitas de Angel, A.C.","Juárez Núm 327 - 16, Col. Centro, C.P. 47800, Ocotlán, Jalisco",María Graciela López Vega,,,,,47800,Ocotlán
JALISCO,M,PAA1206265H8,"Pequeñas Alitas de Angel, A.C.","Juárez Núm 327 - 16, Col. Centro, C.P. 47800, Ocotlán, Jalisco",María Graciela López Vega,,,,,47800,Ocotlán
JALISCO,I,PBL941014G82,"Patronato de Bomberos de Lagos, A.C.","Félix Ramírez Rentería Núm 1221, Col. Pueblo de Moya, C.P. 47530, Lagos de Moreno, Jalisco",Pedro Wirz Luchsinger,56625920,chavezfranco@prodigy.net.mx,,,47530,Lagos de Moreno
JALISCO,H,PCC0208237I0,"Paraíso Cerro del Cuatro, A.C.","Tucumán Núm 175, Col. Buenos Aires, C.P. 45606, Tlaquepaque, Jalisco",Ma. Guadalupe Padilla Orozco,31-44-17-38,,,,45606,Tlaquepaque
JALISCO,A,PCD960424FD4,"Patronato Casa de Descanso del Anciano de Poncitlán, A.C.","Donato Guerra Núm s/n, Col. Toril, C.P. 45950, Poncitlán, Jalisco",María Esperanza Guerrero Navarro,01-391-921-03-84,,,,45950,Poncitlán
JALISCO,A,PEE771111HR7,"Patronato de la Escuela de Educación Especial Lagos, A.C.","Bugambilias Núm 758, Col. El Refugio, C.P. 47470, Lagos de Moreno, Jalisco",Carmen Elena Márquez García,,,,,47470,Lagos de Moreno
JALISCO,A,PJD8807213R8,"Promotora Juvenil Don Bosco, A.C.","Fray Pedro de Ayala Núm 245, Col. Revolución, Sector Reforma, C.P. 44400, Guadalajara, Jalisco",Claudio Castellanos Corona,617 50 58,,,,44400,Guadalajara
JALISCO,A,PJV930608LU8,"Promoción Juvenil Vimar, A.C.","Guillermo Baca Núm 4207, Col. Lázaro Cárdenas, C.P. 44490, Guadalajara, Jalisco",Hilda Guadalupe Ramírez Olvera,646 87 35,,,,44490,Guadalajara
JALISCO,A,PPN931122KT8,"Programa Pro Niños Incapacitados del Lago, A.C.","Paseo del Prado Núm 310, Col. Floresta, C.P. 45920, Chapala, Jalisco",Silvia Flores Martínez,,,,,45920,Chapala
JALISCO,A,PRE091006MS6,"Proyecto Refugio, A.C.","Zaragoza Núm 158, Col. Las Pintitas, C.P. 45680, El Salto, Jalisco",Chrispin Seaman,"013331219253, 013336472654",cofya@prodigy.net.mx,,,45680,El Salto
JALISCO,A,QSE090123A89,"Quinta Sobriedad Emocional, A.C.","Latón Núm 65, Col. Minerales, C.P. 45694, El Salto, Jalisco",José de Jesús García Maciel,3322649056,garciamaciel@live.com.mx,,,45694,El Salto
JALISCO,A,RIM850308Q4A,"Rehabilitación Integral Macel, A.C.","Priv. de Cerezo Núm 260, Col. Fracc. Las Amapas, C.P. 45500, Tlaquepaque, Jalisco",Arturo González Franco,684 62 89,,,,45500,Tlaquepaque
JALISCO,A,SIA071109JU2,"Salud Integral de los Altos, A.C.","José Clemente Orozco Núm 460, Col. La Gloria, C.P. 47670, Tepatitlán de Morelos, Jalisco",Andrés Sáinz Márquez,,,,,47670,Tepatitlán de Morelos
JALISCO,D,TGA100719S96,"La Transformación del Graffiti al Arte Pictórico, A.C.","Isla Salomón Núm 2214, Col. Jardines de San José, C.P. 44950, Guadalajara, Jalisco",ANTONIO CHÁVEZ GARCÍA,30-70-32-51,grafitimural@hotmail.com,,,44950,Guadalajara
JALISCO,M,TGA100719S96,"La Transformación del Graffiti al Arte Pictórico, A.C.","Isla Salomón Núm 2214, Col. Jardines de San José, C.P. 44950, Guadalajara, Jalisco",ANTONIO CHÁVEZ GARCÍA,30-70-32-51,grafitimural@hotmail.com,,,44950,Guadalajara
JALISCO,L,UME140616UW7,"Unidas por México, A.C.","Av. Universidad Núm 600 - 20, Col. Puerta de Hierro, C.P. 45116, Zapopan, Jalisco",Mqariana Garibaldi Morales,3331911215,unidaspormexico@gmail.com,,,45116,Zapopan
JALISCO,M,USM100305EF7,"Una Segunda Mirada, A.C.","Bosques de Zapopan Núm 170 - 45, Col. Bosques de San Isidro, C.P. 45133, Guadalajara, Jalisco",Jorge Alberto Neri Cano,,,,,45133,Guadalajara
JALISCO,A,USM100305EF7,"Una Segunda Mirada, A.C.","Bosques de Zapopan Núm 170 - 45, Col. Bosques de San Isidro, C.P. 45133, Guadalajara, Jalisco",Jorge Alberto Neri Cano,,,,,45133,Guadalajara
JALISCO,A,VBP970701DM6,"Voluntariado Estamos Contigo, A.C.","Uruguay Núm 2471, Col. Colón, C.P. 44920, Guadalajara, Jalisco",Ricardo José Madero Vizcaya,33-38-18-44-00,,,,44920,Guadalajara
JALISCO,M,VCI1506243NA,"Vanguardia Cultural Inclusiva para Desalentar la Violencia Comunitaria, A.C.","Joaquín Fernández de Lizardi Núm 3184, Col. Jardines de la Paz, C.P. 44860, Acatic, Jalisco",Elvia María de Jesús Valencia González,,,,,44860,Acatic
JALISCO,A,VCI1506243NA,"Vanguardia Cultural Inclusiva para Desalentar la Violencia Comunitaria, A.C.","Joaquín Fernández de Lizardi Núm 3184, Col. Jardines de la Paz, C.P. 44860, Acatic, Jalisco",Elvia María de Jesús Valencia González,,,,,44860,Acatic
JALISCO,A,VQV090529U12,"De Vida que Vale, A.C.","Vista al Amanecer Núm 1766, Col. Cerro de Tesoro, C.P. 45608, Tlaquepaque, Jalisco",José Santos Ponce Orozco,,,,,45608,Tlaquepaque
JALISCO,M,VQV090529U12,"De Vida que Vale, A.C.","Vista al Amanecer Núm 1766, Col. Cerro de Tesoro, C.P. 45608, Tlaquepaque, Jalisco",José Santos Ponce Orozco,,,,,45608,Tlaquepaque
JALISCO,A,VUM120330QAA,"Violet Unidad Medico Dental, A.C.","Av. Plan de San Luis Núm 1761, Col. Chapultepec Country, C.P. 44620, Guadalajara, Jalisco",Judith Mena Sánchez,38232404,ancer_consultores@live.com.mx,,,44620,Guadalajara
JALISCO,A,VVL800503GF9,"Voluntarias Vicentinas de Lagos de Moreno, A.C.","Lic. Verdad Núm 229, Col. Centro, C.P. 47400, Lagos de Moreno, Jalisco",Ma. Elena Serrano de Serrano,202 23,,,,47400,Lagos de Moreno
JALISCO,M,VVL800503GF9,"Voluntarias Vicentinas de Lagos de Moreno, A.C.","Lic. Verdad Núm 229, Col. Centro, C.P. 47400, Lagos de Moreno, Jalisco",Ma. Elena Serrano de Serrano,202 23,,,,47400,Lagos de Moreno
JALISCO,A,BAM1404282K4,"Bennu Apoyo a las Mujeres con Cancer, A. C.","5 de Septiembre Núm 159, Col. Centro PiTillal, C.P. 48290, Puerto Vallarta, Jalisco",Delia Félix Díaz,3227798954,delinesfd@hotmail.com,,,48290,Puerto Vallarta
JALISCO,A,BEB070116IU5,"Fundación Don Agustín Bernal Cruz, A.C.","Aguacate Núm 157, Col. Emiliano Zapata, C.P. 48380, Puerto Vallarta, Jalisco",Alfonso Bernal Romero,3222231484,jorge@abrsc.com,,,48380,Puerto Vallarta
JALISCO,E,BVA021030JR5,"Becas Vallarta, A.C.","RÍO NILO Núm 192, Col. RESIDENCIAL FLUVIAL VALLARTA, C.P. 48312, Puerto Vallarta, Jalisco",Maria del Refugio Preciado Ruelas,(322) 222-34-86,,,,48312,Puerto Vallarta
JALISCO,B,CAP850917QY8,"Colegio Americano de Puerto Vallarta, A.C.","Albatros Núm 129, Col. Marina Vallarta, C.P. 48335, Puerto Vallarta, Jalisco",Geral Selitzer,01 322 1 15 25,,,,48335,Puerto Vallarta
JALISCO,A,CPV9511137V7,"Cáritas de Puerto Vallarta, A.C.","Hidalgo Núm 370, Col. Centro, C.P. 48300, Puerto Vallarta, Jalisco",Pedro Rodríguez Altamirano,01 322 2 2121,,,,48300,Puerto Vallarta
JALISCO,M,CRP080109RL5,"Club Rotario PVR Sur, A.C.","Olas Altas Núm 425, Col. Emiliano Zapata, C.P. 48380, Puerto Vallarta, Jalisco",José Luis Arellano Islas,3222230684,angel_hernandez@heza.com.mx,,,48380,Puerto Vallarta
JALISCO,A,CRP080109RL5,"Club Rotario PVR Sur, A.C.","Olas Altas Núm 425, Col. Emiliano Zapata, C.P. 48380, Puerto Vallarta, Jalisco",José Luis Arellano Islas,3222230684,angel_hernandez@heza.com.mx,,,48380,Puerto Vallarta
JALISCO,A,CRV881123JC2,"Clínica de Rehabilitación Vallarta Santa Bárbara, A.C.","Mike Lemus Núm 151, Col. Zona Hotelera Norte, C.P. 48333, Puerto Vallarta, Jalisco",Guillermo Ruíz Vázquez,,,,,48333,Puerto Vallarta
JALISCO,A,CHC120731RI6,"Casa Hogar Corazón de Niña, A.C.","San Luis Potosí Núm 355, Col. Primero de Mayo, C.P. 48325, Puerto Vallarta, Jalisco",Melissa Leigh Canez,3222249209,casahogarcorazondenina@hotmail.com,,,48325,Puerto Vallarta
JALISCO,M,DVA980507BI3,"Discapacitados Vallartenses, A.C.","Mike Lemus Núm 151, Col. Los Cajos, C.P. 48302, Puerto Vallarta, Jalisco",Iván Applegate Curiel,2255366,,,,48302,Puerto Vallarta
JALISCO,A,DVA980507BI3,"Discapacitados Vallartenses, A.C.","Mike Lemus Núm 151, Col. Los Cajos, C.P. 48302, Puerto Vallarta, Jalisco",Iván Applegate Curiel,2255366,,,,48302,Puerto Vallarta
JALISCO,A,FPV0611084K7,"Fundación Paradise Village, A.C.","Francisco Murguia Núm 509 - 4, Col. Centro, C.P. 48291, Puerto Vallarta, Jalisco",Enedina Núñez Rivera,322 22 66770,snelson@paradisevillagegroup.com,,,48291,Puerto Vallarta
JALISCO,B,IEC9307026S8,"Instituto de Educación y Cultura Patria y Cultura, S.C.","Genaro Padilla Núm 387, Col. El Pitillal, C.P. 48290, Puerto Vallarta, Jalisco",Rebeca Patricia Domínguez Camarena,,,,,48290,Puerto Vallarta
JALISCO,M,IEC9307026S8,"Instituto de Educación y Cultura Patria y Cultura, S.C.","Genaro Padilla Núm 387, Col. El Pitillal, C.P. 48290, Puerto Vallarta, Jalisco",Rebeca Patricia Domínguez Camarena,,,,,48290,Puerto Vallarta
JALISCO,M,MUR001123LL1,"Mamás Unidas por la Rehabilitación de sus Hijos, A.C.","Etziquio Corona Núm 545, Col. Bobadilla, C.P. 48290, Puerto Vallarta, Jalisco",Yolanda Sánchez Santiago,01322-2993605,estancia@pasitosdeluz.org,,,48290,Puerto Vallarta
JALISCO,A,MUR001123LL1,"Mamás Unidas por la Rehabilitación de sus Hijos, A.C.","Etziquio Corona Núm 545, Col. Bobadilla, C.P. 48290, Puerto Vallarta, Jalisco",Yolanda Sánchez Santiago,01322-2993605,estancia@pasitosdeluz.org,,,48290,Puerto Vallarta
JALISCO,J,PBV931123SM2,"Pro Biblioteca de Vallarta, A.C.","Av. Francisco Villa y Circunvalación Robalo Núm 1001, Col. Los Mangos, C.P. 48310, Puerto Vallarta, Jalisco",Jorge Alberto Ramírez Robles,01 322 4 99 66,,,,48310,Puerto Vallarta
JALISCO,M,PVN060210HD1,"Puerto Vallarta Navy League, A.C.","Aquiles Serdan Núm 174, Col. Emiliano Zapata, C.P. 48380, Puerto Vallarta, Jalisco",Laura Joachin Moreyra,322 2246399,pvlaw1@gmail.com,,,48380,Puerto Vallarta
JALISCO,A,PVN060210HD1,"Puerto Vallarta Navy League, A.C.","Aquiles Serdan Núm 174, Col. Emiliano Zapata, C.P. 48380, Puerto Vallarta, Jalisco",Laura Joachin Moreyra,322 2246399,pvlaw1@gmail.com,,,48380,Puerto Vallarta
JALISCO,A,RIS010723MGA,"Refugio Infantil Santa Esperanza, A.C.","Ricardo Flores Magón Núm 251, Col. Benito Juárez, C.P. 48389, Puerto Vallarta, Jalisco",José Luis Alcraraz Ibarra,3222227857,ogpauditor@yahoo.com.mx,,,48389,Puerto Vallarta
JALISCO,A,SET091105QR4,"Solidaridad Ed, Thomas, A.C.","Constitución Núm 427, Col. Emiliano Zapata, C.P. 48380, Puerto Vallarta, Jalisco",Francisco Javier Arjona Barbosa,3222241974,admin@setac.com.mx,,,48380,Puerto Vallarta
JALISCO,A,VRE100122D28,"Vida Reavivida, A.C.","Amapas Núm 223, Col. Buenos Aires, C.P. 48370, Puerto Vallarta, Jalisco",David Merle Zude,3112584440,compassionforthefamily@yahoo.com,,,48370,Puerto Vallarta
JALISCO,A,AAG111006RW9,"Asociación Andrés Guardado, A.C.","Av. Providencia Núm 2939 - piso 1 Int. A, Col. Providencia 4a. Sección, C.P. 44639, Guadalajara, Jalisco",Diego Alejandro Tinajero Ortega,333331282710,diego@rettokory.com,,,44639,Guadalajara
JALISCO,D,ACO970516140,"Arte y Cultura Omnilife, A.C.","Av. Inglaterra Núm 3089 - W, Col. Vallarta Poniente, C.P. 44110, Guadalajara, Jalisco",Jorge Carlos Vergara Madrigal,669 81 00,,,,44110,Guadalajara
JALISCO,M,ADI020816SJ2,"Acortar Distancias, A.C.","Prolongación Guadalupe Núm 3185, Col. Miramar, C.P. 45060, Guadalajara, Jalisco",Paola López López,3338175191,,,,45060,Guadalajara
JALISCO,A,ADI020816SJ2,"Acortar Distancias, A.C.","Prolongación Guadalupe Núm 3185, Col. Miramar, C.P. 45060, Guadalajara, Jalisco",Paola López López,3338175191,,,,45060,Guadalajara
JALISCO,A,AFP7404301DA,"Asociación Femenina Pro-México, A.C.","Av. Insurgentes Núm 181, Col. Zapopan, C.P. 45138, Zapopan, Jalisco",Judith Ruíz Manzur,01 658 616 25 78,,,,45138,Zapopan
JALISCO,A,AGJ921002FE3,"Asociación Gilberto de Jalisco, A.C.","Loma de la Defensa Núm 29, Col. La Loma, C.P. 49340, Zapopan, Jalisco",Graciela Urrea de Medrano,01 658 813 37 13,,,,49340,Zapopan
JALISCO,M,AGJ921002FE3,"Asociación Gilberto de Jalisco, A.C.","Loma de la Defensa Núm 29, Col. La Loma, C.P. 49340, Zapopan, Jalisco",Graciela Urrea de Medrano,01 658 813 37 13,,,,49340,Zapopan
JALISCO,A,AIC130223CF4,"Albergue Infantil la Casa de Jesús y de María, A.C.","Obsidiana Núm 2888, Col. Residencial Victoria, C.P. 45089, Zapopan, Jalisco",Ana Elsa Bustamante Andrews,,,,,45089,Zapopan
JALISCO,M,AIC130223CF4,"Albergue Infantil la Casa de Jesús y de María, A.C.","Obsidiana Núm 2888, Col. Residencial Victoria, C.P. 45089, Zapopan, Jalisco",Ana Elsa Bustamante Andrews,,,,,45089,Zapopan
JALISCO,A,AIC850228J45,"Asociación para la Investigación, Capacitación y Asistencia Wixarica, A.C.","Beatriz Hernández Núm 1354, Col. Zoquipan, C.P. 45170, Zapopan, Jalisco",Rocio Echevarria Ortíz,626 61 03,,,,45170,Zapopan
JALISCO,M,AIP871204MG0,"Albergue Infantil Los Pinos, A.C.","Calz. de los Fresnos Núm 47, Col. Ciudad Granja, C.P. 45010, Zapopan, Jalisco",Alfonso Martínez Yr-zar,627-31-96,,,,45010,Zapopan
JALISCO,A,AIP871204MG0,"Albergue Infantil Los Pinos, A.C.","Calz. de los Fresnos Núm 47, Col. Ciudad Granja, C.P. 45010, Zapopan, Jalisco",Alfonso Martínez Yr-zar,627-31-96,,,,45010,Zapopan
JALISCO,M,ALU120307784,"Alas de Luz, A.C.","San Francisco Núm 3429, Col. Vallarta Sur, C.P. 44500, Guadalajara, Jalisco",Melchor Múzquiz Hadad,3315080211,contacto@alasdeluz.org.mx,,,44500,Guadalajara
JALISCO,A,ALU120307784,"Alas de Luz, A.C.","San Francisco Núm 3429, Col. Vallarta Sur, C.P. 44500, Guadalajara, Jalisco",Melchor Múzquiz Hadad,3315080211,contacto@alasdeluz.org.mx,,,44500,Guadalajara
JALISCO,A,AMD880830D69,"Asociación Mexicana de Diabetes en Jalisco, A.C.","Olivo Núm 1439, Col. Del Fresno, C.P. 44900, Zapopan, Jalisco",María Elena Mota Oropeza,636 89 46,,,,44900,Zapopan
JALISCO,A,AME081211TCA,"Ayuda Mutua de Exalumnas del Sagrado Corazón de Guadalajara, A.C.","Rinconada de las Acacias Núm 145, Col. Rinconada del Sol, C.P. 45055, Zapopan, Jalisco",Martha Gómez España González,3848-9166,ylleana@gmail.com,,,45055,Zapopan
JALISCO,A,AMI090401S51,"AMISADAC, A.C.","Hidalgo Núm 23, Col. Gavilanes Oriente, C.P. 45645, Tlajomulco de Zuñiga, Jalisco",Francisca Nayeli Morales Arcaraz,33333644,amisad.ac@hotmail.com,,,45645,Tlajomulco de Zuñiga
JALISCO,M,AMI090401S51,"AMISADAC, A.C.","Hidalgo Núm 23, Col. Gavilanes Oriente, C.P. 45645, Tlajomulco de Zuñiga, Jalisco",Francisca Nayeli Morales Arcaraz,33333644,amisad.ac@hotmail.com,,,45645,Tlajomulco de Zuñiga
JALISCO,A,AMP6402258K3,"Asociación Mexicana Pro-Educación y Beneficencia, A.C.","Av. Manuel Ávila Camacho Núm 2336, Col. Jardines del Country, C.P. 44210, Guadalajara, Jalisco",Martha Arias Gamez,3331053179,magampebac@outlook.com,,,44210,Guadalajara
JALISCO,A,ANS030819T73,"Asilo Nuestra Señora de Zapopan, A.C","Hidalgo Núm 60, Col. Centro, C.P. 45100, Zapopan, Jalisco",María de la Luz López Uribe,33-38266428,degamainm@yahoo.com.mx,,,45100,Zapopan
JALISCO,A,APE740115G84,"Asociación para la Protección de Enfermos Desamparados Especialmente Incurables, A.C.","Hidalgo Núm 78, Col. Los Gavilanes, C.P. 45645, Tlajomulco de Zuñiga, Jalisco",Valentín González,,,,,45645,Tlajomulco de Zuñiga
JALISCO,M,APL070723MJA,"Asociación Padre Luis Tezza, A.C.","Ing. Francisco Ugarte Núm 155, Col. Arcos Sur, C.P. 44150, Guadalajara, Jalisco",Luis Javier Espinosa Badial,36301811 36300520,,,,44150,Guadalajara
JALISCO,A,APL070723MJA,"Asociación Padre Luis Tezza, A.C.","Ing. Francisco Ugarte Núm 155, Col. Arcos Sur, C.P. 44150, Guadalajara, Jalisco",Luis Javier Espinosa Badial,36301811 36300520,,,,44150,Guadalajara
JALISCO,D,ART6902219U2,"Radiodifusoras y Televisoras de Occidente, A.C.","Fray Juan de Zumarraga Núm 319, Col. Chapalita, C.P. 44510, Guadalajara, Jalisco",Gregorio Preciado Ceceña,01(33)31-22-19-22,,,,44510,Guadalajara
JALISCO,A,ARV120813QW8,"Amigos de Riendas para la Vida, A.C.","Séptima Sur Núm 461, Col. Jardindes de Nuevo México, C.P. 45200, Zapopan, Jalisco",Mercedes Arambula Ibañez,3336241543,riendasparalavida@yahoo.com.mx,,,45200,Zapopan
JALISCO,A,ASC050706IMA,"Aportando a su Calidad de Vida, A.C.","Pedro Martínez Rivas Núm 746, Col. Fracc.  Industrial Belenes Norte, C.P. 45150, Zapopan, Jalisco",José Luis Saucedo Requenes,38363855,acaviac@yahoo.com.mx,,,45150,Zapopan
JALISCO,A,ASV771104AR0,"Asilo San Vicente, A.C.","Pedro A. Galván Núm 34, Col. Centro, C.P. 48500, Cocula, Jalisco",María Avelina Carreón Pérez,3777733101,serconaher3000@yahoo.com.mx,,,48500,Cocula
JALISCO,M,ASV771104AR0,"Asilo San Vicente, A.C.","Pedro A. Galván Núm 34, Col. Centro, C.P. 48500, Cocula, Jalisco",María Avelina Carreón Pérez,3777733101,serconaher3000@yahoo.com.mx,,,48500,Cocula
JALISCO,B,AVG8705311R4,"Asociación del Valle de Guadalajara, S.C.","Cto. de las Flores Norte Núm 2137, Col. Cd. Bugambilias, C.P. 45237, Zapopan, Jalisco",Ma. Álvarez Icaza Gallardo,01 33 36 84 34 73,,,,45237,Zapopan
JALISCO,A,AVI090727DL9,"Almas en Victoria, A.C.","Privada Tomate Núm 15-A, Col. Mesa de los Ocotes, C.P. 45204, Zapopan, Jalisco",César Chávez Díaz,36251024,carey-44@hotmail.com,,,45204,Zapopan
JALISCO,M,AVI090727DL9,"Almas en Victoria, A.C.","Privada Tomate Núm 15-A, Col. Mesa de los Ocotes, C.P. 45204, Zapopan, Jalisco",César Chávez Díaz,36251024,carey-44@hotmail.com,,,45204,Zapopan
JALISCO,A,BAA091014SM2,"Banco de Alimentos de Ameca, A.C.","Benito Juárez Núm 100, Col. Ameca Centro, C.P. 46600, Ameca, Jalisco",Ramón Ahumada Meza,3757584585,jguadalupe1206@hotmail.com,,,46600,Ameca
JALISCO,E,BMO930503FI9,"Becas Magdalena O. Vda. de Brockmann, A.C.","Moctezuma Núm 442, Col. Jardines del Sol, C.P. 45050, Zapopan, Jalisco",Guillermo Brockmman,01 3 6146733,,,,45050,Zapopan
JALISCO,M,BSV141120PJ9,"Barrio Sin Violencia y Sin Adicción, A.C.","Maurice Baring Núm 263, Col. Jardines de la Patria, C.P. 45110, Zapopan, Jalisco",Pedro Agustín Ramírez Roqueñi,3336926329,pedrormz@hotmail.com,,,45110,Zapopan
JALISCO,A,BSV141120PJ9,"Barrio Sin Violencia y Sin Adicción, A.C.","Maurice Baring Núm 263, Col. Jardines de la Patria, C.P. 45110, Zapopan, Jalisco",Pedro Agustín Ramírez Roqueñi,3336926329,pedrormz@hotmail.com,,,45110,Zapopan
JALISCO,A,BXS1605034W9,"Benedicto XVI Ser y Familia, A.C.","Lorenzana Núm 555, Col. Jardines del Bosque, C.P. 44520, Guadalajara, Jalisco",Manuel Ponce Vázquez,3311536646,manuel.mponce@gmail.com,,,44520,Guadalajara
JALISCO,M,BXS1605034W9,"Benedicto XVI Ser y Familia, A.C.","Lorenzana Núm 555, Col. Jardines del Bosque, C.P. 44520, Guadalajara, Jalisco",Manuel Ponce Vázquez,3311536646,manuel.mponce@gmail.com,,,44520,Guadalajara
JALISCO,B,CAG790607RP2,"Colegio Alemán de Guadalajara, A.C.","Bosques de los Cedros Núm 32, Col. Las Cañadas Bosuqes de San Isidro Sur, C.P. 45140, Zapopan, Jalisco",Ma. del Carmen Ramírez Cueva,01 33 36850699,gteadmvo@colegioalemangd.com.mx,,,45140,Zapopan
JALISCO,A,CAI000817T70,"Centro de Atención Integral en VIH-SIDA, A.C.","Madero Núm 836, Col. Americana, C.P. 44160, Guadalajara, Jalisco",María Guadalupe Orozco Heredia,33-36-14-53-53,vihasdevida@gmail.com,,,44160,Guadalajara
JALISCO,A,CAI061106N33,"Centro de Ayuda Integral, Sagrado Corazón, A.C.","Juárez Núm 55, Col. Centro, C.P. 45100, Zapopan, Jalisco",Ma. Estela Arteaga Martel,01-33-36330525,cenainscort31@yahoo.com,,,45100,Zapopan
JALISCO,A,CAI090704KD2,"Centro de Apoyo Integral Moisés, A.C.","Agua Zarca Núm 46, Col. Agua Fría, C.P. 45186, Zapopan, Jalisco",Carlos Aguilar Díaz,3338610357,pbro_carlos@hotmail.com,,,45186,Zapopan
JALISCO,B,CAL870420IK9,"Colegio Altamira, A.C.","Av. Moctezuma Núm 2390, Col. El Colli, C.P. 45058, Zapopan, Jalisco",Víctor Manuel Rodríguez Álvarez,121-09-91,,,,45058,Zapopan
JALISCO,B,CAL930505JC7,"Mi Colegio de Audición y  Lenguaje Fray Pedro Ponce de León, A.C.","Farallón Núm 5346, Col. Cerro del Tesoro, C.P. 45608, Zapopan, Jalisco",María Obidia Angulo Camacho,3331353835,blanca6402@yahoo.com.mx,,,45608,Zapopan
JALISCO,A,CAR020225CK6,"Centro de Apoyo Rural Infantil de Asistencia Diaria, A.C.","Mariano Barcenas Núm 656 - A, Col. Auditorio, C.P. 45030, Zapopan, Jalisco",Martha Angélica Aguirre Valencia,01 33 36 58 18 24,,,,45030,Zapopan
JALISCO,A,CBA891206GVA,"Centro de Bienestar y Asistencia Infantil de Jalisco, A.C.","Industria Núm 265, Col. Centro, C.P. 45100, Zapopan, Jalisco",Constanza Larios Larios,3313688265,anaheik@gmail.com,,,45100,Zapopan
JALISCO,A,CCA101020RR0,"Centro Comunitario y Asistencia Social Lomas de San Agustín, A.C.","Loma San Juan Núm 119, Col. Lomas de San Agustín, C.P. 45645, Tlajomulco de Zuñiga, Jalisco",María Lorena Carrillo Arellano,(33) 31-88-61-90,lorenacarrillo@hotmail.com,,,45645,Tlajomulco de Zuñiga
JALISCO,B,CCA990713N73,"Colegio Champagnat, A.C.","Puerto Tampico Núm 2225, Col. Miramar, C.P. 45060, Zapopan, Jalisco",Antonio Rodríguez Orozco,180-30-02.,,,,45060,Zapopan
JALISCO,B,CCB920226CA1,"Colegio Cervantes Bosque, A.C.","Crepúsculo Núm 2783, Col. Jardines del Bosque, C.P. 44520, Guadalajara, Jalisco",Alfredo Moreno Jiménez,3121-7571,ccbosquec@megared.net.mx,,,44520,Guadalajara
JALISCO,B,CCG670714EY8,"Colegio Chapalita de Guadalajara, A.C.","San Juan Bosco Núm 4265, Col. Chapalita, C.P. 45040, Zapopan, Jalisco",Alejandro Gómez Peña,31216623 y 31214090,josecruz1950@hotmail.com,,,45040,Zapopan
JALISCO,A,CCG8905101G2,"Casa Canisio de Guadalajara, A.C.","Paseo  Lomas Altas Núm 270, Col. Lomas del Valle, C.P. 45120, Zapopan, Jalisco",Ing. Héctor Manuel Acuña Noriega,01 774 6428620,,,,45120,Zapopan
JALISCO,B,CCP030114UR4,"Colegio Cervantes Primaria, A.C.","Marcelino Champagnat Núm 2845, Col. Loma Bonita Sur, C.P. 45086, Zapopan, Jalisco",Alfredo Moreno Jiménez,36-31-34-68,,,,45086,Zapopan
JALISCO,A,CCR9912137T2,"Comunidad Crece, A.C.","Puerto Melaque Núm 86, Col. Miramar, C.P. 45060, Zapopan, Jalisco",Nora Cecilia Paredes Gracia,01 3  1807713,administracion@comcrecer.org,,,45060,Zapopan
JALISCO,A,CCT1502063Y0,"Casa Colibrí Trabajador Católico, A.C.","Ocampo Núm 2, Col. Hostotipaquillo Centro, C.P. 46440, Hostotipaquillo, Jalisco",José Manuel Hernández Espinoza,,,,,46440,Hostotipaquillo
JALISCO,M,CCT1502063Y0,"Casa Colibrí Trabajador Católico, A.C.","Ocampo Núm 2, Col. Hostotipaquillo Centro, C.P. 46440, Hostotipaquillo, Jalisco",José Manuel Hernández Espinoza,,,,,46440,Hostotipaquillo
JALISCO,A,CDG880430N64,"La Casa Down de Guadalajara, A.C.","Acuario Núm 4116, Col. Juan Manuel Vallarta, C.P. 45120, Zapopan, Jalisco",Irma Midori Kishi Loyo,3335633243,nllp@prodigy.net.mx,,,45120,Zapopan
JALISCO,B,CDI060502K73,"Centro de Desarrollo Infantil Erikson, A.C.","Volcán Paricutín Núm 6190, Col. El Colli Urbano, C.P. 45070, Zapopan, Jalisco",Gabriela Ivonne Tirado González,3336311848,frankcadena@hotmail.com,,,45070,Zapopan
JALISCO,B,CEB950228ID0,"Centro Escolar Bilingüe Bugambilias, A.C.","Rio Verde Núm 1485, Col. Las Aguilas, C.P. 45080, Zapopan, Jalisco",Teresita de Jesús Bernal Espinoza,36-34-40-96,josecruz1950@hotmail.com,,,45080,Zapopan
JALISCO,B,CEE960221UBA,"Centro Educativo Español, A.C.","Sierra de Pihuamo Núm 1762, Col. Las Águilas, C.P. 45080, Zapopan, Jalisco",Oralia Islas Rodríguez,36321187,Josecruz1950@hotmail.com,,,45080,Zapopan
JALISCO,B,CEG110503IN2,"Centros Escolares GEU, A.C.","Esther Tapia de Castellanos Núm 555, Col. Santa Fe, C.P. 45168, Zapopan, Jalisco",Rubén Moreno Bosquet,5257000,cerosas@geusa.com.mx,,,45168,Zapopan
JALISCO,M,CEG110503IN2,"Centros Escolares GEU, A.C.","Esther Tapia de Castellanos Núm 555, Col. Santa Fe, C.P. 45168, Zapopan, Jalisco",Rubén Moreno Bosquet,5257000,cerosas@geusa.com.mx,,,45168,Zapopan
JALISCO,M,CEH140714K33,"Cuidados Especiales con Humanidad, A. C.","apotlán Núm 2105, Col. Valle de las Ceras, C.P. 45601, Zapopan, Jalisco",Consuelo Rodríguez Orozco,3333651176,arq_vallarta@hotmail.com,,,45601,Zapopan
JALISCO,A,CEH140714K33,"Cuidados Especiales con Humanidad, A. C.","apotlán Núm 2105, Col. Valle de las Ceras, C.P. 45601, Zapopan, Jalisco",Consuelo Rodríguez Orozco,3333651176,arq_vallarta@hotmail.com,,,45601,Zapopan
JALISCO,B,CEJ070502CM1,"Centro Educativo Juan M Bosco Occhiena, A.C.","Don Bosco Núm 31, Col. San Francisco-Tesistan, C.P. 45200, Zapopan, Jalisco",Rosa María Ornelas Medina,33-38-97-07-59,josecruz1950@hotmail.com,,,45200,Zapopan
JALISCO,M,CEJ860811AI9,"Centro Educativo San Javier, S.C.","Calz. del Servidor Público Núm 3030, Col. Exhacienda de la Mora, C.P. 45138, Zapopan, Jalisco",L.C.P. Bernardo Osorio Gutiérrez,01 33 38 32 19 29,,,,45138,Zapopan
JALISCO,B,CEJ860811AI9,"Centro Educativo San Javier, S.C.","Calz. del Servidor Público Núm 3030, Col. Exhacienda de la Mora, C.P. 45138, Zapopan, Jalisco",L.C.P. Bernardo Osorio Gutiérrez,01 33 38 32 19 29,,,,45138,Zapopan
JALISCO,B,CEO6802121U6,"Centros Educativos Oblatos, A.C.","Acasias Núm 145, Col. Rinconada del Sol, C.P. 45050, Zapopan, Jalisco",José Antonio Salazar,,,,,45050,Zapopan
JALISCO,B,CFM620102RP2,"Colegio Franco Mexicano, A.C.","Francisco Villa Núm 235, Col. El Bajio, C.P. 45019, Zapopan, Jalisco",Claudia Mónica Sánchez Bernal,36822221,almafonseca15@hotmail.com,,,45019,Zapopan
JALISCO,B,CFO001017M84,"Centros de Formación, A.C.","Carr. Chapala-Jocotepec km 67, Col. Jocotepec, C.P. 45800, Jocotepec, Jalisco",Verónica Haydée Fernández Labastida,01 37 67 63 17 81,,,,45800,Jocotepec
JALISCO,A,CFU990311RS8,"Corporativa de Fundaciones, A.C.","López Cotilla Núm 2139, Col. Arcos Vallarta, C.P. 45130, Zapopan, Jalisco",Eduardo Graf Montero,6 47 27 52,,,,45130,Zapopan
JALISCO,B,CGU600707IW9,"Colegio Guadalajara, A.C.","Av. López Mateos Sur Núm 2199, Col. Rinconada del Sol, C.P. 45050, Zapopan, Jalisco",Adriana Rivera Hernández,31212240,contcolegiogdl@hotmail.com,,,45050,Zapopan
JALISCO,B,CIM070518G82,"Centro Infantil Mis Primeros Pininos, S.C.","Av. Guadalajara Núm 514, Col. Nuevo México, C.P. 45201, Acatic, Jalisco",Olga Selene Fuentes Quintero,15961922,nominaslelasting@gmail.com,,,45201,Acatic
JALISCO,C,CJA821109ND0,"El Colegio de Jalisco, A.C.","Calle 5 de Mayo Núm 209, Col. Centro, C.P. 45100, Zapopan, Jalisco",Bernardo Ardavin Migoni,633 26 16,,,,45100,Zapopan
JALISCO,B,CMA630513TQ7,"Colegio Matel, A.C.","Antonio Valeriano Núm 400, Col. Chapalita, C.P. 45040, Zapopan, Jalisco",Teresa Miramontes Haro,31212873,Josecruz1950@hotmail.com,,,45040,Zapopan
JALISCO,M,CMC100222Q8A,"Casa Mayor Casa Social para Adultos Mayores, A.C.","José María Mercado Núm 229, Col. Ahualulco de Mercado, C.P. 46730, Zapopan, Jalisco",Marta Medina Ramírez,3867526022,casamayorahualulco2010@hotmail.com,,,46730,Zapopan
JALISCO,A,CMC100222Q8A,"Casa Mayor Casa Social para Adultos Mayores, A.C.","José María Mercado Núm 229, Col. Ahualulco de Mercado, C.P. 46730, Zapopan, Jalisco",Marta Medina Ramírez,3867526022,casamayorahualulco2010@hotmail.com,,,46730,Zapopan
JALISCO,B,CMC790926Q90,"Colegio Maria Concepción Bátiz de Aviña, A.C.","J. Jesús López y González Núm 2601, Col. Las Águilas, C.P. 45080, Zapopan, Jalisco",Ma. Teresa Herrera Zamarripa,31 35 03 02,Josecruz1950@hotmail.com,,,45080,Zapopan
JALISCO,A,CME130228790,"Concertando México, A.C.","Av. San Juan Núm 1521, Col. Ciudad Granja, C.P. 45010, Zapopan, Jalisco",Víctor Manuel Sánchez Larrauri,,concertandomexico@gmail.com,,,45010,Zapopan
JALISCO,M,CME130228790,"Concertando México, A.C.","Av. San Juan Núm 1521, Col. Ciudad Granja, C.P. 45010, Zapopan, Jalisco",Víctor Manuel Sánchez Larrauri,,concertandomexico@gmail.com,,,45010,Zapopan
JALISCO,A,CMS971119382,"Centro Magdalena Sofia, A.C.","Rincon de las Acacias Núm 145, Col. Rinconada del Sol, C.P. 45050, Zapopan, Jalisco",María Georgina Zubiréa Maqueo,,,,,45050,Zapopan
JALISCO,A,CMS9907069B5,"Casa Misericordia de Santa Isabel de Hungría, A.C.","Francisco I. Madero Núm 263, Col. Loma Bonita, C.P. 46500, Etzatlán, Jalisco",Fausto Meza Ochoa,36338488,ksamisericordia@hotmail.com.,,,46500,Etzatlán
JALISCO,M,CNI481209NG6,"Ciudad de los Niños, A.C.","Santa Teresa de Jesús Núm 852, Col. Chapalita, C.P. 45040, Zapopan, Jalisco",P. Juan Manuel García de Alba Morales,122 93 55,,,,45040,Zapopan
JALISCO,A,CNI481209NG6,"Ciudad de los Niños, A.C.","Santa Teresa de Jesús Núm 852, Col. Chapalita, C.P. 45040, Zapopan, Jalisco",P. Juan Manuel García de Alba Morales,122 93 55,,,,45040,Zapopan
JALISCO,M,COS071024TH5,"Casa Oración San José Obrero, A.C.","Ribera del Lago Núm 18, Col. Centro, C.P. 45800, Jocotepec, Jalisco",Alexis Emiliano Orta Salgado,5680 4048,orta@a-consultores.com,,,45800,Jocotepec
JALISCO,A,COS071024TH5,"Casa Oración San José Obrero, A.C.","Ribera del Lago Núm 18, Col. Centro, C.P. 45800, Jocotepec, Jalisco",Alexis Emiliano Orta Salgado,5680 4048,orta@a-consultores.com,,,45800,Jocotepec
JALISCO,A,CPC921215RQA,"Centro de Promoción y Capacitación para la Dignidad de la Persona, A.C.","Av. López Mateos Sur Núm 5622, Col. Arboledas, C.P. 45070, Zapopan, Jalisco",Miguel Ángel Vargas China,3337777471,vargaschina@hotmail.com,,,45070,Zapopan
JALISCO,M,CPF011009GZ0,"Centro Psicoeducativo Freire, A.C.","Aurelio Aceves Núm 158, Col. Arcos Vallarta, C.P. 44130, Guadalajara, Jalisco",Lic. Marcela Páramo Ortega,33-36163720 y 36158924,mparamo@cpaulofreire.com y maparamo@prodigy.net.mx,,,44130,Guadalajara
JALISCO,A,CPF011009GZ0,"Centro Psicoeducativo Freire, A.C.","Aurelio Aceves Núm 158, Col. Arcos Vallarta, C.P. 44130, Guadalajara, Jalisco",Lic. Marcela Páramo Ortega,33-36163720 y 36158924,mparamo@cpaulofreire.com y maparamo@prodigy.net.mx,,,44130,Guadalajara
JALISCO,A,CPU820302BE1,"Centro de Paz y Unidad, A.C.","Plata Núm 245, Col. San Isidro, C.P. 45147, Zapopan, Jalisco",Consuelo Hurtado Mendoza,633 68 30,,,,45147,Zapopan
JALISCO,B,CRE620927TW6,"Colegio Reforma, A.C.","Guadalupe Montenegro Núm 2061, Col. Centro, C.P. 44100, Guadalajara, Jalisco",María del Rosario Díaz Ramos,36 15 94 31,josecruz1950@hotmail.com,,,44100,Guadalajara
JALISCO,B,CTD850219SU9,"Centro Tecnológico y Deportivo de Jarales, A.C.","Carr. a Tesistán km 4 Núm s/n, C.P. 45130, Zapopan, Jalisco",José Rafael León Jacobo,834-24-33,,,,45130,Zapopan
JALISCO,B,CTM9907271G9,"Colegio Tercer Milenio, A.C.","Paseo de los Frambuesos Núm 1535, Col. Tabachines, C.P. 45188, Zapopan, Jalisco",Carmen García Galaviz,36810425 y 38610426,josecuz1950@hotmail.com,,,45188,Zapopan
JALISCO,A,CUM140328C16,Cinco Por Una Mejor Niñez A.C.,"2 de Abril Núm 54, Col. La Martinica, C.P. 45180, Zapopan, Jalisco",Raúl Navarro Martínez,,,,,45180,Zapopan
JALISCO,B,CUU000901KK7,"Centro Universitario Une Milenio, A.C.","Av. del Sol Núm 287 - piso 1, Col. Ciudad del Sol, C.P. 45050, Zapopan, Jalisco",Andrés Contreras Sobrino,3335876966,antoniobv@hotmail.com,,,45050,Zapopan
JALISCO,B,CUU0105236Z4,"Centro Universitario Une, A.C.","Calle Chimalhuacan Núm 6, Col. Ciudad del Sol, C.P. 45050, Zapopan, Jalisco",Andres Contreras Sobrino,35876966,,,,45050,Zapopan
JALISCO,M,CVA140624FH6,"Centro de Vida Autónoma, A.C.","A las Montas Núm 343, Col. Prados Vallarta, C.P. 45020, Zapopan, Jalisco",Beatriz Pimentel Levin,13336736941,licbeatrizpimentel@hotmail.com,,,45020,Zapopan
JALISCO,A,CVA140624FH6,"Centro de Vida Autónoma, A.C.","A las Montas Núm 343, Col. Prados Vallarta, C.P. 45020, Zapopan, Jalisco",Beatriz Pimentel Levin,13336736941,licbeatrizpimentel@hotmail.com,,,45020,Zapopan
JALISCO,A,CHA050606U81,"Casa Hogar del Anciano Jesucristo Obrero, A.C.","Mangos Núm 312, Col. La Tuzania, C.P. 45130, Zapopan, Jalisco",Manuel González Villaseñor,3633-3671,manuelgovi@prodigy.net.mx,,,45130,Zapopan
JALISCO,A,CHL661220BT8,"Casa Hogar de la Luz, A.C.","Priv. General Agustín Olachea Núm 35, Col. Seatle, C.P. 45150, Zapopan, Jalisco",Guadalupe Cortés Ruiz,33 32 31,,,,45150,Zapopan
JALISCO,A,CHN051007R68,"Casa Hogar El Nuevo Israel, A.C.","Miguel de la Madrid Núm 80, Col. Lomas de la Primavera, C.P. 45065, Guadalajara, Jalisco",José Luis Torres Serrano,10289442 y 37005540,casahogarelnuevoisrael@hotmail.com,,,45065,Guadalajara
JALISCO,M,CHP140328AW7,"Casa Hogar Pueblo de Dios, A.C.","Jalisco Núm 2750, Col. Lomas de la Primavera, C.P. 45066, Zapopan, Jalisco",Eduardo Domínguez Gil,,,,,45066,Zapopan
JALISCO,A,CHP140328AW7,"Casa Hogar Pueblo de Dios, A.C.","Jalisco Núm 2750, Col. Lomas de la Primavera, C.P. 45066, Zapopan, Jalisco",Eduardo Domínguez Gil,,,,,45066,Zapopan
JALISCO,M,CHS120116195,"Casa Hogar Samuel, A.C.","Onza Núm 3412, Col. Arenales Tapatíos, C.P. 45066, Zapopan, Jalisco",José Luis Gómez Ordaz,3310283628,casahogarsamuelac@hotmail.com.mx,,,45066,Zapopan
JALISCO,A,CHS120116195,"Casa Hogar Samuel, A.C.","Onza Núm 3412, Col. Arenales Tapatíos, C.P. 45066, Zapopan, Jalisco",José Luis Gómez Ordaz,3310283628,casahogarsamuelac@hotmail.com.mx,,,45066,Zapopan
JALISCO,A,DAT030109E43,"Dame Algo de Tí, A.C.","Av. Revolución Núm 135, Col. Everardo Topete, C.P. 46500, Etzatlán, Jalisco",María del Carmen Guadalupe González Rubio Morales,(386) 363003,ana_luisa99@hotmail.com,,,46500,Etzatlán
JALISCO,A,EAC7907205AA,"Ex-Alumnas del Colegio Nueva Galicia, A.C.","Calle 1, Módulo 6, Edificio del DIF, Col. Unidad Estatuto Jurídico FOVISSSTE, C.P. 45101, Zapopan, Jalisco",Rosa María Cortez de Flores,13336567914,rayvag@yahoo.com.mx,,,45101,Zapopan
JALISCO,A,EAM080408EL7,"Estancia para Adultos Mayores Angeles, A.C.","Venezuela Núm 777, Col. Moderna, C.P. 44190, Guadalajara, Jalisco",María de los Ángeles Navarro Vargas,(0133)38-11-37-34,angeles.nava@live.com.mx,,,44190,Guadalajara
JALISCO,D,EBA130429TX2,"Enlace Barrancas, A.C.","Puerto Altamira Núm 3358, Col. Miramar, C.P. 45060, Zapopan, Jalisco",José Nemorio González Preciado,3336156265,janeth2230@hotmail.com,,,45060,Zapopan
JALISCO,B,EDA780629PH8,"Escuela Domingo De Alzola, A.C.","Curazao Núm 2721, Col. Fraccionamiento Colon, C.P. 44920, Guadalajara, Jalisco",Rosa María Fuentes Gonzalez,38122419,josecruz1950@hotmail.com,,,44920,Guadalajara
JALISCO,B,EED980911S98,"Espacio Educativo, A.C.","Miguel de Cervantes Núm 120, Col. Americana, C.P. 44140, Guadalajara, Jalisco",Luz María Guadalupe Barreiro Guemes,,,,,44140,Guadalajara
JALISCO,M,EEX9502027U8,"Escuela para el Éxito, A.C.","Madero Núm 5850, Col. Jocotán, C.P. 45017, Zapopan, Jalisco",Jorge Carlos Verg Vergara Madrigal,627 11 32,,,,45017,Zapopan
JALISCO,B,EEX9502027U8,"Escuela para el Éxito, A.C.","Madero Núm 5850, Col. Jocotán, C.P. 45017, Zapopan, Jalisco",Jorge Carlos Verg Vergara Madrigal,627 11 32,,,,45017,Zapopan
JALISCO,A,EFA970220N96,"Extra Fondo de Apoyo a Trabajadores de los Medios de Comunicación, A.C.","El Carmen Núm 100 - 103, Col. Camino Real, C.P. 45040, Zapopan, Jalisco",Omar Miramontes Nuño,3338805613,omar.miramontes@motormexa.mx,,,45040,Zapopan
JALISCO,B,EHC770624GE8,"Escuela Hidalgo de Cocula, A.C.","Álvaro Obregón Núm 105, C.P. 48500, Cocula, Jalisco",Ignacio González González,01 377 32052,,,,48500,Cocula
JALISCO,B,EIN861114419,"Educación e Instrucción, A.C.","Sierra de Mazamitla Núm 5821, Col. Pinar de la Calma, C.P. 45080, Zapopan, Jalisco",Juan Manuel Esparza Ortega,36318134,josecruz1950@hotmail.com,,,45080,Zapopan
JALISCO,B,EJM630920RR4,"Escuela José María de Yermo y Parres, A.C.","José María de Yermo y Parres Núm 125, Col. Zoquipan, C.P. 45170, Zapopan, Jalisco",Silvia Marina Velázquez Cortés,38 333653,artemio_medina@hotmail.com,,,45170,Zapopan
JALISCO,A,EMD870408MN3,"Escuela Mixta para el Desarrollo Integral del Invidente Helen Keller, A.C.","Juan Sebastian Bach Núm 5638, Col. La Estancia, C.P. 45148, Zapopan, Jalisco",María de la Paz Isabel Martínez Iguíniz,36 29 34 48,helenkellerac@yahoo.com.mx,,,45148,Zapopan
JALISCO,A,ENC710823C43,"Escuela para Niñas Ciegas de Guadalajara, A.C.","Av. López Mateos Sur Núm 3946, Col. La Calma, C.P. 45070, Zapopan, Jalisco",Margarita Aranguren Castiello,01 321 318681,,,,45070,Zapopan
JALISCO,A,EPG801014DA0,"Enfermeras Prácticas Gratuitas a Domicilio de Guadalajara, A.C.","Bella Vista Núm 125, Col. Lindavista, C.P. 45169, Zapopan, Jalisco",Filomena González,656 02 57,,,,45169,Zapopan
JALISCO,B,ESM980424NS8,"Educación Superior Marista, A.C.","Marcelino Champagnat Núm 2981, Col. Loma Bonita, C.P. 45050, Zapopan, Jalisco",Luis Adalberto Dávalos Valadés,33-3540-3900,administracion@umg.edu.mx,,,45050,Zapopan
JALISCO,M,ESM980424NS8,"Educación Superior Marista, A.C.","Marcelino Champagnat Núm 2981, Col. Loma Bonita, C.P. 45050, Zapopan, Jalisco",Luis Adalberto Dávalos Valadés,33-3540-3900,administracion@umg.edu.mx,,,45050,Zapopan
JALISCO,A,FAG970228RA6,"Fundación Aloysius Guadalajara, A.C.","Laureles Carretera Federal Núm 35, Col. Guadalajara Jiquilpan km 116, C.P. 45700, Acatlán de Juárez, Jalisco",Yong Sook Lee Bu,8-23-66-24,,,,45700,Acatlán de Juárez
JALISCO,A,FAI060707SH9,"Fundación para el Apoyo Institucional y Aldea infantil, A.C.","Paseo de los Sabinos Núm 946, Col. Jardines de Tabachines, C.P. 45180, Zapopan, Jalisco",Leopoldo Villa García Igartua,36159463,elopez@funaii.org.mx,,,45180,Zapopan
JALISCO,A,FAN130211DC4,"Fundación Co & Co, A.C.","Moctezuma Núm 144, Col. Ciudad del Sol, C.P. 45050, Zapopan, Jalisco",Álvaro Cornejo Jiménez,3338245161,hnavarro@prodigy.net.mx,,,45050,Zapopan
JALISCO,M,FBC0902065R8,"Fundación Black Coffe Gallery, A.C.","Administradores Núm 5135, Col. Jardines de Guadalupe, C.P. 45030, Zapopan, Jalisco",María de los Dolores Corte Juárez,"36285120, 12016460",aseemcont6@hotmail.com,,,45030,Zapopan
JALISCO,A,FBC0902065R8,"Fundación Black Coffe Gallery, A.C.","Administradores Núm 5135, Col. Jardines de Guadalupe, C.P. 45030, Zapopan, Jalisco",María de los Dolores Corte Juárez,"36285120, 12016460",aseemcont6@hotmail.com,,,45030,Zapopan
JALISCO,A,FBG0707115U2,"Fundación Be´Emet- Un Lugar con Corazón, A.C.","Rembrandt Núm 5087 - 2, Col. Real  Vallarta, C.P. 45020, Zapopan, Jalisco",Israel Ben Zashuvath Saheith,3110 6595,fbeemet@gmail.com,,,45020,Zapopan
JALISCO,M,FBG0707115U2,"Fundación Be´Emet- Un Lugar con Corazón, A.C.","Rembrandt Núm 5087 - 2, Col. Real  Vallarta, C.P. 45020, Zapopan, Jalisco",Israel Ben Zashuvath Saheith,3110 6595,fbeemet@gmail.com,,,45020,Zapopan
JALISCO,M,FCM131227SGA,"Fundación Crescendo con la Música México, A.C.","Van Gogh Núm 5011, Col. Real Vallarta, C.P. 45020, Zapopan, Jalisco",Jorge Viladoms Weber,443318034693,jviladoms@hotmail.com,,,45020,Zapopan
JALISCO,D,FCM131227SGA,"Fundación Crescendo con la Música México, A.C.","Van Gogh Núm 5011, Col. Real Vallarta, C.P. 45020, Zapopan, Jalisco",Jorge Viladoms Weber,443318034693,jviladoms@hotmail.com,,,45020,Zapopan
JALISCO,A,FCO0505306V0,"Futbol y Corazón, A.C.","Av. Xóchitl Núm 4262 - 6, Col. Prados Tepeyac, C.P. 45050, Zapopan, Jalisco",Mauricio Heredia Horner,12019127,mheredia@rafamarquez.org,"Santa Isabel Núm 155, Col. La Providencia, C.P. 45400, Tonalá, Jalisco",,45050,Zapopan
JALISCO,M,FCO0505306V0,"Futbol y Corazón, A.C.","Av. Xóchitl Núm 4262 - 6, Col. Prados Tepeyac, C.P. 45050, Zapopan, Jalisco",Mauricio Heredia Horner,12019127,mheredia@rafamarquez.org,"Santa Isabel Núm 155, Col. La Providencia, C.P. 45400, Tonalá, Jalisco",,45050,Zapopan
JALISCO,A,FDE000126NS0,"Fundación Dios y Esperanza, A.C.","Av. Patria Núm 688, Col. Jardines de Guadalupe, C.P. 45030, Zapopan, Jalisco",María Ema de la Paz Guzmán,36 20 99 86,patria_08@hotmail.com,,,45030,Zapopan
JALISCO,B,FDE030624N43,"Fundación Donde Educarte, A.C.","Juárez Núm 15, Col. Estipac, C.P. 45740, Zapopan, Jalisco",José Anselmo Becerra Aponte,(377)-774-00-01,aponte44@gmail.com,,,45740,Zapopan
JALISCO,A,FDM020708AE5,"Fundación Delia Morán, A.C.","San Gabriel Núm 679 - 4, Col. Chapalita, C.P. 44790, Guadalajara, Jalisco",Maria Teresa Chávez Moran,36-78-29-00,,,,44790,Guadalajara
JALISCO,M,FDM020708AE5,"Fundación Delia Morán, A.C.","San Gabriel Núm 679 - 4, Col. Chapalita, C.P. 44790, Guadalajara, Jalisco",Maria Teresa Chávez Moran,36-78-29-00,,,,44790,Guadalajara
JALISCO,A,FEA101217151,"Fundación de Ex Alumnos Maristas del Cervantes, A.C.","Av. Luis Pérez Verdia Núm 361, Col. Ladrón de Guevara, C.P. 44600, Guadalajara, Jalisco",Luis Javier de la Torre Cuellar,3338238610,jgu@hallal.com.mx,,,44600,Guadalajara
JALISCO,H,FEG070118V82,"Fundación Expo Guadalajara, Fundación","Av. Mariano Otero Núm 1499 Edif. B, Col. Verde Valle, C.P. 44550, Guadalajara, Jalisco",Jorge Guillermo Navarro Fuentes,0133-33433000,fundacion@fundacionexpoguadalajara.org,,,44550,Guadalajara
JALISCO,A,FEG9911295Z2,"Fundación Emmanuel Guadalajara, A.C.","Av. Prolongación Tepeyac Núm 1296 - A, Col. Paraisos del Colli, C.P. 45069, Zapopan, Jalisco",Hilario Morales Guzmán,31-35-15-11,,,,45069,Zapopan
JALISCO,A,FEN0806215T9,"Fundación Esperanza para Niños con Diabetes México, A.C.","Alfonso Cravioto Núm 2231, Col. Jardines Alcalde, C.P. 44298, Zapopan, Jalisco",Gerardo García Sandozequi,38323436,fundesperanza@gmail.com,,,44298,Zapopan
JALISCO,A,FEP1105193F8,"Fundación EPA, A.C.","Circuito Madrigal Núm 1736 - 2, Col. San Wenceslao, C.P. 45110, Zapopan, Jalisco",Beatriz Monraz González,3336101418,informes@fundacionepa.org,,,45110,Zapopan
JALISCO,M,FEP1105193F8,"Fundación EPA, A.C.","Circuito Madrigal Núm 1736 - 2, Col. San Wenceslao, C.P. 45110, Zapopan, Jalisco",Beatriz Monraz González,3336101418,informes@fundacionepa.org,,,45110,Zapopan
JALISCO,A,FES101216EB6,"Fundación Escalar, A.C.","Romanos Núm 12, Col. Altamira, C.P. 45160, Zapopan, Jalisco",Rodrigo González Martínez de Velazco Marcos Antonio Malfavon Cira,,,,,45160,Zapopan
JALISCO,A,FFA0511044EA,"Fundación Fuente de Agua, Fundación","Av. Circunvalación del Bosque Núm 1345, Col. El Bajío, C.P. 45019, Zapopan, Jalisco",María de Jesús Merino González,36 15 84 92,fiscallucia@prodigy.net.mx,,,45019,Zapopan
JALISCO,M,FFA0511044EA,"Fundación Fuente de Agua, Fundación","Av. Circunvalación del Bosque Núm 1345, Col. El Bajío, C.P. 45019, Zapopan, Jalisco",María de Jesús Merino González,36 15 84 92,fiscallucia@prodigy.net.mx,,,45019,Zapopan
JALISCO,A,FFI111026U84,"FIORE Fundación Infantil Oncológica Reconociendo la Educación, A.C.","Batallón de San Patricio Núm 345, Col. Jardines de Santa Isabel, C.P. 44300, Guadalajara, Jalisco",Leticia Alejandra Larios Torres,3313-8392-89,,,,44300,Guadalajara
JALISCO,M,FFI111026U84,"FIORE Fundación Infantil Oncológica Reconociendo la Educación, A.C.","Batallón de San Patricio Núm 345, Col. Jardines de Santa Isabel, C.P. 44300, Guadalajara, Jalisco",Leticia Alejandra Larios Torres,3313-8392-89,,,,44300,Guadalajara
JALISCO,B,FGU930812HA2,"Fundación Gusi, A.C.","Volcán Jorullo Núm 1928, Col. El Colli 1ª y 2ª Sección, C.P. 45070, Zapopan, Jalisco",María de los Ángeles Fernández Aceves,33-36-20-01-29,josecruz1950@hotmail.com,,,45070,Zapopan
JALISCO,D,FGV050420779,"Fundación Grupo Vidanta, A.C.","Av. Lázaro Cárdenas Núm 4070, Col. Camino Real, C.P. 45040, Zapopan, Jalisco",Anna Aurora de la Asunción Alarcón Collignon María Teresa Chávez Morán,31256030,,,,45040,Zapopan
JALISCO,H,FHA0712011Q5,"Fundación Hace, A.C.","Cuautitlán Núm 444 - 4, Col. Los Arcos, C.P. 44500, Guadalajara, Jalisco",German Hernández Aceves,3336472034,lcpisraelmts@yahoo.com.mx,,,44500,Guadalajara
JALISCO,H,FHC000126JQ3,"Fundación Hospitales Civiles de Guadalajara, A.C.","Lerdo de Tejada Núm 2042-A, Col. Americana, C.P. 44160, Guadalajara, Jalisco",Leopoldo Muro Pico,,,,,44160,Guadalajara
JALISCO,A,FIN100311P58,"Familias Integras, A.C.","Antiguo Camino Real a Colima Núm 1200-A, Col. San Agustín de las Flores, C.P. 45645, Tlajomulco de Zuñiga, Jalisco",Roxana Barroso Barroso,,,,,45645,Tlajomulco de Zuñiga
JALISCO,M,FIN100311P58,"Familias Integras, A.C.","Antiguo Camino Real a Colima Núm 1200-A, Col. San Agustín de las Flores, C.P. 45645, Tlajomulco de Zuñiga, Jalisco",Roxana Barroso Barroso,,,,,45645,Tlajomulco de Zuñiga
JALISCO,A,FLS131128KT7,"Formación Laboral San José, A.C.","Paseo de los Parques Núm 4278, Col. Villa Universitaria, C.P. 45110, Zapopan, Jalisco",Luis  Rodrigo Leal Landagaray,3313726517,rodrigo@flsanjose.org,,,45110,Zapopan
JALISCO,M,FLS131128KT7,"Formación Laboral San José, A.C.","Paseo de los Parques Núm 4278, Col. Villa Universitaria, C.P. 45110, Zapopan, Jalisco",Luis  Rodrigo Leal Landagaray,3313726517,rodrigo@flsanjose.org,,,45110,Zapopan
JALISCO,A,FMA120907FD7,"Fundación Maver, A.C.","San Dionisio Núm 25, Col. Jardines de San Ignacio, C.P. 45040, Zapopan, Jalisco",María del Refugio Razón Gutiérrez,38377300,ruribe@maver.com.mx,,,45040,Zapopan
JALISCO,A,FMS930126KN8,"Fundación Margarita Sahagún de Montaño, A.C.","Hacienda Altamira Núm 2180, Col. Agraria, C.P. 45160, Zapopan, Jalisco",Eduardo Montaño Sahagún,663 77 68,,,,45160,Zapopan
JALISCO,L,FNG150918D44,"Fundación Nacional para la Gestión de Riesgos de Desastres, A.C.","Av. Periférico Norte Núm 640, Col. Parque Industrial Belenes Norte, C.P. 45130, Zapopan, Jalisco",Jaime Barajas Arellano,3314916547,aloricel@hotmail.com,,,45130,Zapopan
JALISCO,M,FOP061030DW4,"Fundación Oportunidades, A.C.","Prado de la Azucenas Núm 333, Col. Prados Tepeyac, C.P. 45050, Zapopan, Jalisco",Catalina Casar y Aldrete,31213700,jgallegos.asesores@gmail.com,,,45050,Zapopan
JALISCO,A,FOP061030DW4,"Fundación Oportunidades, A.C.","Prado de la Azucenas Núm 333, Col. Prados Tepeyac, C.P. 45050, Zapopan, Jalisco",Catalina Casar y Aldrete,31213700,jgallegos.asesores@gmail.com,,,45050,Zapopan
JALISCO,A,FPA101110TP5,"Fundación Personas con Abuso Sexual de Guadalajara, A.C.","Calle Quito Núm 1260, Col. Jardines de Providencia, C.P. 44630, Guadalajara, Jalisco",Eduardo Cruz Moguel,3336422803,carpeta99@hotmail.com,,,44630,Guadalajara
JALISCO,A,FPP050107HQ0,"Fundación Proempleo Productivo Guadalajara, A.C.","Orión Núm 1143, Col. Jardines del Bosque, C.P. 44520, Zapopan, Jalisco",Mario Ramírez Gómez,313-300-80,proempleo_gdl@yahoo.com.mx,,,44520,Zapopan
JALISCO,A,FPR830620ID3,"Fundación Pro Vista, A.C.","Prisciliano Sánchez Núm 881, Col. Centro, Sector Juárez, C.P. 44100, Guadalajara, Jalisco",Raél Blum.,633 84 75,,,,44100,Guadalajara
JALISCO,A,FQU110624LW9,"Familias Quánticas, A.C.","Camino al Arroyo Núm 39, Col. Camino Real a Santa Anita, C.P. 45600, Guadalajara, Jalisco",María Eugenia García Casabianca,13336155559,megc_oficina@hotmail.com,,,45600,Guadalajara
JALISCO,A,FRC091218KMA,"Fundación Roberto Chávez Gracián, A.C.","Escorza Núm 541, Col. Moderna, C.P. 44190, Guadalajara, Jalisco",Patricia Roxana Chávez Gracian,3338265155,meche7373@hotmail.com,,,44190,Guadalajara
JALISCO,A,FRS900306NY8,"Fundación de Reintegración Social del Estado de Jalisco, A.C.","Av. Periférico Sur Núm 6739, Col. Toluquilla, C.P. 45610, Tlaquepaque, Jalisco",Ricardo Javier Moreno Padilla,3336862141,reintgerajalisco@gmail.com,,,45610,Tlaquepaque
JALISCO,A,FSM971029K7A,"Fundación Santa María del Tepeyac, A.C.","Guelatao Núm 1768, Col. Benito Juárez, C.P. 45180, Zapopan, Jalisco",Graciela Guadalupe García Ramos,,,,,45180,Zapopan
JALISCO,A,FSV060317TY3,"Fundación Stella Vega, A.C.","Venezuela Núm 820 - 1, Col. Moderna, C.P. 44190, Guadalajara, Jalisco",Stella Álvarez Vega,33-3678-2646,cmosorio@pisa.com.mx,,,44190,Guadalajara
JALISCO,A,FVC140128Q30,"Fundación Vamos Contigo de la Mano, A.C.","Fuente Hermana Agua Núm 5329, Col. Cond. Chapalita Las Fuentes, C.P. 45030, Zapopan, Jalisco",Yadira Sánchez Jiménez,3331232697,yadiravamoscontigodelamano@hotmail.com,,,45030,Zapopan
JALISCO,A,FYA0408269Q1,"FYAPDI, A.C.","Virgen Núm 3462, Col. La Calma, C.P. 45070, Zapopan, Jalisco",José Sergio de Jesús Alcántara González,3646 9735,isabel_ortiz@prodigy.net.mx,,,45070,Zapopan
JALISCO,B,GEV1001083M7,"Grupo Educativo VHOS, A.C.","Av. Paseo de la Estrella Núm 857, Col. Solares, C.P. 45019, Zapopan, Jalisco",Alejandro Tomás Ornelas Márquez,3336248453,controlescolarsubire@hotmail.com,,,45019,Zapopan
JALISCO,A,GHB101202790,"Grupo Holístico para el Bienestar, Investigación y Desarrollo Social Integral, A.C.","Gómez Morín Núm 4969, Col. Los Canteros, C.P. 45190, Guadalajara, Jalisco",Arturo Salazar Sánchez,133336608229,salazar.sanchez_arturo@hotmail.com,,,45190,Guadalajara
JALISCO,M,GHB101202790,"Grupo Holístico para el Bienestar, Investigación y Desarrollo Social Integral, A.C.","Gómez Morín Núm 4969, Col. Los Canteros, C.P. 45190, Guadalajara, Jalisco",Arturo Salazar Sánchez,133336608229,salazar.sanchez_arturo@hotmail.com,,,45190,Guadalajara
JALISCO,B,GMA050311H6A,"La Guarderia de Mamá, S. C.","Av. Acueducto Núm 6060 - A2, Col. Lomas del Bosque, C.P. 45118, Zapopan, Jalisco",Francisco Gustavo Hernández Lomelí,15961922,belastinglg@mail.com,,,45118,Zapopan
JALISCO,M,GME160422QF0,"Gastromotiva México, A.C.","Abel Ayala Núm 61, Col. Los Maestros, C.P. 45150, Zapopan, Jalisco",Alejandro González de la Peña Lorena Fabiola Valdez Salazar Claudia Odille Ramírez López,445548841938,lachefclaudiaramirez@gmail.com,,,45150,Zapopan
JALISCO,A,GME160422QF0,"Gastromotiva México, A.C.","Abel Ayala Núm 61, Col. Los Maestros, C.P. 45150, Zapopan, Jalisco",Alejandro González de la Peña Lorena Fabiola Valdez Salazar Claudia Odille Ramírez López,445548841938,lachefclaudiaramirez@gmail.com,,,45150,Zapopan
JALISCO,A,GRG901108M68,"Grupo Reto Guadalajara, A.C.","Avenida La Paz Núm 1639, Col. Americana, C.P. 44160, Guadalajara, Jalisco",María del Refugio Palacios Delgado,382-64275,misael_ochoa@hotmail.com,,,44160,Guadalajara
JALISCO,A,HAL070827K11,"HA.C.E. Alegrías, A.C.","Volcán Tancitaro Núm 1563 - 17, Col. Residencial Moctezuma Poniente, C.P. 45053, Zapopan, Jalisco",Marthe Ivonne Gisele Menault González,312-53-070,marthemenault@hotmail.com,,,45053,Zapopan
JALISCO,A,HAN640811R45,"Hogares de Ancianos, A.C.","Zoquipan Núm 166, Col. Seatle, C.P. 45170, Zapopan, Jalisco",Magdalena Naranjo Esquivel,33 30 23,,,,45170,Zapopan
JALISCO,A,HPV151001827,"Hermano Pedro Vila, A.C.","Juan Pablo II Núm 55, Col. El Capullo, C.P. 45150, Zapopan, Jalisco",María Isabel Rosas Morales,38258237,,,,45150,Zapopan
JALISCO,A,HVG740115PV2,"Hogar Vicentino de Guadalajara, A.C.","Hidalgo Núm 78, Col. Fracc. Los Gavilanes, C.P. 45645, Tlajomulco de Zuñiga, Jalisco",Lic. Valentín Gonález Cosio Elcoro,,,,,45645,Tlajomulco de Zuñiga
JALISCO,M,HVG740115PV2,"Hogar Vicentino de Guadalajara, A.C.","Hidalgo Núm 78, Col. Fracc. Los Gavilanes, C.P. 45645, Tlajomulco de Zuñiga, Jalisco",Lic. Valentín Gonález Cosio Elcoro,,,,,45645,Tlajomulco de Zuñiga
JALISCO,B,ICI460612Q68,"Instituto de Ciencias, A.C.","Av. Manuel Ávila Camacho Núm 2935, Col. Jacarandas, C.P. 45160, Zapopan, Jalisco",Juan Pablo Arellano Landa,38364303,arellanolanda@hotmail.com,,,45160,Zapopan
JALISCO,D,ICI830804PI4,"Instituto Cultural Ignacio Dávila Garibi, A.C.","Av. Vallarta Núm 4095, Col. Don Bosco Vallarta, C.P. 45040, Guadalajara, Jalisco",Rubén González Orozco,91 36 47 87 73,idgaribi@gmail.com,,,45040,Guadalajara
JALISCO,A,IDI1010209M5,"Institución de Desarrollo Infantil Nuestra Señora de Guadalupe, A.C.","Callejón 6 de Mayo Núm 5, Col. La Tijera, C.P. 45647, Tlajomulco de Zuñiga, Jalisco",Mayela Salas Candelas,,,,,45647,Tlajomulco de Zuñiga
JALISCO,B,IEC010328ELA,"Instituto Educativo Colinas de San Javier, S.C.","Paseo del Edén Núm 200, Col. Colinas de San Javier, C.P. 45110, Zapopan, Jalisco",Rocío Martín Casillas,6416938,,,,45110,Zapopan
JALISCO,B,IET720120MG9,"Instituto de Enseñanza Técnica, Media y Superior Francisco I. Madero, S.C.","Av. Circunvalación Norte Núm 160, Col. Las Fuentes, C.P. 45070, Zapopan, Jalisco",Bernardo Rangel Sada,01 55 52 93 15 00,rcruz@audit.caesc.com.,,,45070,Zapopan
JALISCO,B,IFI9911154F1,"Instituto de Filosofía, A.C.","Camino Real a Colima Núm 5160, Col. Balcones de Santa María, C.P. 45606, Guadalajara, Jalisco",Luis Fernando Falco Pliego,363-10-934 y 363-10-943,rectoriffim@yahoo.com,,,45606,Guadalajara
JALISCO,A,IIB141218JD3,"Instituto de Investigaciones Biocriticas en Salud Sexual y Derechos Humanos, A.C.","Calle Sierra de Quila Núm 1692, Col. Las Águilas, C.P. 45080, Zapopan, Jalisco",Esmeralda Mancilla Valdéz,,,,,45080,Zapopan
JALISCO,M,ILA9704234P1,"Instituto Libre de Arquitectura de Jalisco, A.C.","Lerdo de Tejada Núm 2076, Col. Americana,, C.P. 44100, Guadalajara, Jalisco",Alejandro Luis Mariano Ramírez Ugarte,33 36167606,informes@esa.edu.mx,,,44100,Guadalajara
JALISCO,B,ILA9704234P1,"Instituto Libre de Arquitectura de Jalisco, A.C.","Lerdo de Tejada Núm 2076, Col. Americana,, C.P. 44100, Guadalajara, Jalisco",Alejandro Luis Mariano Ramírez Ugarte,33 36167606,informes@esa.edu.mx,,,44100,Guadalajara
JALISCO,B,IMA001206HW0,"Instituto Miguel Ángel de Occidente, A.C.","Av. Guadalupe Núm 6600, Col. Residencial Plaza Guadalupe, C.P. 45010, Zapopan, Jalisco",Gloria Eugenia Ortíz Villalon,01333-125-18-78,,,,45010,Zapopan
JALISCO,M,IMA0812199C7,"Los Inocentes de María, A.C.","Av. San Francisco Núm 3590 - 1, Col. Jardines de San Ignacio, C.P. 45040, Zapopan, Jalisco",Brenda Lourdes del Río Machin,,,,,45040,Zapopan
JALISCO,A,IMA0812199C7,"Los Inocentes de María, A.C.","Av. San Francisco Núm 3590 - 1, Col. Jardines de San Ignacio, C.P. 45040, Zapopan, Jalisco",Brenda Lourdes del Río Machin,,,,,45040,Zapopan
JALISCO,A,IMD701203143,"Instituto Mexicano para el Desarrollo Comunitario, A.C.","Pino Núm 2237-A, Col. Fresno, C.P. 44909, Guadalajara, Jalisco",Santos Brito Flores,01 33 8 10 45 36 /  8 11 09 44,IMDEC@LANETA.APC.ORG,,,44909,Guadalajara
JALISCO,M,IMD701203143,"Instituto Mexicano para el Desarrollo Comunitario, A.C.","Pino Núm 2237-A, Col. Fresno, C.P. 44909, Guadalajara, Jalisco",Santos Brito Flores,01 33 8 10 45 36 /  8 11 09 44,IMDEC@LANETA.APC.ORG,,,44909,Guadalajara
JALISCO,A,IMO081008QT8,"Imagina en Movimiento, Asociación Civil, I.A.S.P.","Coral Núm 2545, Col. Residencial Victoria, C.P. 44560, Guadalajara, Jalisco",Alicia Negrete Ramos,3315235525,contabilidad@grupovida.com,,,44560,Guadalajara
JALISCO,B,ISA730903BB7,"Instituto Superior Autónomo de Occidente, A.C.","Av. Tepeyac Núm 4800, Col. Fracc. Prados Tepeyac, C.P. 45050, Zapopan, Jalisco",Santiago Méndez Bravo,628 24 32,,,,45050,Zapopan
JALISCO,B,ISA870116598,"Instituto del Saber, A.C.","Av. B Núm 588, Col. Seattle, C.P. 45150, Zapopan, Jalisco",Gladys del Pilar García Cabrera,6330299,,,,45150,Zapopan
JALISCO,A,JDE0606095J1,"Juntos por los Demás, A.C.","Parral Núm 55, Col. San Juan de Ocotán, C.P. 45019, Zapopan, Jalisco",Luz Marcela Zepeda Castro,31102266,mztopete@yahoo.com.mx,,,45019,Zapopan
JALISCO,A,JDF740207UV4,"Jalisco Desarrollo y Fomento, A.C.","Blvd. del Rodeo Núm 701, Col. Parque Industrial Belenes Norte, C.P. 45145, Zapopan, Jalisco",Ramon Eusebio Sepúlveda Salazar,38339461,ramon@jadefo.org.mx,,,45145,Zapopan
JALISCO,A,JLG960422KN9,"Junior League de Guadalajara, A.C.","Av. San Francisco Núm 3332, Col. Vallarta Sur, C.P. 44500, Guadalajara, Jalisco",Annette V. Lagunes Vessels,825-34-89,,,,44500,Guadalajara
JALISCO,M,JLG960422KN9,"Junior League de Guadalajara, A.C.","Av. San Francisco Núm 3332, Col. Vallarta Sur, C.P. 44500, Guadalajara, Jalisco",Annette V. Lagunes Vessels,825-34-89,,,,44500,Guadalajara
JALISCO,A,JRM130730I13,"Jesucristo Rey de Misericordia, A.C.","Av. Libramiento a la Base Aerea Núm 1150 - P A, Col. Unidad Militar, C.P. 45200, Zapopan, Jalisco",Alejandro Barragán Hernández,331529237,ing_alej@hotmail.com,,,45200,Zapopan
JALISCO,B,KGU990512QS9,"Kindergarten Guzymard, S.C.","Circuito de las Flores Oriente Núm 2073, Col. Ciudad Bugambilias, C.P. 45237, Zapopan, Jalisco",Blanca Margarita Cabral Alonso,33-36-12-03-03,Josecruz1950@hotmail.com,,,45237,Zapopan
JALISCO,B,LME790201R70,"Lamar Mexicana, A.C.","Av. Hidalgo Núm 1540, Col. Americana, C.P. 44160, Guadalajara, Jalisco",Ricardo Ramírez Angulo,01(33)3647-7769 ext 1117,lmolinag@lamar.edu.mx,,,44160,Guadalajara
JALISCO,B,LSC721128DX6,"Lincoln School, A.C.","Circunvalación Sur Núm 62, Col. Las Fuentes, C.P. 45070, Zapopan, Jalisco",Glen Swarthout Sage,648-03-98,,,,45070,Zapopan
JALISCO,B,LVA770103NA8,"Liceo del Valle, A.C.","Av. Paseo del Valle Núm 500, Col. Fracc. Colinas de San Javier, C.P. 45110, Guadalajara, Jalisco",Cornelio Carlos Guzmán,642 30 90,,,,45110,Guadalajara
JALISCO,B,MAG900405MQ5,"Mano Amiga de Guadalajara, S.C.","Calle 2a. Poniente Núm 275, Col. Jardines de Nuevo México, C.P. 45110, Zapopan, Jalisco",Jorge Vela Beltrán del Río,,,,,45110,Zapopan
JALISCO,C,MAJ080603LW1,"Medios Audiovisuales de Jalisco, A.C.","Av. Lerdo de Tejada Núm 2091 - 1, Col. Americana, C.P. 44160, Guadalajara, Jalisco",Margarita Cristina Sierra Díaz de Rivera,33 36158 470,cfr1917@yahoo.com.mx,,,44160,Guadalajara
JALISCO,A,MCA080617NS6,"Madre Consejo Addatis, A.C.","Av. Francisco Javier Gamboa Núm 130, Col. Arcos Vallarta, C.P. 44140, Guadalajara, Jalisco",María Zingaro,33-36-150-603,addatisyahoo.es,,,44140,Guadalajara
JALISCO,A,MCL041217I15,"El Maistro Cleto, A.C","Cuauhtémoc Núm 825, Col. Ciudad del Sol, C.P. 45050, Zapopan, Jalisco",Mariana Sánchez Uribe,33-3133-0547,hectorfespinoza@hotmail.com,,,45050,Zapopan
JALISCO,A,MMU030619L29,"Mujer para la Mujer, A.C.","Paseo de los Parques Núm 4191, Col. Villa Universitaria, C.P. 45110, Zapopan, Jalisco",Gloria Gómez Ibarra Ontiveros,36 10 00 99,mujerparalamujer@yahoo.com,,,45110,Zapopan
JALISCO,A,MMU990325DC1,"Misión Mujer, A.C.","9 Núm 504, Col. Jardines Seattle, C.P. 45150, Zapopan, Jalisco",Bárbara Miranda G.,33 31110508,,,,45150,Zapopan
JALISCO,M,MMU990325DC1,"Misión Mujer, A.C.","9 Núm 504, Col. Jardines Seattle, C.P. 45150, Zapopan, Jalisco",Bárbara Miranda G.,33 31110508,,,,45150,Zapopan
JALISCO,C,MPJ130227JQ4,"Mexicanos Primero Jalisco, A.C.","Aurelio Ortega Núm 764-0, Col. Seattle, C.P. 45150, Zapopan, Jalisco",Alejandro Gómez Levy,3338360100,vruiz@gcitania.com,,,45150,Zapopan
JALISCO,A,NUP140411378,"Nupali, A.C.","Av. Patria Núm 361 - 12, Col. Jardines Universidad, C.P. 45110, Zapopan, Jalisco",Gustavo Aceves Torres,19837723,nupaliac@gmail.com,,,45110,Zapopan
JALISCO,M,NUP140411378,"Nupali, A.C.","Av. Patria Núm 361 - 12, Col. Jardines Universidad, C.P. 45110, Zapopan, Jalisco",Gustavo Aceves Torres,19837723,nupaliac@gmail.com,,,45110,Zapopan
JALISCO,A,OBL1310223T4,"La Oblita, A.C.","Francisco Villa Núm 53-B, Col. Agua Blanca Industrial, C.P. 45235, Zapopan, Jalisco",J. Jesús Flores Ayala,3336843748,jesusblato@hotmail.com,,,45235,Zapopan
JALISCO,A,ONI120622HF1,"Oportunidad para la Niñez, A.C.","Santa Ana Núm 144 A - 1, Col. Las Fuentes, C.P. 45070, Zapopan, Jalisco",Eugenia Aguirre Fernández,,,,,45070,Zapopan
JALISCO,A,OSM0609113K5,"Operation Smile México, A.C.","Moctezuma Núm 3515 Loc 7 y 8 - Zona J P.B., Col. Ciudad del Sol, C.P. 45050, Zapopan, Jalisco",José Benjamín Mijangos y Borja,31 22 88 64,ernesto.iniguez@keminsol.com,,,45050,Zapopan
JALISCO,A,OSM7209071M1,"Orfanatorio de la Soledad de María, A.C.","Fresnos Núm 15, Col. Cd. Granja, C.P. 45010, Zapopan, Jalisco",Ing. Jesés Muñoz Rojas,627 10 53,,,,45010,Zapopan
JALISCO,A,PAH9911164D3,"Patronato de Apoyo del Hospital General de Occidente, A.C.","Av. Zoquipan Núm 1050, Col. Zoquipan,, C.P. 45170, Zapopan, Jalisco",Manuel Corona Castillo,633 48 93,,,,45170,Zapopan
JALISCO,A,PAY141013789,"Pasión Por Ayudar, A.C.","Blvd. Puerta de Hierro Núm 4965 - Sótano 2, Col. Puerta de Hierro, C.P. 45116, Acatic, Jalisco",Ana Laura Orozco Chávez,,ana2820estudio@hotmail.com,,,45116,Acatic
JALISCO,A,PCC5203262G3,"Pro Cultura y Capacitación de la Mujer Mexicana, A.C.","Soledad Núm s/n, Col. Fracc. Los Gavilanes, C.P. 45645, Tlajomulco de Zuñiga, Jalisco",Benjamín Yañez León,3336860048,villamariareinabp@prodigy.net.mx,,,45645,Tlajomulco de Zuñiga
JALISCO,M,PCC5203262G3,"Pro Cultura y Capacitación de la Mujer Mexicana, A.C.","Soledad Núm s/n, Col. Fracc. Los Gavilanes, C.P. 45645, Tlajomulco de Zuñiga, Jalisco",Benjamín Yañez León,3336860048,villamariareinabp@prodigy.net.mx,,,45645,Tlajomulco de Zuñiga
JALISCO,B,PCE790417B32,"Promotora de Centros Educativos de Occidente, A.C.","López Cotilla Núm 1465 - pisos 6 y 7, Col. Americana, C.P. 44140, Guadalajara, Jalisco",Marcos Suárez Rodríguez,625-81-06,,,,44140,Guadalajara
JALISCO,B,PCO700828976,"Promoción Cultural de Occidente, A.C.","Av. de los Pinos Núm 50, Col. Fracc. Rinconada Santa Rita, C.P. 41127, Zapopan, Jalisco",Ilda Margarita Rosas Ramírez,813 06 40/54,,,,41127,Zapopan
JALISCO,B,PDE860709AY1,"Patronato para el Desarrollo Empresarial Mexicano, A.C.","Francisco Javier Gamboa Núm 196, Col. Los Arcos Sur, C.P. 44500, Guadalajara, Jalisco",FRANCISCO IBARRA SILVA,,,,,44500,Guadalajara
JALISCO,B,PFV0106115T2,"Patronato Francisco V Ruiz, A.C.","Zaragoza Núm 130, Col. Centro, C.P. 49600, Zapotiltic, Jalisco",Felix Alfredo Ceballos Sánchez,3414140198,colegiofranciscovruiz@hotmail.com,,,49600,Zapotiltic
JALISCO,B,PHU840717BS2,"Promotora de Humanidades, A.C.","Colón Núm 918, Col. Moderna, C.P. 44190, Guadalajara, Jalisco",Óscar Roberto Domínguez Couttolenc,01 3 19-75-21,,,,44190,Guadalajara
JALISCO,B,PLI9012219H7,"Plimei, A.C.","Antonio Alvarez del Castillo Núm 4228, Col. Lomas de Guadalupe, C.P. 45038, Zapopan, Jalisco",José de Jesús Segoviano Olivarez,13336290470,plimeiac@gmail.com,,,45038,Zapopan
JALISCO,B,PMF0110293I7,"El Pequeño Mundo Feliz, S.C.","Tepeyac Núm 224, Col. Chapalita Oriente, C.P. 45040, Zapopan, Jalisco",Carlos Álvarez del Castillo Roa,15961922,belastinglg@gmail.com,,,45040,Zapopan
JALISCO,B,PMN010125PZ4,"Pilhuancalli Montessori Neuromotor, A.C.","Novena Sur Núm 4960, Col. Jardines de Nuevo México, C.P. 45200, Zapopan, Jalisco",Sofia Larios Córdova,38327064,pilhuancalli@hotmail.com,,,45200,Zapopan
JALISCO,A,PNM1411056Q7,"Parlamento Nacional de la Mujer, A.C.","Can Mayor Núm 3600 - Interior 1, Col. Arboledas, C.P. 45070, Zapopan, Jalisco",Esthela Osuna Magaña,3333625246,lcm_pabs@hotmail.com,,,45070,Zapopan
JALISCO,M,PNM1411056Q7,"Parlamento Nacional de la Mujer, A.C.","Can Mayor Núm 3600 - Interior 1, Col. Arboledas, C.P. 45070, Zapopan, Jalisco",Esthela Osuna Magaña,3333625246,lcm_pabs@hotmail.com,,,45070,Zapopan
JALISCO,B,PUN781208726,"Paz y Unión, A.C.","López Cotilla Núm 91, C.P. 45700, Acatlán de Juárez, Jalisco",Aurora Contreras Vallejo,13877720033,serconaher3000@yahoo.com,,,45700,Acatlán de Juárez
JALISCO,A,RMA010323QZ4,"Radio María, A.C.","Bernardo de Balbuena Núm 360, Col. Santa Teresita, C.P. 44600, Guadalajara, Jalisco",Eduwiges Griselda Alonso García Gabriela López Coutigno,3333671000,administracion.mex@radiomaria.org,,,44600,Guadalajara
JALISCO,M,RPA080425S78,"Rostro del Padre, A.C.","Quetzal Núm 7, Col. San Marcos, C.P. 46540, Zapopan, Jalisco",Carlos Dominguez García,13867570551,jmbracamontes@hotmail.com,,,46540,Zapopan
JALISCO,A,RPA080425S78,"Rostro del Padre, A.C.","Quetzal Núm 7, Col. San Marcos, C.P. 46540, Zapopan, Jalisco",Carlos Dominguez García,13867570551,jmbracamontes@hotmail.com,,,46540,Zapopan
JALISCO,A,RTO101020SY4,"Rescatando Tesoros de la Oscuridad, A. C.","Cerro de Cuyutlan Núm 669, Col. Loma Bonita Ejidal, C.P. 45085, Zapopan, Jalisco",Saúl Padilla Barragán,3336340734,tesoros_ac@hotmail.com,,,45085,Zapopan
JALISCO,M,RTO101020SY4,"Rescatando Tesoros de la Oscuridad, A. C.","Cerro de Cuyutlan Núm 669, Col. Loma Bonita Ejidal, C.P. 45085, Zapopan, Jalisco",Saúl Padilla Barragán,3336340734,tesoros_ac@hotmail.com,,,45085,Zapopan
JALISCO,A,SES051129CZ5,"Sueños y Esperanzas, A.C.","Santo Tomás de Aquino Núm 5136, Col. Jardines de Guadalupe, C.P. 45030, Zapopan, Jalisco",Gloria Erika Cid Galindo,32889682,erikacid72@yahoo.com.,,,45030,Zapopan
JALISCO,M,SES051129CZ5,"Sueños y Esperanzas, A.C.","Santo Tomás de Aquino Núm 5136, Col. Jardines de Guadalupe, C.P. 45030, Zapopan, Jalisco",Gloria Erika Cid Galindo,32889682,erikacid72@yahoo.com.,,,45030,Zapopan
JALISCO,M,SIX1302189E3,"Somos Iguales X Una Nueva Oportunidad, A.C.","Rodrigo de Triana Núm 2920 - 21, Col. Vallarta Norte, C.P. 44690, Guadalajara, Jalisco",José Luis Avelar Hernández,3332710853,somosigualesac@yahoo.com.mx,,,44690,Guadalajara
JALISCO,A,SIX1302189E3,"Somos Iguales X Una Nueva Oportunidad, A.C.","Rodrigo de Triana Núm 2920 - 21, Col. Vallarta Norte, C.P. 44690, Guadalajara, Jalisco",José Luis Avelar Hernández,3332710853,somosigualesac@yahoo.com.mx,,,44690,Guadalajara
JALISCO,M,SMG121203HS1,"Sembrador Media GDL, A.C.","Av. Acueducto Núm 6050 - 17, Col. Lomas del Bosque, C.P. 45118, Zapopan, Jalisco",María Dolores Chávez Campos,3347805126,sembradormediagdl@yahoo.com.mx,,,45118,Zapopan
JALISCO,A,SMG121203HS1,"Sembrador Media GDL, A.C.","Av. Acueducto Núm 6050 - 17, Col. Lomas del Bosque, C.P. 45118, Zapopan, Jalisco",María Dolores Chávez Campos,3347805126,sembradormediagdl@yahoo.com.mx,,,45118,Zapopan
JALISCO,A,TAA121019MX7,"Trascendiendo el Autismo, A.C.","Juan Alvarez Núm 2372 - 2, Col. Rojas Ladron de Guevara, C.P. 44650, Zapopan, Jalisco",Alinia Negrete Ramos,,cfer1917@yahoo.com.mx,,,44650,Zapopan
JALISCO,D,TGD090630BX4,"Fundación Tónica, A.C.","Av. Hidalgo Núm 1952 - local 1, Col. Ladron de Guevara, C.P. 44600, Guadalajara, Jalisco",Gilberto Cervantes Correa,443334943252,ANA_LILIA_81@HOTMAIL.COM,,,44600,Guadalajara
JALISCO,A,TSA121227V2A,"El Telar de Sarape, A.C.","Lerdo de Tejada Núm 2322 - 3, Col. Lafayette, C.P. 44150, Guadalajara, Jalisco",Diego Garibay Petersen,36101198,elisa@sarapesocial.com,,,44150,Guadalajara
JALISCO,M,TSC140909G12,"Tecnologías al Servicio de la Comunidad, A.C.","Río Tuito Núm 1894, Col. Las Águilas, C.P. 45080, Zapopan, Jalisco",Ernesto Del Carmen Baltazar,3316969352,edelcarmen27@gmail.com,,,45080,Zapopan
JALISCO,A,TSC140909G12,"Tecnologías al Servicio de la Comunidad, A.C.","Río Tuito Núm 1894, Col. Las Águilas, C.P. 45080, Zapopan, Jalisco",Ernesto Del Carmen Baltazar,3316969352,edelcarmen27@gmail.com,,,45080,Zapopan
JALISCO,B,UAG7806127I8,"Universidad Autónoma de Guadalajara, A.C.","Av. Patria Núm 1201, Col. Lomas del Valle, C.P. 45110, Zapopan, Jalisco",José Arzate Valdéz,,,,,45110,Zapopan
JALISCO,B,UMD111110498,"Unión de México en la Docencia, A.C.","Molineros Núm 1450, Col. Fracc. Los Molinos, C.P. 45200, Tlaquepaque, Jalisco",Alejandro Tomas Ornelas Márquez,,,,,45200,Tlaquepaque
JALISCO,A,UOM101203RW2,"La Última Oportunidad del Mundo, A.C.","28 de Enero Núm 263, Col. Centro, C.P. 45100, Zapopan, Jalisco",Ruth Catalina Muñoz Salazar,3331658199,info@laultimaoportunidad.org,,,45100,Zapopan
JALISCO,M,UOV090317738,"Una Oportunidad de Vida Sociedad de Transplantados, A.C.","Federick Chopin Núm 5180, Col. La Estancia, C.P. 45030, Zapopan, Jalisco",María del Rocio Calderón Reynoso,3336291487,unaoportunidadvida@hotmail.com,,,45030,Zapopan
JALISCO,A,UOV090317738,"Una Oportunidad de Vida Sociedad de Transplantados, A.C.","Federick Chopin Núm 5180, Col. La Estancia, C.P. 45030, Zapopan, Jalisco",María del Rocio Calderón Reynoso,3336291487,unaoportunidadvida@hotmail.com,,,45030,Zapopan
JALISCO,B,UPF751009VA0,"Unión de Padres de Familia de la Escuela Héroes Mexicanos, A.C.","16 de Septiembre Núm 70, Col. Centro, C.P. 46770, San Martín Hidalgo, Jalisco",Celia Padilla Castillo,0138-5755-0093,Josecruz1950@hotmail.com,,,46770,San Martín Hidalgo
JALISCO,M,URU130801L84,"Un Riñón una Vida, A.C.","Prado de los Laureles Núm 1166 - 4 E, Col. Prados Tepeyac, C.P. 45050, Zapopan, Jalisco",Gerardo Germán Becerril Navarrete,3331223464,zury23@gmail.com,,,45050,Zapopan
JALISCO,A,URU130801L84,"Un Riñón una Vida, A.C.","Prado de los Laureles Núm 1166 - 4 E, Col. Prados Tepeyac, C.P. 45050, Zapopan, Jalisco",Gerardo Germán Becerril Navarrete,3331223464,zury23@gmail.com,,,45050,Zapopan
JALISCO,A,URV070612FVA,"Unidad de Rehabilitación Visual Integral, A.C.","Horizonte Núm 1171, Col. Jardines del Bosque, C.P. 44520, Guadalajara, Jalisco",Román Julián Ávila Zaragoza,33 31 22 95 53,romanavilaz@yaho.com.mx,,,44520,Guadalajara
JALISCO,A,VCM010609KX5,"Valora Conciencia en los Medios, A.C.","Av. Cruz del Sur Núm 3195 - p.b., Col. Loma Bonita Ejidal, C.P. 44590, Guadalajara, Jalisco",Elvira Guadalupe Venegas Leiva,33 312 43 929,,,,44590,Guadalajara
JALISCO,A,VFG960604E57,"Vida y Familia de Guadalajara, A.C.","Altamira Núm 251, Col. Loma Blanca, C.P. 45160, Zapopan, Jalisco",Margarita Vollalobos de Fadl,,,,,45160,Zapopan
JALISCO,M,VFG960604E57,"Vida y Familia de Guadalajara, A.C.","Altamira Núm 251, Col. Loma Blanca, C.P. 45160, Zapopan, Jalisco",Margarita Vollalobos de Fadl,,,,,45160,Zapopan
JALISCO,A,VNG970421LR1,"Villa de los Niños Guadalajara, A.C.","Laureles Carretera Federal Núm 35, Col. Guadalajara Jiquilpan km 116, C.P. 45700, Acatlán de Juárez, Jalisco",Young Sook Lee Bu,,,,,45700,Acatlán de Juárez
JALISCO,B,VOC621026AL9,"Victoria de Occidente, A.C.","Manuel Ávila Camacho Núm 325, Col. Seattle, C.P. 45150, Zapopan, Jalisco",Pablo Alejandro Limón Mestre,133338334754,dlimonm@prodigy.net.mx,,,45150,Zapopan
JALISCO,A,VPS030131AC7,"Voz Pro Salud Mental Jalisco, A.C.","Aurelio Ortega Núm 531, Col. Seattle, C.P. 45150, Zapopan, Jalisco",María de la Paz Irma Levy Salido,3642 8387,,,,45150,Zapopan
JALISCO,M,VPS030131AC7,"Voz Pro Salud Mental Jalisco, A.C.","Aurelio Ortega Núm 531, Col. Seattle, C.P. 45150, Zapopan, Jalisco",María de la Paz Irma Levy Salido,3642 8387,,,,45150,Zapopan
JALISCO,F,VVE090508NQ3,"Vías Verdes, A.C.","Chapultepec Sur Núm 376, Col. Moderna, C.P. 44190, Guadalajara, Jalisco",Sofía Carlota Chávez Arce,,,,,44190,Guadalajara
